{"type":"FeatureCollection","name":"23228_岩倉市","crs":{"type":"name","properties":{"name":"urn:ogc:def:crs:OGC:1.3:CRS84"}},"features":[{"type":"Feature","id":"232280010","properties":{"KEY_CODE":"232280010","PREF":"23","CITY":"228","S_AREA":"001000","PREF_NAME":"愛知県","CITY_NAME":"岩倉市","S_NAME":"大市場町","HCODE":8101,"AREA":296979.592,"KIGO_E":"","JINKO":1669,"SETAI":757,"X_CODE":136.881797,"Y_CODE":35.27457},"geometry":{"type":"Polygon","coordinates":[[[136.882837,35.276407],[136.882834,35.276103],[136.883178,35.276129],[136.883279,35.276136],[136.883393,35.27614],[136.883642,35.276139],[136.883763,35.276134],[136.883859,35.276134],[136.883905,35.276167],[136.88418,35.27618],[136.884333,35.276183],[136.884492,35.276182],[136.884757,35.27621],[136.884943,35.27625],[136.885111,35.276283],[136.885106,35.276213],[136.885071,35.275651],[136.885018,35.275279],[136.884977,35.275133],[136.8848,35.274682],[136.884778,35.274645],[136.884504,35.273984],[136.884254,35.273325],[136.884094,35.272874],[136.883921,35.272443],[136.883899,35.272388],[136.883733,35.272002],[136.88357,35.271616],[136.8834,35.271632],[136.882219,35.271738],[136.882146,35.271778],[136.881375,35.27183],[136.881372,35.271752],[136.88134,35.271149],[136.881327,35.270904],[136.881453,35.270793],[136.881507,35.27074],[136.881457,35.270673],[136.881419,35.270654],[136.881182,35.270696],[136.881062,35.270713],[136.880959,35.270729],[136.880863,35.270744],[136.880736,35.270797],[136.880625,35.27085],[136.880555,35.27091],[136.880477,35.271018],[136.880368,35.271175],[136.880265,35.271395],[136.880097,35.271704],[136.879921,35.271882],[136.879834,35.271973],[136.879743,35.272094],[136.879663,35.272234],[136.879552,35.27244],[136.87954,35.272458],[136.879475,35.272604],[136.87944,35.272686],[136.879398,35.272781],[136.879353,35.27291],[136.879309,35.273056],[136.879273,35.273219],[136.879251,35.273328],[136.879227,35.27345],[136.879184,35.273621],[136.879161,35.273741],[136.879143,35.273861],[136.879031,35.274496],[136.878927,35.275002],[136.878858,35.275209],[136.878749,35.275501],[136.878576,35.275819],[136.878692,35.27584],[136.878807,35.275861],[136.878971,35.275887],[136.879368,35.275931],[136.879436,35.275937],[136.87956,35.275951],[136.879819,35.275967],[136.88035,35.275947],[136.880386,35.275948],[136.880396,35.276564],[136.880405,35.276948],[136.880405,35.27747],[136.880385,35.278311],[136.881562,35.278319],[136.882835,35.278319],[136.882832,35.278266],[136.882836,35.27795],[136.882838,35.277898],[136.882834,35.27765],[136.882832,35.277482],[136.882837,35.277343],[136.882834,35.277033],[136.882833,35.276971],[136.882836,35.276452],[136.882837,35.276407]]]}},{"type":"Feature","id":"232280020","properties":{"KEY_CODE":"232280020","PREF":"23","CITY":"228","S_AREA":"002000","PREF_NAME":"愛知県","CITY_NAME":"岩倉市","S_NAME":"下本町","HCODE":8101,"AREA":20237.673,"KIGO_E":"E2","JINKO":0,"SETAI":0,"X_CODE":136.871322,"Y_CODE":35.273351},"geometry":{"type":"Polygon","coordinates":[[[136.871588,35.271996],[136.870927,35.271987],[136.870931,35.272186],[136.870927,35.272442],[136.87093,35.272683],[136.870925,35.273077],[136.870924,35.273286],[136.87092,35.273638],[136.870926,35.274494],[136.871821,35.274651],[136.871794,35.274213],[136.871792,35.274175],[136.871744,35.273732],[136.871734,35.273606],[136.871697,35.273284],[136.871651,35.272869],[136.871648,35.272762],[136.871642,35.272668],[136.871629,35.27241],[136.871588,35.271996]]]}},{"type":"Feature","id":"232280020","properties":{"KEY_CODE":"232280020","PREF":"23","CITY":"228","S_AREA":"002000","PREF_NAME":"愛知県","CITY_NAME":"岩倉市","S_NAME":"下本町","HCODE":8101,"AREA":459065.977,"KIGO_E":"E1","JINKO":4298,"SETAI":1976,"X_CODE":136.877376,"Y_CODE":35.276311},"geometry":{"type":"Polygon","coordinates":[[[136.882925,35.279903],[136.882957,35.279699],[136.882934,35.279418],[136.882916,35.279184],[136.882865,35.279183],[136.882857,35.27907],[136.882852,35.278819],[136.882835,35.278319],[136.881562,35.278319],[136.880385,35.278311],[136.880405,35.27747],[136.880405,35.276948],[136.880396,35.276564],[136.880386,35.275948],[136.88035,35.275947],[136.879819,35.275967],[136.87956,35.275951],[136.879436,35.275937],[136.879368,35.275931],[136.878971,35.275887],[136.878807,35.275861],[136.878692,35.27584],[136.878576,35.275819],[136.878749,35.275501],[136.878858,35.275209],[136.878927,35.275002],[136.879031,35.274496],[136.879143,35.273861],[136.879161,35.273741],[136.879184,35.273621],[136.879227,35.27345],[136.879251,35.273328],[136.879273,35.273219],[136.879309,35.273056],[136.879353,35.27291],[136.879398,35.272781],[136.87944,35.272686],[136.879475,35.272604],[136.87954,35.272458],[136.879552,35.27244],[136.879232,35.272385],[136.879284,35.272106],[136.879293,35.271996],[136.879172,35.272002],[136.879092,35.271997],[136.879014,35.272002],[136.878927,35.272004],[136.878874,35.27203],[136.878671,35.272039],[136.878495,35.272047],[136.87836,35.272046],[136.878262,35.272035],[136.878141,35.272018],[136.877999,35.271984],[136.877888,35.271949],[136.877812,35.271919],[136.877757,35.271908],[136.877728,35.271899],[136.877692,35.27191],[136.877648,35.271913],[136.877638,35.271905],[136.877544,35.271875],[136.877396,35.271812],[136.877238,35.271795],[136.877092,35.271792],[136.877011,35.2721],[136.876793,35.272073],[136.876792,35.2722],[136.876539,35.272204],[136.876018,35.272201],[136.87587,35.272211],[136.875845,35.272458],[136.87584,35.272598],[136.875835,35.272698],[136.875805,35.272939],[136.875295,35.272912],[136.874815,35.272906],[136.87482,35.272689],[136.874823,35.272579],[136.874806,35.27251],[136.874544,35.272528],[136.874543,35.2725],[136.874445,35.272494],[136.874442,35.27255],[136.874157,35.272538],[136.874138,35.272673],[136.874114,35.273008],[136.87409,35.273221],[136.873991,35.274127],[136.873946,35.274586],[136.873905,35.275007],[136.873892,35.275089],[136.873845,35.275378],[136.873746,35.276301],[136.873712,35.276586],[136.873701,35.276809],[136.873662,35.277157],[136.873661,35.277213],[136.873482,35.277219],[136.873474,35.277342],[136.873169,35.277324],[136.873044,35.27732],[136.873007,35.277854],[136.873667,35.27788],[136.873692,35.277662],[136.87403,35.277661],[136.874005,35.277981],[136.874045,35.277986],[136.874088,35.277986],[136.874086,35.278027],[136.874075,35.278252],[136.874128,35.278299],[136.874112,35.278634],[136.874091,35.278768],[136.874021,35.278766],[136.873992,35.278766],[136.874002,35.279028],[136.874426,35.278993],[136.874572,35.27897],[136.874659,35.278962],[136.874771,35.278959],[136.874812,35.278955],[136.874824,35.278877],[136.874983,35.278895],[136.874983,35.278895],[136.874962,35.278976],[136.875019,35.278983],[136.87514,35.278996],[136.875771,35.279018],[136.875769,35.279065],[136.876216,35.279046],[136.876635,35.279007],[136.877022,35.278955],[136.877416,35.278951],[136.877411,35.279015],[136.877404,35.279063],[136.877235,35.27917],[136.877154,35.279223],[136.877098,35.279233],[136.87702,35.27923],[136.876969,35.279242],[136.876892,35.279292],[136.876867,35.27936],[136.876841,35.279418],[136.876816,35.279448],[136.876772,35.279486],[136.87699,35.27965],[136.877119,35.279682],[136.877169,35.279689],[136.877143,35.279732],[136.877282,35.279817],[136.877602,35.279816],[136.87807,35.279812],[136.878708,35.279778],[136.879153,35.279754],[136.879246,35.279751],[136.87959,35.27974],[136.880283,35.279727],[136.880284,35.279828],[136.880386,35.279826],[136.880941,35.279857],[136.881601,35.279863],[136.88186,35.27986],[136.882186,35.279856],[136.882443,35.279866],[136.882925,35.279903]]]}},{"type":"Feature","id":"232280030","properties":{"KEY_CODE":"232280030","PREF":"23","CITY":"228","S_AREA":"003000","PREF_NAME":"愛知県","CITY_NAME":"岩倉市","S_NAME":"中本町","HCODE":8101,"AREA":262309.39,"KIGO_E":"","JINKO":1920,"SETAI":922,"X_CODE":136.87814,"Y_CODE":35.281022},"geometry":{"type":"Polygon","coordinates":[[[136.874277,35.283885],[136.8743,35.283645],[136.874315,35.283554],[136.874532,35.28356],[136.874549,35.283473],[136.874571,35.283419],[136.87472,35.283417],[136.874824,35.283413],[136.874907,35.283418],[136.874914,35.283418],[136.874994,35.28342],[136.875277,35.283076],[136.875396,35.282971],[136.875358,35.282834],[136.875479,35.282697],[136.87558,35.282582],[136.875673,35.282471],[136.875793,35.282312],[136.875848,35.282307],[136.875987,35.282305],[136.876062,35.282301],[136.876117,35.2822],[136.876144,35.282125],[136.876247,35.281728],[136.876494,35.281705],[136.876847,35.281672],[136.876874,35.281694],[136.877052,35.281864],[136.877385,35.281911],[136.877803,35.281974],[136.878331,35.282012],[136.878419,35.282029],[136.878573,35.282038],[136.878716,35.282042],[136.879612,35.282192],[136.879573,35.282325],[136.879531,35.282499],[136.879528,35.282725],[136.880257,35.282716],[136.881498,35.282735],[136.882615,35.282755],[136.882639,35.282615],[136.8827,35.282298],[136.882727,35.282158],[136.882758,35.281991],[136.882794,35.281758],[136.882811,35.281652],[136.882843,35.281553],[136.882855,35.281459],[136.882891,35.281285],[136.88299,35.281202],[136.882969,35.281137],[136.882987,35.281074],[136.882997,35.280982],[136.882992,35.280913],[136.882959,35.280776],[136.882899,35.280639],[136.882893,35.28057],[136.882871,35.280498],[136.882864,35.280268],[136.882882,35.280046],[136.882896,35.279971],[136.882913,35.279924],[136.882925,35.279903],[136.882443,35.279866],[136.882186,35.279856],[136.88186,35.27986],[136.881601,35.279863],[136.880941,35.279857],[136.880386,35.279826],[136.880284,35.279828],[136.880283,35.279727],[136.87959,35.27974],[136.879246,35.279751],[136.879153,35.279754],[136.878708,35.279778],[136.87807,35.279812],[136.877602,35.279816],[136.877282,35.279817],[136.877143,35.279732],[136.877169,35.279689],[136.877119,35.279682],[136.87699,35.27965],[136.876772,35.279486],[136.876816,35.279448],[136.876841,35.279418],[136.876867,35.27936],[136.876892,35.279292],[136.876969,35.279242],[136.87702,35.27923],[136.877098,35.279233],[136.877154,35.279223],[136.877235,35.27917],[136.877404,35.279063],[136.877411,35.279015],[136.877416,35.278951],[136.877022,35.278955],[136.876635,35.279007],[136.876216,35.279046],[136.875769,35.279065],[136.875771,35.279018],[136.87514,35.278996],[136.875019,35.278983],[136.874962,35.278976],[136.874983,35.278895],[136.874983,35.278895],[136.874824,35.278877],[136.874812,35.278955],[136.874771,35.278959],[136.874659,35.278962],[136.874572,35.27897],[136.874426,35.278993],[136.874002,35.279028],[136.873894,35.2802],[136.873832,35.281124],[136.873823,35.28122],[136.87395,35.28127],[136.874106,35.281328],[136.874243,35.281381],[136.874311,35.281442],[136.874379,35.281515],[136.874421,35.281557],[136.874589,35.28159],[136.874558,35.28175],[136.874712,35.281752],[136.874702,35.282029],[136.874322,35.282037],[136.874349,35.282619],[136.874243,35.282631],[136.874225,35.282794],[136.874196,35.282978],[136.874174,35.283241],[136.874147,35.283457],[136.874146,35.283727],[136.874091,35.283727],[136.874077,35.283806],[136.874022,35.283918],[136.873924,35.284141],[136.873857,35.28429],[136.873835,35.284332],[136.873862,35.284353],[136.873881,35.284396],[136.873895,35.284543],[136.874074,35.284502],[136.874086,35.284305],[136.874213,35.284288],[136.87423,35.284203],[136.874258,35.284109],[136.874277,35.283885]]]}},{"type":"Feature","id":"232280040","properties":{"KEY_CODE":"232280040","PREF":"23","CITY":"228","S_AREA":"004000","PREF_NAME":"愛知県","CITY_NAME":"岩倉市","S_NAME":"東町","HCODE":8101,"AREA":527921.848,"KIGO_E":"","JINKO":2503,"SETAI":1102,"X_CODE":136.878521,"Y_CODE":35.285034},"geometry":{"type":"Polygon","coordinates":[[[136.874183,35.289111],[136.874648,35.289081],[136.8747,35.289081],[136.874721,35.288613],[136.874741,35.288147],[136.874726,35.287852],[136.874723,35.287747],[136.874711,35.287562],[136.874709,35.28753],[136.874716,35.287374],[136.874722,35.287266],[136.874727,35.287177],[136.874721,35.286664],[136.876184,35.286791],[136.876197,35.286707],[136.877845,35.28672],[136.880155,35.286701],[136.880251,35.286705],[136.883272,35.286749],[136.883275,35.286487],[136.883353,35.286489],[136.88449,35.286509],[136.884579,35.28631],[136.88477,35.285955],[136.884961,35.285564],[136.885005,35.285476],[136.885069,35.285351],[136.885135,35.285213],[136.885239,35.285038],[136.885339,35.284805],[136.885445,35.284575],[136.885506,35.284419],[136.88554,35.284332],[136.885599,35.284146],[136.885649,35.28393],[136.885651,35.283908],[136.885691,35.283511],[136.885687,35.283366],[136.884389,35.283352],[136.883957,35.283347],[136.883448,35.283344],[136.882512,35.28333],[136.882584,35.282934],[136.882615,35.282755],[136.881498,35.282735],[136.880257,35.282716],[136.879528,35.282725],[136.879531,35.282499],[136.879573,35.282325],[136.879612,35.282192],[136.878716,35.282042],[136.878573,35.282038],[136.878419,35.282029],[136.878331,35.282012],[136.877803,35.281974],[136.877385,35.281911],[136.877052,35.281864],[136.876874,35.281694],[136.876847,35.281672],[136.876494,35.281705],[136.876247,35.281728],[136.876144,35.282125],[136.876117,35.2822],[136.876062,35.282301],[136.875987,35.282305],[136.875848,35.282307],[136.875793,35.282312],[136.875673,35.282471],[136.87558,35.282582],[136.875479,35.282697],[136.875358,35.282834],[136.875396,35.282971],[136.875277,35.283076],[136.874994,35.28342],[136.874914,35.283418],[136.874907,35.283418],[136.874824,35.283413],[136.87472,35.283417],[136.874571,35.283419],[136.874549,35.283473],[136.874532,35.28356],[136.874315,35.283554],[136.8743,35.283645],[136.874277,35.283885],[136.874258,35.284109],[136.87423,35.284203],[136.874213,35.284288],[136.874086,35.284305],[136.874074,35.284502],[136.873895,35.284543],[136.873881,35.284396],[136.873862,35.284353],[136.873835,35.284332],[136.873785,35.284343],[136.873704,35.284414],[136.873607,35.28456],[136.873524,35.284774],[136.873453,35.28506],[136.873426,35.285306],[136.873392,35.285592],[136.873244,35.285609],[136.872631,35.285638],[136.872603,35.286474],[136.872411,35.286518],[136.872318,35.286547],[136.872255,35.28658],[136.872239,35.286709],[136.87199,35.286705],[136.871981,35.286809],[136.871977,35.286991],[136.872606,35.28688],[136.872682,35.287046],[136.872228,35.287163],[136.8724,35.287698],[136.872485,35.287973],[136.872386,35.28803],[136.87233,35.288102],[136.872329,35.288223],[136.872289,35.288778],[136.872329,35.288875],[136.872438,35.288963],[136.872531,35.289059],[136.872882,35.289057],[136.873224,35.289067],[136.873272,35.289064],[136.873338,35.28909],[136.873356,35.289131],[136.874183,35.289111]]]}},{"type":"Feature","id":"232280050","properties":{"KEY_CODE":"232280050","PREF":"23","CITY":"228","S_AREA":"005000","PREF_NAME":"愛知県","CITY_NAME":"岩倉市","S_NAME":"中野町","HCODE":8101,"AREA":64266.335,"KIGO_E":"","JINKO":521,"SETAI":210,"X_CODE":136.870863,"Y_CODE":35.288309},"geometry":{"type":"Polygon","coordinates":[[[136.871854,35.289489],[136.871868,35.289209],[136.872038,35.28921],[136.872531,35.289059],[136.872438,35.288963],[136.872329,35.288875],[136.872289,35.288778],[136.872329,35.288223],[136.87233,35.288102],[136.872386,35.28803],[136.872485,35.287973],[136.8724,35.287698],[136.872228,35.287163],[136.872682,35.287046],[136.872606,35.28688],[136.871977,35.286991],[136.871981,35.286809],[136.871388,35.287125],[136.871173,35.287222],[136.87104,35.287284],[136.870494,35.287533],[136.870587,35.287972],[136.870169,35.288049],[136.869871,35.288111],[136.869835,35.287911],[136.869841,35.287822],[136.869835,35.287578],[136.869738,35.287065],[136.869309,35.287697],[136.868899,35.28822],[136.868867,35.28828],[136.868683,35.288415],[136.868673,35.288446],[136.868677,35.288474],[136.868682,35.288508],[136.868686,35.288536],[136.868697,35.288608],[136.868702,35.288649],[136.868765,35.289083],[136.869588,35.288984],[136.870311,35.2889],[136.870321,35.289015],[136.87037,35.289286],[136.870397,35.289432],[136.870983,35.289429],[136.871052,35.289643],[136.871854,35.289489]]]}},{"type":"Feature","id":"232280060","properties":{"KEY_CODE":"232280060","PREF":"23","CITY":"228","S_AREA":"006000","PREF_NAME":"愛知県","CITY_NAME":"岩倉市","S_NAME":"本町","HCODE":8101,"AREA":283076.035,"KIGO_E":"","JINKO":2435,"SETAI":1075,"X_CODE":136.871949,"Y_CODE":35.283186},"geometry":{"type":"Polygon","coordinates":[[[136.871981,35.286809],[136.87199,35.286705],[136.872239,35.286709],[136.872255,35.28658],[136.872318,35.286547],[136.872411,35.286518],[136.872603,35.286474],[136.872631,35.285638],[136.873244,35.285609],[136.873392,35.285592],[136.873426,35.285306],[136.873453,35.28506],[136.873524,35.284774],[136.873607,35.28456],[136.873704,35.284414],[136.873785,35.284343],[136.873835,35.284332],[136.873857,35.28429],[136.873924,35.284141],[136.874022,35.283918],[136.874077,35.283806],[136.874091,35.283727],[136.874146,35.283727],[136.874147,35.283457],[136.874174,35.283241],[136.874196,35.282978],[136.874225,35.282794],[136.874243,35.282631],[136.874349,35.282619],[136.874322,35.282037],[136.874702,35.282029],[136.874712,35.281752],[136.874558,35.28175],[136.874589,35.28159],[136.874421,35.281557],[136.874379,35.281515],[136.874311,35.281442],[136.874243,35.281381],[136.874106,35.281328],[136.87395,35.28127],[136.873823,35.28122],[136.873832,35.281124],[136.873894,35.2802],[136.874002,35.279028],[136.873992,35.278766],[136.874021,35.278766],[136.874091,35.278768],[136.874112,35.278634],[136.874128,35.278299],[136.874075,35.278252],[136.874086,35.278027],[136.874088,35.277986],[136.874045,35.277986],[136.874005,35.277981],[136.87403,35.277661],[136.873692,35.277662],[136.873667,35.27788],[136.873007,35.277854],[136.873,35.278026],[136.873257,35.27804],[136.873193,35.278649],[136.873178,35.278749],[136.872763,35.278732],[136.872718,35.279791],[136.872704,35.279882],[136.872661,35.279959],[136.872575,35.28005],[136.87241,35.280198],[136.872068,35.280434],[136.871674,35.280623],[136.871713,35.280771],[136.871748,35.280882],[136.87146,35.281133],[136.870367,35.281139],[136.870367,35.280962],[136.870131,35.281007],[136.869878,35.281039],[136.869577,35.281064],[136.869439,35.281077],[136.869446,35.281183],[136.869456,35.281299],[136.869466,35.281533],[136.869461,35.281586],[136.869408,35.28174],[136.869368,35.281834],[136.869359,35.282014],[136.86936,35.282228],[136.86934,35.282538],[136.869336,35.282739],[136.869758,35.282751],[136.869709,35.282862],[136.869693,35.282885],[136.869617,35.283052],[136.869611,35.283112],[136.869597,35.283171],[136.869574,35.283285],[136.870418,35.28322],[136.870676,35.283244],[136.870676,35.283439],[136.870846,35.283444],[136.871224,35.283446],[136.871363,35.283448],[136.871364,35.283613],[136.871228,35.283633],[136.871177,35.284135],[136.869528,35.284079],[136.869536,35.284255],[136.869542,35.284323],[136.869558,35.284414],[136.869586,35.284577],[136.869611,35.284837],[136.869643,35.284917],[136.869675,35.285223],[136.86974,35.285601],[136.869786,35.285962],[136.869891,35.286593],[136.87017,35.28653],[136.87013,35.286584],[136.869944,35.286803],[136.869738,35.287065],[136.869835,35.287578],[136.869841,35.287822],[136.869835,35.287911],[136.869871,35.288111],[136.870169,35.288049],[136.870587,35.287972],[136.870494,35.287533],[136.87104,35.287284],[136.871173,35.287222],[136.871388,35.287125],[136.871981,35.286809]]]}},{"type":"Feature","id":"232280070","properties":{"KEY_CODE":"232280070","PREF":"23","CITY":"228","S_AREA":"007000","PREF_NAME":"愛知県","CITY_NAME":"岩倉市","S_NAME":"西市町","HCODE":8101,"AREA":530541.683,"KIGO_E":"","JINKO":2438,"SETAI":1004,"X_CODE":136.862282,"Y_CODE":35.281131},"geometry":{"type":"Polygon","coordinates":[[[136.865766,35.284108],[136.865732,35.283654],[136.865682,35.283149],[136.866212,35.283143],[136.866925,35.283118],[136.867953,35.283093],[136.86827,35.28309],[136.869617,35.283052],[136.869693,35.282885],[136.869709,35.282862],[136.869758,35.282751],[136.869336,35.282739],[136.86934,35.282538],[136.86936,35.282228],[136.869359,35.282014],[136.869368,35.281834],[136.869408,35.28174],[136.869461,35.281586],[136.869466,35.281533],[136.869456,35.281299],[136.869446,35.281183],[136.869439,35.281077],[136.869029,35.281115],[136.868893,35.281123],[136.868024,35.281189],[136.867857,35.281201],[136.867859,35.28095],[136.866129,35.28089],[136.86595,35.280883],[136.865582,35.280867],[136.865667,35.280077],[136.865703,35.279623],[136.864758,35.279681],[136.863968,35.279728],[136.864151,35.278579],[136.864127,35.27854],[136.86342,35.278518],[136.862921,35.278511],[136.8628,35.278503],[136.861247,35.278311],[136.860078,35.278232],[136.859784,35.278218],[136.859163,35.278183],[136.859039,35.278165],[136.858902,35.27815],[136.858676,35.278083],[136.858623,35.278043],[136.858497,35.278053],[136.858333,35.278046],[136.857981,35.27801],[136.857658,35.27801],[136.857513,35.278019],[136.857279,35.278074],[136.857125,35.278114],[136.856893,35.278119],[136.856304,35.278128],[136.856312,35.278662],[136.85532,35.27867],[136.854659,35.278677],[136.854635,35.27969],[136.855088,35.27968],[136.855281,35.279669],[136.855514,35.279681],[136.855514,35.279794],[136.856324,35.279807],[136.856318,35.28029],[136.856318,35.280324],[136.856319,35.280921],[136.85632,35.28099],[136.857131,35.280981],[136.858177,35.280963],[136.858185,35.281273],[136.858679,35.281264],[136.858686,35.281264],[136.85981,35.281236],[136.859803,35.281457],[136.8598,35.281577],[136.859816,35.282223],[136.85986,35.28264],[136.859864,35.282877],[136.859923,35.283194],[136.859941,35.283284],[136.860012,35.283516],[136.860115,35.283915],[136.86012,35.283935],[136.860171,35.283932],[136.860736,35.283918],[136.860739,35.28385],[136.861392,35.283847],[136.861393,35.283955],[136.861631,35.283961],[136.861759,35.283982],[136.861801,35.284019],[136.861833,35.284078],[136.861914,35.284068],[136.862531,35.284024],[136.863285,35.284093],[136.864104,35.284165],[136.864174,35.285076],[136.865211,35.285048],[136.865528,35.285044],[136.865707,35.28503],[136.865855,35.285007],[136.865813,35.28455],[136.865766,35.284108]]]}},{"type":"Feature","id":"232280080","properties":{"KEY_CODE":"232280080","PREF":"23","CITY":"228","S_AREA":"008000","PREF_NAME":"愛知県","CITY_NAME":"岩倉市","S_NAME":"鈴井町","HCODE":8101,"AREA":388807.762,"KIGO_E":"","JINKO":1140,"SETAI":427,"X_CODE":136.865063,"Y_CODE":35.287332},"geometry":{"type":"Polygon","coordinates":[[[136.869944,35.286803],[136.87013,35.286584],[136.87017,35.28653],[136.869891,35.286593],[136.869786,35.285962],[136.868388,35.28615],[136.868287,35.286164],[136.868197,35.286179],[136.867842,35.286221],[136.86749,35.286263],[136.867375,35.286278],[136.867153,35.286301],[136.867167,35.285945],[136.86712,35.285511],[136.867114,35.285187],[136.866547,35.285229],[136.866503,35.28527],[136.866503,35.285633],[136.865915,35.285701],[136.865855,35.285007],[136.865707,35.28503],[136.865528,35.285044],[136.865211,35.285048],[136.864174,35.285076],[136.864104,35.284165],[136.863285,35.284093],[136.862531,35.284024],[136.861914,35.284068],[136.861833,35.284078],[136.861801,35.284019],[136.861759,35.283982],[136.861631,35.283961],[136.861393,35.283955],[136.861392,35.283847],[136.860739,35.28385],[136.860736,35.283918],[136.860171,35.283932],[136.86012,35.283935],[136.860156,35.284082],[136.86018,35.284256],[136.860226,35.284369],[136.860263,35.284437],[136.860374,35.284625],[136.860524,35.284795],[136.860629,35.284987],[136.861009,35.285539],[136.861357,35.286086],[136.861459,35.286207],[136.86152,35.286289],[136.861576,35.286348],[136.861627,35.286447],[136.861693,35.286597],[136.861727,35.286703],[136.861873,35.287177],[136.861947,35.287341],[136.862018,35.287495],[136.862133,35.287764],[136.862178,35.287938],[136.862217,35.288127],[136.862243,35.288355],[136.862244,35.288372],[136.862249,35.288516],[136.86224,35.288601],[136.862348,35.288707],[136.862455,35.288827],[136.862569,35.288934],[136.86265,35.288996],[136.862677,35.289016],[136.862843,35.289136],[136.862984,35.289238],[136.863091,35.28931],[136.863249,35.289382],[136.863382,35.289427],[136.863535,35.289499],[136.863678,35.289616],[136.863802,35.28978],[136.863864,35.289859],[136.86396,35.289965],[136.864109,35.290108],[136.864324,35.29032],[136.864498,35.290502],[136.864609,35.290592],[136.864744,35.290933],[136.864741,35.291178],[136.864741,35.29118],[136.864728,35.291395],[136.864727,35.291402],[136.864808,35.291616],[136.866102,35.291472],[136.865403,35.290478],[136.865408,35.290477],[136.867084,35.290278],[136.867618,35.290215],[136.867564,35.289931],[136.867534,35.289724],[136.868832,35.289572],[136.868765,35.289083],[136.868702,35.288649],[136.868697,35.288608],[136.868686,35.288536],[136.868682,35.288508],[136.868677,35.288474],[136.868673,35.288446],[136.868683,35.288415],[136.868867,35.28828],[136.868899,35.28822],[136.869309,35.287697],[136.869738,35.287065],[136.869944,35.286803]]]}},{"type":"Feature","id":"232280090","properties":{"KEY_CODE":"232280090","PREF":"23","CITY":"228","S_AREA":"009000","PREF_NAME":"愛知県","CITY_NAME":"岩倉市","S_NAME":"泉町","HCODE":8101,"AREA":45599.706,"KIGO_E":"","JINKO":424,"SETAI":163,"X_CODE":136.868383,"Y_CODE":35.285267},"geometry":{"type":"Polygon","coordinates":[[[136.869542,35.284323],[136.869536,35.284255],[136.868,35.284408],[136.867064,35.284502],[136.867114,35.285187],[136.86712,35.285511],[136.867167,35.285945],[136.867153,35.286301],[136.867375,35.286278],[136.86749,35.286263],[136.867842,35.286221],[136.868197,35.286179],[136.868287,35.286164],[136.868388,35.28615],[136.869786,35.285962],[136.86974,35.285601],[136.869675,35.285223],[136.869643,35.284917],[136.869611,35.284837],[136.869586,35.284577],[136.869558,35.284414],[136.869542,35.284323]]]}},{"type":"Feature","id":"232280100","properties":{"KEY_CODE":"232280100","PREF":"23","CITY":"228","S_AREA":"010000","PREF_NAME":"愛知県","CITY_NAME":"岩倉市","S_NAME":"八剱町","HCODE":8101,"AREA":1104544.981,"KIGO_E":"","JINKO":3745,"SETAI":1681,"X_CODE":136.87937,"Y_CODE":35.292966},"geometry":{"type":"Polygon","coordinates":[[[136.881994,35.299452],[136.882185,35.299448],[136.882195,35.299701],[136.882905,35.299517],[136.882903,35.299349],[136.883365,35.299342],[136.883363,35.298966],[136.883624,35.298968],[136.883623,35.299337],[136.884154,35.299196],[136.884137,35.299139],[136.88406,35.298881],[136.884054,35.298866],[136.883735,35.298081],[136.883743,35.297317],[136.883745,35.297185],[136.883744,35.296821],[136.883721,35.296634],[136.883667,35.296371],[136.883628,35.296275],[136.883606,35.296222],[136.883525,35.296026],[136.883312,35.295633],[136.883255,35.295527],[136.883315,35.294701],[136.883315,35.294439],[136.883798,35.294355],[136.883443,35.293332],[136.883361,35.293334],[136.88332,35.293232],[136.883272,35.293084],[136.883274,35.293081],[136.883287,35.29304],[136.883327,35.292932],[136.883439,35.292919],[136.883415,35.292713],[136.883376,35.292058],[136.883342,35.291771],[136.883342,35.291767],[136.883323,35.291368],[136.883283,35.29081],[136.883277,35.290729],[136.883267,35.290145],[136.883279,35.289733],[136.883317,35.28926],[136.883382,35.288952],[136.883437,35.28879],[136.883537,35.288514],[136.883636,35.288244],[136.883912,35.2877],[136.88413,35.287258],[136.88435,35.286823],[136.88449,35.286509],[136.883353,35.286489],[136.883275,35.286487],[136.883272,35.286749],[136.880251,35.286705],[136.880155,35.286701],[136.877845,35.28672],[136.876197,35.286707],[136.876184,35.286791],[136.874721,35.286664],[136.874727,35.287177],[136.874722,35.287266],[136.874716,35.287374],[136.874709,35.28753],[136.874711,35.287562],[136.874723,35.287747],[136.874726,35.287852],[136.874741,35.288147],[136.874721,35.288613],[136.8747,35.289081],[136.874693,35.289185],[136.874567,35.290448],[136.874567,35.290552],[136.874553,35.290716],[136.874548,35.290854],[136.874553,35.290915],[136.874539,35.290976],[136.874312,35.29105],[136.874124,35.291083],[136.874064,35.291105],[136.874053,35.291175],[136.874047,35.291407],[136.874485,35.291419],[136.874471,35.29157],[136.87447,35.291632],[136.874469,35.291754],[136.874464,35.292002],[136.874458,35.292089],[136.874479,35.292462],[136.874538,35.292779],[136.874624,35.292961],[136.874661,35.293039],[136.874692,35.293118],[136.874731,35.293206],[136.874904,35.293457],[136.875055,35.293684],[136.875144,35.293828],[136.8752,35.293942],[136.875232,35.294018],[136.875258,35.294093],[136.87527,35.294143],[136.875292,35.294225],[136.875312,35.294337],[136.875317,35.294473],[136.875319,35.29461],[136.875338,35.294742],[136.875333,35.294841],[136.875331,35.294969],[136.875311,35.29515],[136.875274,35.295389],[136.875235,35.295523],[136.875199,35.295608],[136.875168,35.295681],[136.875048,35.29596],[136.874933,35.296208],[136.874844,35.296391],[136.874828,35.296458],[136.874705,35.296757],[136.874647,35.296873],[136.874863,35.296894],[136.875347,35.296928],[136.875584,35.296945],[136.875677,35.296951],[136.875997,35.296967],[136.875995,35.297185],[136.876022,35.297219],[136.876077,35.297253],[136.876132,35.297264],[136.876288,35.297293],[136.876442,35.297316],[136.876545,35.297341],[136.876616,35.297361],[136.876677,35.297364],[136.876743,35.297357],[136.876817,35.297322],[136.876878,35.297319],[136.876929,35.297342],[136.87697,35.297379],[136.876983,35.297458],[136.877011,35.297514],[136.87712,35.29756],[136.877203,35.29756],[136.877234,35.297633],[136.877307,35.297833],[136.877373,35.298065],[136.877445,35.298297],[136.877528,35.298537],[136.877646,35.298837],[136.877726,35.299062],[136.877786,35.299247],[136.877839,35.299416],[136.877864,35.299554],[136.877978,35.299781],[136.878369,35.300387],[136.878442,35.300502],[136.878499,35.300581],[136.878542,35.30068],[136.878596,35.30074],[136.878723,35.300909],[136.878901,35.30111],[136.879043,35.301244],[136.878932,35.300804],[136.880224,35.30058],[136.880237,35.300467],[136.880767,35.300255],[136.880764,35.300077],[136.881264,35.299879],[136.881211,35.299785],[136.881481,35.299708],[136.881854,35.299598],[136.881863,35.299517],[136.88199,35.299514],[136.881994,35.299452]]]}},{"type":"Feature","id":"232280110","properties":{"KEY_CODE":"232280110","PREF":"23","CITY":"228","S_AREA":"011000","PREF_NAME":"愛知県","CITY_NAME":"岩倉市","S_NAME":"井上町","HCODE":8101,"AREA":133665.953,"KIGO_E":"","JINKO":349,"SETAI":139,"X_CODE":136.876448,"Y_CODE":35.299383},"geometry":{"type":"Polygon","coordinates":[[[136.877307,35.297833],[136.877234,35.297633],[136.877203,35.29756],[136.87712,35.29756],[136.877011,35.297514],[136.876983,35.297458],[136.87697,35.297379],[136.876929,35.297342],[136.876878,35.297319],[136.876817,35.297322],[136.876743,35.297357],[136.876677,35.297364],[136.876616,35.297361],[136.876545,35.297341],[136.876442,35.297316],[136.876288,35.297293],[136.876132,35.297264],[136.876077,35.297253],[136.876022,35.297219],[136.875995,35.297185],[136.875997,35.296967],[136.875677,35.296951],[136.875584,35.296945],[136.875347,35.296928],[136.875279,35.297522],[136.874488,35.297476],[136.874469,35.297591],[136.874442,35.297727],[136.874425,35.297801],[136.873346,35.297658],[136.873283,35.297802],[136.873329,35.297865],[136.873439,35.297964],[136.873708,35.298186],[136.873465,35.298409],[136.873501,35.298437],[136.873626,35.298512],[136.873921,35.298744],[136.874182,35.298931],[136.874453,35.299079],[136.874588,35.299134],[136.87468,35.299172],[136.875066,35.299477],[136.875406,35.299712],[136.875627,35.299905],[136.875855,35.30015],[136.875911,35.300212],[136.876039,35.300352],[136.876194,35.300555],[136.87625,35.300628],[136.876319,35.300722],[136.876466,35.300965],[136.876579,35.301127],[136.876682,35.301282],[136.876818,35.301533],[136.876987,35.301723],[136.877227,35.301969],[136.877495,35.302237],[136.879288,35.30151],[136.879043,35.301244],[136.878901,35.30111],[136.878723,35.300909],[136.878596,35.30074],[136.878542,35.30068],[136.878499,35.300581],[136.878442,35.300502],[136.878369,35.300387],[136.877978,35.299781],[136.877864,35.299554],[136.877839,35.299416],[136.877786,35.299247],[136.877726,35.299062],[136.877646,35.298837],[136.877528,35.298537],[136.877445,35.298297],[136.877373,35.298065],[136.877307,35.297833]]]}},{"type":"Feature","id":"232280120","properties":{"KEY_CODE":"232280120","PREF":"23","CITY":"228","S_AREA":"012000","PREF_NAME":"愛知県","CITY_NAME":"岩倉市","S_NAME":"神野町","HCODE":8101,"AREA":223693.425,"KIGO_E":"","JINKO":1479,"SETAI":581,"X_CODE":136.87313,"Y_CODE":35.292329},"geometry":{"type":"Polygon","coordinates":[[[136.875331,35.294969],[136.875333,35.294841],[136.875338,35.294742],[136.875319,35.29461],[136.875317,35.294473],[136.875312,35.294337],[136.875292,35.294225],[136.87527,35.294143],[136.875258,35.294093],[136.875232,35.294018],[136.8752,35.293942],[136.875144,35.293828],[136.875055,35.293684],[136.874904,35.293457],[136.874731,35.293206],[136.874692,35.293118],[136.874661,35.293039],[136.874624,35.292961],[136.874538,35.292779],[136.874479,35.292462],[136.874458,35.292089],[136.874464,35.292002],[136.874469,35.291754],[136.87447,35.291632],[136.874471,35.29157],[136.874485,35.291419],[136.874047,35.291407],[136.874053,35.291175],[136.874064,35.291105],[136.874124,35.291083],[136.874312,35.29105],[136.874539,35.290976],[136.874553,35.290915],[136.874548,35.290854],[136.874553,35.290716],[136.874567,35.290552],[136.874567,35.290448],[136.874693,35.289185],[136.8747,35.289081],[136.874648,35.289081],[136.874183,35.289111],[136.873356,35.289131],[136.873338,35.28909],[136.873272,35.289064],[136.873224,35.289067],[136.872882,35.289057],[136.872531,35.289059],[136.872038,35.28921],[136.871868,35.289209],[136.871854,35.289489],[136.871052,35.289643],[136.870983,35.289429],[136.870397,35.289432],[136.870427,35.289589],[136.87053,35.290296],[136.870679,35.291387],[136.870724,35.291651],[136.871779,35.291657],[136.871758,35.291907],[136.871571,35.29191],[136.871604,35.292121],[136.871618,35.292458],[136.871592,35.29301],[136.871536,35.293397],[136.871524,35.293471],[136.871524,35.293544],[136.871564,35.293622],[136.871655,35.293697],[136.871722,35.293732],[136.871773,35.29392],[136.871809,35.294039],[136.871868,35.294131],[136.871918,35.294238],[136.872008,35.294361],[136.872122,35.294474],[136.872196,35.294555],[136.872276,35.29467],[136.872302,35.294782],[136.872316,35.294872],[136.87235,35.294993],[136.872552,35.29498],[136.872858,35.294931],[136.873179,35.294938],[136.873305,35.294936],[136.873401,35.295879],[136.873396,35.296084],[136.874302,35.296087],[136.874326,35.296468],[136.874647,35.296873],[136.874705,35.296757],[136.874828,35.296458],[136.874844,35.296391],[136.874933,35.296208],[136.875048,35.29596],[136.875168,35.295681],[136.875199,35.295608],[136.875235,35.295523],[136.875274,35.295389],[136.875311,35.29515],[136.875331,35.294969]]]}},{"type":"Feature","id":"232280130","properties":{"KEY_CODE":"232280130","PREF":"23","CITY":"228","S_AREA":"013000","PREF_NAME":"愛知県","CITY_NAME":"岩倉市","S_NAME":"石仏町","HCODE":8101,"AREA":564142.198,"KIGO_E":"","JINKO":1859,"SETAI":755,"X_CODE":136.86907,"Y_CODE":35.294179},"geometry":{"type":"Polygon","coordinates":[[[136.873283,35.297802],[136.873346,35.297658],[136.874425,35.297801],[136.874442,35.297727],[136.874469,35.297591],[136.874488,35.297476],[136.875279,35.297522],[136.875347,35.296928],[136.874863,35.296894],[136.874647,35.296873],[136.874326,35.296468],[136.874302,35.296087],[136.873396,35.296084],[136.873401,35.295879],[136.873305,35.294936],[136.873179,35.294938],[136.872858,35.294931],[136.872552,35.29498],[136.87235,35.294993],[136.872316,35.294872],[136.872302,35.294782],[136.872276,35.29467],[136.872196,35.294555],[136.872122,35.294474],[136.872008,35.294361],[136.871918,35.294238],[136.871868,35.294131],[136.871809,35.294039],[136.871773,35.29392],[136.871722,35.293732],[136.871655,35.293697],[136.871564,35.293622],[136.871524,35.293544],[136.871524,35.293471],[136.871536,35.293397],[136.871592,35.29301],[136.871618,35.292458],[136.871604,35.292121],[136.871571,35.29191],[136.871758,35.291907],[136.871779,35.291657],[136.870724,35.291651],[136.870679,35.291387],[136.87053,35.290296],[136.870427,35.289589],[136.870397,35.289432],[136.87037,35.289286],[136.870321,35.289015],[136.870311,35.2889],[136.869588,35.288984],[136.868765,35.289083],[136.868832,35.289572],[136.867534,35.289724],[136.867564,35.289931],[136.867618,35.290215],[136.867084,35.290278],[136.865408,35.290477],[136.865403,35.290478],[136.866102,35.291472],[136.864808,35.291616],[136.864821,35.291653],[136.864832,35.291675],[136.864891,35.291857],[136.865022,35.292171],[136.865073,35.29227],[136.865085,35.292359],[136.865066,35.293096],[136.865084,35.293545],[136.865106,35.294064],[136.86511,35.294157],[136.865027,35.294174],[136.865115,35.295081],[136.865116,35.295104],[136.865133,35.295338],[136.865144,35.295582],[136.865173,35.296263],[136.865086,35.296259],[136.8651,35.296561],[136.865193,35.296545],[136.865633,35.296516],[136.865643,35.296537],[136.86575,35.296769],[136.865902,35.297059],[136.865994,35.297189],[136.866142,35.297357],[136.86628,35.297509],[136.866543,35.297704],[136.866586,35.297707],[136.866988,35.297727],[136.867218,35.297727],[136.867741,35.297598],[136.867827,35.297829],[136.868119,35.297792],[136.868223,35.297774],[136.868342,35.297753],[136.868775,35.297739],[136.869233,35.297733],[136.869282,35.297732],[136.869399,35.297816],[136.870262,35.29769],[136.870699,35.297661],[136.87071,35.29766],[136.871002,35.297615],[136.871301,35.297603],[136.871315,35.297603],[136.872182,35.29758],[136.872331,35.297681],[136.872446,35.297611],[136.872516,35.297553],[136.872807,35.297799],[136.872678,35.297983],[136.872975,35.298127],[136.873346,35.298316],[136.873465,35.298409],[136.873708,35.298186],[136.873439,35.297964],[136.873329,35.297865],[136.873283,35.297802]]]}},{"type":"Feature","id":"232280140","properties":{"KEY_CODE":"232280140","PREF":"23","CITY":"228","S_AREA":"014000","PREF_NAME":"愛知県","CITY_NAME":"岩倉市","S_NAME":"北島町","HCODE":8101,"AREA":1035810.589,"KIGO_E":"","JINKO":988,"SETAI":288,"X_CODE":136.84991,"Y_CODE":35.273477},"geometry":{"type":"Polygon","coordinates":[[[136.851489,35.279864],[136.85149,35.279792],[136.851718,35.279769],[136.852063,35.279736],[136.852244,35.279763],[136.852422,35.279752],[136.852615,35.279719],[136.854635,35.27969],[136.854659,35.278677],[136.85532,35.27867],[136.856312,35.278662],[136.856304,35.278128],[136.856293,35.278037],[136.856282,35.277654],[136.856279,35.277141],[136.856274,35.276745],[136.856275,35.276569],[136.856279,35.276307],[136.856268,35.27412],[136.856227,35.273826],[136.856173,35.273831],[136.855996,35.27383],[136.855875,35.273849],[136.855748,35.273853],[136.855511,35.273845],[136.855131,35.273827],[136.854839,35.273805],[136.854486,35.273811],[136.854276,35.273816],[136.854001,35.27383],[136.853863,35.273853],[136.853775,35.273853],[136.853576,35.273853],[136.853201,35.273863],[136.852635,35.273873],[136.8526,35.27262],[136.852584,35.272035],[136.852576,35.271358],[136.852578,35.270939],[136.851626,35.271062],[136.851474,35.271074],[136.851273,35.271085],[136.850307,35.271087],[136.850135,35.270376],[136.849849,35.269183],[136.850556,35.269063],[136.850577,35.268832],[136.8506,35.268741],[136.850655,35.268641],[136.850772,35.268564],[136.850965,35.268504],[136.851197,35.268454],[136.851324,35.268436],[136.851396,35.268408],[136.851429,35.268336],[136.851496,35.268281],[136.851595,35.268254],[136.851789,35.268185],[136.851971,35.268099],[136.852165,35.268012],[136.852243,35.267938],[136.852288,35.267823],[136.852326,35.267824],[136.852323,35.26799],[136.852506,35.267989],[136.852488,35.266873],[136.852533,35.266495],[136.852489,35.26645],[136.852401,35.266397],[136.852312,35.266339],[136.852224,35.266227],[136.852151,35.266092],[136.852078,35.265926],[136.851994,35.26576],[136.851912,35.265743],[136.851708,35.265726],[136.851554,35.265677],[136.851356,35.265588],[136.851149,35.265474],[136.851029,35.265306],[136.850734,35.265339],[136.850652,35.26538],[136.850086,35.265412],[136.849825,35.26547],[136.849787,35.265787],[136.849732,35.266141],[136.849939,35.26629],[136.850888,35.266203],[136.851158,35.266247],[136.851631,35.266242],[136.851813,35.266173],[136.851856,35.266267],[136.851912,35.266332],[136.851999,35.266392],[136.851817,35.266786],[136.851521,35.266746],[136.850909,35.266612],[136.850546,35.26653],[136.85031,35.266475],[136.850125,35.266423],[136.849907,35.266345],[136.849729,35.266272],[136.849598,35.266309],[136.849323,35.2663],[136.849062,35.266331],[136.848926,35.266324],[136.848686,35.2663],[136.848581,35.266325],[136.848498,35.26636],[136.848296,35.266356],[136.847903,35.266329],[136.846776,35.26626],[136.846693,35.266321],[136.846687,35.266418],[136.846699,35.266745],[136.846717,35.267176],[136.846881,35.267198],[136.847059,35.267247],[136.847097,35.267287],[136.84718,35.267527],[136.847218,35.267664],[136.846626,35.267683],[136.846115,35.267789],[136.846291,35.267999],[136.846329,35.268149],[136.846355,35.268338],[136.846474,35.268669],[136.846493,35.268719],[136.846624,35.26912],[136.846603,35.269253],[136.846548,35.269537],[136.846355,35.269868],[136.84632,35.269883],[136.84595,35.26991],[136.845882,35.269916],[136.845756,35.269989],[136.84551,35.270131],[136.845351,35.270179],[136.845339,35.270183],[136.845012,35.270256],[136.844748,35.270397],[136.844697,35.270429],[136.844482,35.270565],[136.844321,35.27069],[136.844231,35.270722],[136.844144,35.270771],[136.843906,35.270973],[136.843828,35.271068],[136.843694,35.271158],[136.843556,35.271202],[136.843515,35.271521],[136.843474,35.271829],[136.843454,35.272073],[136.843446,35.272295],[136.843487,35.272392],[136.843434,35.272666],[136.843346,35.273123],[136.843291,35.273134],[136.843287,35.273263],[136.843271,35.27335],[136.843241,35.273504],[136.843212,35.273644],[136.843217,35.273724],[136.843187,35.273991],[136.843138,35.274729],[136.845342,35.274777],[136.846715,35.274815],[136.846822,35.274818],[136.846848,35.275163],[136.846896,35.275367],[136.846894,35.275993],[136.846897,35.27611],[136.846954,35.276199],[136.847022,35.276301],[136.847104,35.27638],[136.847145,35.276448],[136.847172,35.276527],[136.847199,35.276606],[136.84724,35.276662],[136.847295,35.276775],[136.847309,35.277102],[136.847597,35.2771],[136.847593,35.277316],[136.847738,35.277316],[136.847743,35.2778],[136.848627,35.277759],[136.84877,35.277759],[136.849105,35.277895],[136.849117,35.278143],[136.849088,35.278414],[136.849088,35.278605],[136.849118,35.27885],[136.849183,35.279048],[136.849168,35.279214],[136.849124,35.279743],[136.84911,35.279822],[136.850193,35.279801],[136.850264,35.279799],[136.850622,35.279837],[136.851489,35.279864]]]}},{"type":"Feature","id":"232280150","properties":{"KEY_CODE":"232280150","PREF":"23","CITY":"228","S_AREA":"015000","PREF_NAME":"愛知県","CITY_NAME":"岩倉市","S_NAME":"野寄町","HCODE":8101,"AREA":568777.025,"KIGO_E":"","JINKO":612,"SETAI":209,"X_CODE":136.855328,"Y_CODE":35.270538},"geometry":{"type":"Polygon","coordinates":[[[136.857198,35.276629],[136.857199,35.276579],[136.857503,35.276581],[136.857505,35.276103],[136.857503,35.276042],[136.857519,35.275437],[136.857445,35.275347],[136.8574,35.275242],[136.857389,35.275117],[136.857472,35.274998],[136.85754,35.274942],[136.857493,35.274109],[136.858766,35.274097],[136.859208,35.2741],[136.859272,35.273062],[136.859941,35.273072],[136.859954,35.272637],[136.859966,35.272029],[136.858695,35.27204],[136.858646,35.271379],[136.858605,35.27026],[136.858641,35.267398],[136.85763,35.2674],[136.85762,35.266107],[136.856,35.266106],[136.854436,35.266102],[136.854442,35.266874],[136.852488,35.266873],[136.852506,35.267989],[136.852323,35.26799],[136.852326,35.267824],[136.852288,35.267823],[136.852243,35.267938],[136.852165,35.268012],[136.851971,35.268099],[136.851789,35.268185],[136.851595,35.268254],[136.851496,35.268281],[136.851429,35.268336],[136.851396,35.268408],[136.851324,35.268436],[136.851197,35.268454],[136.850965,35.268504],[136.850772,35.268564],[136.850655,35.268641],[136.8506,35.268741],[136.850577,35.268832],[136.850556,35.269063],[136.849849,35.269183],[136.850135,35.270376],[136.850307,35.271087],[136.851273,35.271085],[136.851474,35.271074],[136.851626,35.271062],[136.852578,35.270939],[136.852576,35.271358],[136.852584,35.272035],[136.8526,35.27262],[136.852635,35.273873],[136.853201,35.273863],[136.853576,35.273853],[136.853775,35.273853],[136.853863,35.273853],[136.854001,35.27383],[136.854276,35.273816],[136.854486,35.273811],[136.854839,35.273805],[136.855131,35.273827],[136.855511,35.273845],[136.855748,35.273853],[136.855875,35.273849],[136.855996,35.27383],[136.856173,35.273831],[136.856227,35.273826],[136.856268,35.27412],[136.856279,35.276307],[136.856275,35.276569],[136.856392,35.276573],[136.856392,35.276652],[136.857198,35.276629]]]}},{"type":"Feature","id":"232280160","properties":{"KEY_CODE":"232280160","PREF":"23","CITY":"228","S_AREA":"016000","PREF_NAME":"愛知県","CITY_NAME":"岩倉市","S_NAME":"大地町","HCODE":8101,"AREA":624475.193,"KIGO_E":"","JINKO":2790,"SETAI":1204,"X_CODE":136.863262,"Y_CODE":35.274522},"geometry":{"type":"Polygon","coordinates":[[[136.864151,35.278579],[136.864469,35.276338],[136.864562,35.275395],[136.864719,35.274075],[136.865054,35.274089],[136.865249,35.274105],[136.865332,35.274116],[136.865847,35.274185],[136.866333,35.274222],[136.866557,35.274222],[136.867027,35.274243],[136.867365,35.274247],[136.867483,35.274245],[136.868118,35.274227],[136.868164,35.27423],[136.868266,35.274228],[136.868517,35.274217],[136.868899,35.274214],[136.869346,35.274217],[136.869421,35.274233],[136.869525,35.27425],[136.869651,35.274265],[136.869982,35.274319],[136.870612,35.274437],[136.870926,35.274494],[136.87092,35.273638],[136.870924,35.273286],[136.870925,35.273077],[136.87093,35.272683],[136.870927,35.272442],[136.870931,35.272186],[136.870927,35.271987],[136.870929,35.271866],[136.870952,35.271438],[136.870732,35.271411],[136.87064,35.271403],[136.869913,35.27134],[136.869394,35.271262],[136.86884,35.271207],[136.868456,35.271191],[136.868172,35.271121],[136.867941,35.27108],[136.867652,35.271002],[136.867204,35.270945],[136.867184,35.270905],[136.866949,35.270868],[136.866831,35.270848],[136.866676,35.270826],[136.865667,35.270833],[136.865654,35.270792],[136.865391,35.270771],[136.865231,35.270758],[136.865245,35.270688],[136.865086,35.270678],[136.865013,35.27105],[136.864712,35.271042],[136.864784,35.271997],[136.864789,35.272035],[136.863573,35.27204],[136.86346,35.271818],[136.863371,35.271724],[136.861829,35.271763],[136.861713,35.271786],[136.861549,35.27185],[136.860757,35.272021],[136.859966,35.272029],[136.859954,35.272637],[136.859941,35.273072],[136.859272,35.273062],[136.859208,35.2741],[136.858766,35.274097],[136.857493,35.274109],[136.85754,35.274942],[136.857472,35.274998],[136.857389,35.275117],[136.8574,35.275242],[136.857445,35.275347],[136.857519,35.275437],[136.857503,35.276042],[136.857505,35.276103],[136.857503,35.276581],[136.857199,35.276579],[136.857198,35.276629],[136.856392,35.276652],[136.856392,35.276573],[136.856275,35.276569],[136.856274,35.276745],[136.856279,35.277141],[136.856282,35.277654],[136.856293,35.278037],[136.856304,35.278128],[136.856893,35.278119],[136.857125,35.278114],[136.857279,35.278074],[136.857513,35.278019],[136.857658,35.27801],[136.857981,35.27801],[136.858333,35.278046],[136.858497,35.278053],[136.858623,35.278043],[136.858676,35.278083],[136.858902,35.27815],[136.859039,35.278165],[136.859163,35.278183],[136.859784,35.278218],[136.860078,35.278232],[136.861247,35.278311],[136.8628,35.278503],[136.862921,35.278511],[136.86342,35.278518],[136.864127,35.27854],[136.864151,35.278579]]]}},{"type":"Feature","id":"232280170","properties":{"KEY_CODE":"232280170","PREF":"23","CITY":"228","S_AREA":"017000","PREF_NAME":"愛知県","CITY_NAME":"岩倉市","S_NAME":"川井町","HCODE":8101,"AREA":1031219.237,"KIGO_E":"","JINKO":791,"SETAI":270,"X_CODE":136.862908,"Y_CODE":35.266716},"geometry":{"type":"Polygon","coordinates":[[[136.861829,35.271763],[136.863371,35.271724],[136.86346,35.271818],[136.863573,35.27204],[136.864789,35.272035],[136.864784,35.271997],[136.864712,35.271042],[136.865013,35.27105],[136.865086,35.270678],[136.865245,35.270688],[136.865231,35.270758],[136.865391,35.270771],[136.865654,35.270792],[136.865667,35.270833],[136.866676,35.270826],[136.866831,35.270848],[136.86676,35.270767],[136.866733,35.27017],[136.866911,35.270226],[136.866984,35.270025],[136.865964,35.270101],[136.866034,35.26881],[136.866041,35.268788],[136.86606,35.268775],[136.8661,35.268776],[136.866165,35.26879],[136.866271,35.26883],[136.866467,35.268873],[136.866572,35.268873],[136.867381,35.268826],[136.867738,35.268809],[136.867696,35.268297],[136.870649,35.268087],[136.870465,35.266414],[136.870424,35.266382],[136.870375,35.266371],[136.870204,35.264633],[136.870127,35.263876],[136.869455,35.263907],[136.869423,35.263609],[136.869315,35.262366],[136.868397,35.26242],[136.868279,35.26126],[136.86813,35.261347],[136.867959,35.26143],[136.867738,35.261524],[136.867511,35.261587],[136.867333,35.261648],[136.867135,35.261706],[136.86704,35.261724],[136.866711,35.261776],[136.866555,35.261739],[136.866485,35.261699],[136.866418,35.261661],[136.866373,35.261626],[136.866284,35.261584],[136.866079,35.261467],[136.865845,35.261345],[136.865592,35.26122],[136.865443,35.261157],[136.86527,35.261094],[136.865147,35.261056],[136.865054,35.261037],[136.864925,35.261028],[136.864759,35.261038],[136.864639,35.261048],[136.864516,35.261089],[136.864464,35.26111],[136.864406,35.261157],[136.864428,35.261178],[136.864501,35.261247],[136.864432,35.261585],[136.864198,35.261562],[136.8642,35.261669],[136.864251,35.26179],[136.864323,35.261879],[136.864373,35.261928],[136.864533,35.261946],[136.864564,35.26195],[136.865078,35.261894],[136.86524,35.261884],[136.86536,35.261905],[136.865481,35.26217],[136.865497,35.262246],[136.86496,35.262551],[136.864897,35.262573],[136.864715,35.2627],[136.864622,35.26275],[136.864551,35.262813],[136.864448,35.262944],[136.86435,35.263029],[136.864241,35.263138],[136.864133,35.263253],[136.864084,35.263308],[136.864054,35.263339],[136.864051,35.263343],[136.863944,35.263442],[136.86386,35.263517],[136.863744,35.263589],[136.863642,35.263652],[136.863543,35.263693],[136.86344,35.263741],[136.863269,35.263807],[136.863128,35.263861],[136.862918,35.263906],[136.862696,35.263964],[136.862546,35.263989],[136.862385,35.26402],[136.862195,35.26405],[136.862101,35.264076],[136.862007,35.264108],[136.861918,35.264148],[136.861834,35.264198],[136.86175,35.264241],[136.861647,35.264291],[136.861611,35.264324],[136.861504,35.264395],[136.861431,35.264436],[136.861367,35.264494],[136.861186,35.264604],[136.861067,35.264675],[136.861045,35.264685],[136.860918,35.264736],[136.860789,35.264774],[136.860664,35.264785],[136.86062,35.264793],[136.860566,35.264802],[136.860426,35.264813],[136.860374,35.264811],[136.860282,35.264815],[136.860176,35.264818],[136.86005,35.264816],[136.859842,35.264802],[136.85974,35.264783],[136.859739,35.264783],[136.859613,35.264747],[136.859522,35.26471],[136.859364,35.264665],[136.859222,35.264611],[136.859105,35.264557],[136.858995,35.264516],[136.858957,35.264502],[136.858765,35.264435],[136.858603,35.264386],[136.858493,35.264351],[136.858402,35.264343],[136.858329,35.264337],[136.858208,35.264316],[136.858204,35.264316],[136.858045,35.264299],[136.857923,35.264291],[136.857765,35.264294],[136.857636,35.264306],[136.857563,35.264313],[136.857533,35.264318],[136.857466,35.264324],[136.857379,35.264345],[136.857239,35.26437],[136.857209,35.264374],[136.857033,35.264398],[136.856865,35.264425],[136.856708,35.26445],[136.856519,35.264482],[136.856361,35.264495],[136.856218,35.264489],[136.856032,35.264493],[136.855793,35.264497],[136.85563,35.264492],[136.855433,35.264437],[136.855311,35.264386],[136.855158,35.264286],[136.85511,35.264269],[136.855066,35.264237],[136.854906,35.264143],[136.854757,35.264058],[136.854685,35.264023],[136.854509,35.26396],[136.854283,35.263908],[136.854047,35.263882],[136.853833,35.263887],[136.853658,35.263924],[136.853504,35.263943],[136.853312,35.264002],[136.853126,35.264075],[136.852869,35.264202],[136.8527,35.264301],[136.852597,35.264387],[136.852584,35.264405],[136.852583,35.264406],[136.852565,35.264431],[136.852548,35.264455],[136.852516,35.264536],[136.852501,35.264689],[136.852486,35.264855],[136.852454,35.265008],[136.852363,35.265233],[136.852277,35.265436],[136.852111,35.265647],[136.85198,35.265658],[136.851864,35.265615],[136.851439,35.26486],[136.851425,35.264862],[136.851297,35.264879],[136.851138,35.264893],[136.850935,35.264888],[136.850744,35.264847],[136.850896,35.265045],[136.85105,35.265303],[136.851029,35.265306],[136.851149,35.265474],[136.851356,35.265588],[136.851554,35.265677],[136.851708,35.265726],[136.851912,35.265743],[136.851994,35.26576],[136.852078,35.265926],[136.852151,35.266092],[136.852224,35.266227],[136.852312,35.266339],[136.852401,35.266397],[136.852489,35.26645],[136.852533,35.266495],[136.852488,35.266873],[136.854442,35.266874],[136.854436,35.266102],[136.856,35.266106],[136.85762,35.266107],[136.85763,35.2674],[136.858641,35.267398],[136.858605,35.27026],[136.858646,35.271379],[136.858695,35.27204],[136.859966,35.272029],[136.860757,35.272021],[136.861549,35.27185],[136.861713,35.271786],[136.861829,35.271763]]]}},{"type":"Feature","id":"232280181","properties":{"KEY_CODE":"232280181","PREF":"23","CITY":"228","S_AREA":"018100","PREF_NAME":"愛知県","CITY_NAME":"岩倉市","S_NAME":"大山寺元町","HCODE":8101,"AREA":30694.482,"KIGO_E":"","JINKO":334,"SETAI":141,"X_CODE":136.872373,"Y_CODE":35.265607},"geometry":{"type":"Polygon","coordinates":[[[136.873584,35.266304],[136.873661,35.265878],[136.873689,35.265754],[136.873714,35.265304],[136.873662,35.265037],[136.873559,35.264794],[136.873537,35.264735],[136.873468,35.264523],[136.87302,35.264595],[136.87311,35.264927],[136.873321,35.264886],[136.873389,35.265123],[136.873212,35.265142],[136.872972,35.265148],[136.872978,35.265217],[136.872987,35.265405],[136.872907,35.265403],[136.872962,35.26564],[136.872771,35.26567],[136.872755,35.265611],[136.872536,35.26565],[136.872495,35.26547],[136.872468,35.265334],[136.872417,35.265341],[136.872424,35.265294],[136.87236,35.26529],[136.872389,35.265085],[136.872202,35.265073],[136.872193,35.26509],[136.872193,35.265097],[136.87218,35.265097],[136.871974,35.265142],[136.871809,35.265186],[136.871645,35.264916],[136.871655,35.264848],[136.871123,35.264971],[136.871137,35.265016],[136.870976,35.265027],[136.871098,35.266231],[136.871405,35.266222],[136.871688,35.266215],[136.872096,35.266226],[136.872418,35.266221],[136.872996,35.266259],[136.873584,35.266304]]]}},{"type":"Feature","id":"232280182","properties":{"KEY_CODE":"232280182","PREF":"23","CITY":"228","S_AREA":"018200","PREF_NAME":"愛知県","CITY_NAME":"岩倉市","S_NAME":"大山寺本町","HCODE":8101,"AREA":46588.306,"KIGO_E":"","JINKO":404,"SETAI":182,"X_CODE":136.873831,"Y_CODE":35.263742},"geometry":{"type":"Polygon","coordinates":[[[136.875,35.264364],[136.874949,35.26394],[136.874821,35.263944],[136.874758,35.263568],[136.874726,35.263339],[136.874697,35.263219],[136.874625,35.262664],[136.874419,35.262677],[136.874197,35.262648],[136.874086,35.262646],[136.87396,35.262671],[136.873728,35.262735],[136.873475,35.262812],[136.8733,35.262404],[136.872677,35.262588],[136.87238,35.262823],[136.872324,35.262837],[136.87219,35.262852],[136.872389,35.263141],[136.872927,35.263736],[136.87305,35.263885],[136.873033,35.263891],[136.873159,35.264097],[136.873255,35.264255],[136.873351,35.264368],[136.873453,35.264457],[136.873468,35.264523],[136.873537,35.264735],[136.873559,35.264794],[136.873662,35.265037],[136.873714,35.265304],[136.874042,35.265214],[136.874416,35.26511],[136.874819,35.264991],[136.874825,35.264784],[136.875013,35.264732],[136.875009,35.264566],[136.875001,35.264382],[136.875,35.264364]]]}},{"type":"Feature","id":"232280183","properties":{"KEY_CODE":"232280183","PREF":"23","CITY":"228","S_AREA":"018300","PREF_NAME":"愛知県","CITY_NAME":"岩倉市","S_NAME":"大山寺町","HCODE":8101,"AREA":330919.713,"KIGO_E":"","JINKO":1067,"SETAI":532,"X_CODE":136.871998,"Y_CODE":35.261847},"geometry":{"type":"Polygon","coordinates":[[[136.871123,35.264971],[136.871655,35.264848],[136.871645,35.264916],[136.871809,35.265186],[136.871974,35.265142],[136.87218,35.265097],[136.872193,35.265097],[136.872193,35.26509],[136.872202,35.265073],[136.872389,35.265085],[136.87236,35.26529],[136.872424,35.265294],[136.872417,35.265341],[136.872468,35.265334],[136.872495,35.26547],[136.872536,35.26565],[136.872755,35.265611],[136.872771,35.26567],[136.872962,35.26564],[136.872907,35.265403],[136.872987,35.265405],[136.872978,35.265217],[136.872972,35.265148],[136.873212,35.265142],[136.873389,35.265123],[136.873321,35.264886],[136.87311,35.264927],[136.87302,35.264595],[136.873468,35.264523],[136.873453,35.264457],[136.873351,35.264368],[136.873255,35.264255],[136.873159,35.264097],[136.873033,35.263891],[136.87305,35.263885],[136.872927,35.263736],[136.872389,35.263141],[136.87219,35.262852],[136.872324,35.262837],[136.87238,35.262823],[136.872677,35.262588],[136.8733,35.262404],[136.873475,35.262812],[136.873728,35.262735],[136.87396,35.262671],[136.874086,35.262646],[136.874197,35.262648],[136.874419,35.262677],[136.874625,35.262664],[136.874697,35.263219],[136.874726,35.263339],[136.874758,35.263568],[136.874821,35.263944],[136.874949,35.26394],[136.875282,35.263851],[136.875669,35.263744],[136.875499,35.263362],[136.875418,35.263129],[136.875959,35.262982],[136.876197,35.262916],[136.876123,35.262733],[136.875957,35.262331],[136.8759,35.26219],[136.875658,35.261858],[136.875523,35.261641],[136.875458,35.261462],[136.87538,35.261266],[136.875262,35.260971],[136.875108,35.2606],[136.875021,35.26036],[136.874244,35.260562],[136.874107,35.259731],[136.873963,35.259054],[136.873793,35.258299],[136.873765,35.258175],[136.873618,35.25819],[136.87339,35.258244],[136.873178,35.258279],[136.873029,35.258299],[136.872982,35.258305],[136.872976,35.258306],[136.872695,35.258375],[136.872435,35.258443],[136.872208,35.258502],[136.871932,35.25858],[136.871926,35.258582],[136.87184,35.258616],[136.871609,35.258705],[136.871232,35.258841],[136.870852,35.259023],[136.870741,35.259074],[136.870724,35.259082],[136.870535,35.259193],[136.870496,35.259211],[136.870258,35.259369],[136.870162,35.259446],[136.870094,35.259502],[136.870012,35.259567],[136.869908,35.259648],[136.869763,35.259768],[136.869704,35.259822],[136.869646,35.259887],[136.869539,35.259989],[136.869408,35.260102],[136.869332,35.260196],[136.869132,35.260482],[136.868986,35.260651],[136.868839,35.260799],[136.868693,35.260934],[136.868674,35.26095],[136.868622,35.260993],[136.868501,35.26108],[136.86838,35.26117],[136.868279,35.26126],[136.868397,35.26242],[136.869315,35.262366],[136.869423,35.263609],[136.869455,35.263907],[136.870127,35.263876],[136.870204,35.264633],[136.870375,35.266371],[136.870424,35.266382],[136.870465,35.266414],[136.870579,35.266414],[136.871113,35.266369],[136.871098,35.266231],[136.870976,35.265027],[136.871137,35.265016],[136.871123,35.264971]]]}},{"type":"Feature","id":"232280190","properties":{"KEY_CODE":"232280190","PREF":"23","CITY":"228","S_AREA":"019000","PREF_NAME":"愛知県","CITY_NAME":"岩倉市","S_NAME":"稲荷町","HCODE":8101,"AREA":353096.592,"KIGO_E":"","JINKO":2262,"SETAI":959,"X_CODE":136.872264,"Y_CODE":35.269466},"geometry":{"type":"Polygon","coordinates":[[[136.87584,35.272598],[136.875845,35.272458],[136.87587,35.272211],[136.876018,35.272201],[136.876539,35.272204],[136.876792,35.2722],[136.876793,35.272073],[136.877011,35.2721],[136.877092,35.271792],[136.877101,35.271708],[136.877115,35.271525],[136.87712,35.271451],[136.877131,35.271125],[136.87706,35.270876],[136.876937,35.270901],[136.876805,35.270923],[136.87667,35.270931],[136.876493,35.270934],[136.876367,35.270939],[136.876268,35.270741],[136.876254,35.270662],[136.876172,35.270639],[136.875954,35.270466],[136.875929,35.270447],[136.875982,35.270419],[136.875933,35.270356],[136.875858,35.270394],[136.875727,35.270431],[136.875419,35.270054],[136.875328,35.269945],[136.875173,35.269752],[136.8748,35.269311],[136.874465,35.268936],[136.874475,35.268912],[136.874537,35.268329],[136.874588,35.267971],[136.874606,35.267475],[136.874621,35.267313],[136.874681,35.266775],[136.874688,35.266673],[136.87472,35.266391],[136.87416,35.266347],[136.874078,35.266343],[136.873584,35.266304],[136.872996,35.266259],[136.872418,35.266221],[136.872096,35.266226],[136.871688,35.266215],[136.871405,35.266222],[136.871098,35.266231],[136.871113,35.266369],[136.870579,35.266414],[136.870465,35.266414],[136.870649,35.268087],[136.867696,35.268297],[136.867738,35.268809],[136.867381,35.268826],[136.866572,35.268873],[136.866467,35.268873],[136.866271,35.26883],[136.866165,35.26879],[136.8661,35.268776],[136.86606,35.268775],[136.866041,35.268788],[136.866034,35.26881],[136.865964,35.270101],[136.866984,35.270025],[136.867015,35.269979],[136.867147,35.269987],[136.867149,35.269783],[136.867289,35.269771],[136.86721,35.26963],[136.867101,35.269331],[136.867112,35.269228],[136.867503,35.269097],[136.867724,35.269056],[136.867825,35.269057],[136.867844,35.269154],[136.867881,35.269285],[136.867963,35.269428],[136.868025,35.269611],[136.868026,35.269714],[136.868385,35.26972],[136.868386,35.269651],[136.86844,35.269651],[136.868812,35.269629],[136.869236,35.269626],[136.869524,35.269745],[136.869469,35.270229],[136.869426,35.270578],[136.86945,35.270657],[136.869447,35.270675],[136.869442,35.270724],[136.869407,35.27105],[136.869394,35.271262],[136.869913,35.27134],[136.87064,35.271403],[136.870732,35.271411],[136.870952,35.271438],[136.870929,35.271866],[136.870927,35.271987],[136.871588,35.271996],[136.871565,35.271779],[136.871875,35.271748],[136.872428,35.27166],[136.872634,35.271636],[136.873145,35.271555],[136.873585,35.271489],[136.874133,35.271405],[136.87426,35.271385],[136.874191,35.272155],[136.874158,35.272499],[136.874157,35.272538],[136.874442,35.27255],[136.874445,35.272494],[136.874543,35.2725],[136.874544,35.272528],[136.874806,35.27251],[136.874823,35.272579],[136.87482,35.272689],[136.874815,35.272906],[136.875295,35.272912],[136.875805,35.272939],[136.875835,35.272698],[136.87584,35.272598]]]}},{"type":"Feature","id":"232280200","properties":{"KEY_CODE":"232280200","PREF":"23","CITY":"228","S_AREA":"020000","PREF_NAME":"愛知県","CITY_NAME":"岩倉市","S_NAME":"曽野町","HCODE":8101,"AREA":577509.712,"KIGO_E":"","JINKO":2496,"SETAI":1034,"X_CODE":136.877901,"Y_CODE":35.267223},"geometry":{"type":"Polygon","coordinates":[[[136.879743,35.272094],[136.879834,35.271973],[136.879921,35.271882],[136.880097,35.271704],[136.880265,35.271395],[136.880368,35.271175],[136.880477,35.271018],[136.880555,35.27091],[136.880625,35.27085],[136.880736,35.270797],[136.880863,35.270744],[136.880959,35.270729],[136.881062,35.270713],[136.881182,35.270696],[136.881419,35.270654],[136.881457,35.270673],[136.881507,35.27074],[136.881453,35.270793],[136.881327,35.270904],[136.88134,35.271149],[136.881372,35.271752],[136.881375,35.27183],[136.882146,35.271778],[136.882219,35.271738],[136.8834,35.271632],[136.88357,35.271616],[136.883559,35.27159],[136.883488,35.271425],[136.883293,35.270966],[136.883163,35.270666],[136.882902,35.270096],[136.882716,35.269778],[136.882908,35.269675],[136.882498,35.269186],[136.882456,35.269145],[136.882373,35.269063],[136.882018,35.268794],[136.881893,35.26867],[136.881881,35.268658],[136.881772,35.268455],[136.881663,35.268207],[136.881608,35.268038],[136.881527,35.267756],[136.881472,35.267587],[136.881377,35.267395],[136.881309,35.267271],[136.881131,35.267034],[136.881081,35.26697],[136.880707,35.266492],[136.880542,35.266616],[136.879994,35.266051],[136.879789,35.265836],[136.879679,35.265723],[136.87957,35.265599],[136.879351,35.265216],[136.879065,35.264719],[136.878873,35.264426],[136.878533,35.263988],[136.878495,35.263943],[136.87823,35.263624],[136.878121,35.263489],[136.877971,35.263229],[136.877807,35.262902],[136.877644,35.262485],[136.877534,35.262316],[136.877233,35.262411],[136.876897,35.262524],[136.876908,35.262595],[136.876624,35.262673],[136.876507,35.262532],[136.876401,35.262393],[136.876313,35.262375],[136.876286,35.262334],[136.876236,35.262264],[136.876271,35.262222],[136.876095,35.261975],[136.875969,35.261867],[136.875891,35.261783],[136.875833,35.26172],[136.875677,35.261534],[136.875606,35.261419],[136.875932,35.261256],[136.876202,35.2611],[136.876468,35.26095],[136.876222,35.260634],[136.876206,35.260613],[136.876099,35.260475],[136.875798,35.25999],[136.875578,35.259571],[136.875539,35.259484],[136.875489,35.259372],[136.875375,35.259155],[136.8752,35.258842],[136.875075,35.258614],[136.875007,35.258524],[136.874906,35.258444],[136.874879,35.258412],[136.874693,35.258291],[136.874471,35.258199],[136.874414,35.258189],[136.87423,35.258155],[136.874145,35.258153],[136.873876,35.258148],[136.873762,35.258161],[136.873765,35.258175],[136.873793,35.258299],[136.873963,35.259054],[136.874107,35.259731],[136.874244,35.260562],[136.875021,35.26036],[136.875108,35.2606],[136.875262,35.260971],[136.87538,35.261266],[136.875458,35.261462],[136.875523,35.261641],[136.875658,35.261858],[136.8759,35.26219],[136.875957,35.262331],[136.876123,35.262733],[136.876197,35.262916],[136.875959,35.262982],[136.875418,35.263129],[136.875499,35.263362],[136.875669,35.263744],[136.875282,35.263851],[136.874949,35.26394],[136.875,35.264364],[136.875001,35.264382],[136.875009,35.264566],[136.875013,35.264732],[136.874825,35.264784],[136.874819,35.264991],[136.874416,35.26511],[136.874042,35.265214],[136.873714,35.265304],[136.873689,35.265754],[136.873661,35.265878],[136.873584,35.266304],[136.874078,35.266343],[136.87416,35.266347],[136.87472,35.266391],[136.874688,35.266673],[136.874681,35.266775],[136.874621,35.267313],[136.874606,35.267475],[136.874588,35.267971],[136.874537,35.268329],[136.874475,35.268912],[136.874465,35.268936],[136.8748,35.269311],[136.875173,35.269752],[136.875328,35.269945],[136.875419,35.270054],[136.875727,35.270431],[136.875858,35.270394],[136.875933,35.270356],[136.875982,35.270419],[136.875929,35.270447],[136.875954,35.270466],[136.876172,35.270639],[136.876254,35.270662],[136.876268,35.270741],[136.876367,35.270939],[136.876493,35.270934],[136.87667,35.270931],[136.876805,35.270923],[136.876937,35.270901],[136.87706,35.270876],[136.877131,35.271125],[136.87712,35.271451],[136.877115,35.271525],[136.877101,35.271708],[136.877092,35.271792],[136.877238,35.271795],[136.877396,35.271812],[136.877544,35.271875],[136.877638,35.271905],[136.877648,35.271913],[136.877692,35.27191],[136.877728,35.271899],[136.877757,35.271908],[136.877812,35.271919],[136.877888,35.271949],[136.877999,35.271984],[136.878141,35.272018],[136.878262,35.272035],[136.87836,35.272046],[136.878495,35.272047],[136.878671,35.272039],[136.878874,35.27203],[136.878927,35.272004],[136.879014,35.272002],[136.879092,35.271997],[136.879172,35.272002],[136.879293,35.271996],[136.879284,35.272106],[136.879232,35.272385],[136.879552,35.27244],[136.879663,35.272234],[136.879743,35.272094]]]}},{"type":"Feature","id":"232280210","properties":{"KEY_CODE":"232280210","PREF":"23","CITY":"228","S_AREA":"021000","PREF_NAME":"愛知県","CITY_NAME":"岩倉市","S_NAME":"五条町","HCODE":8101,"AREA":16065.014,"KIGO_E":"","JINKO":252,"SETAI":171,"X_CODE":136.87656,"Y_CODE":35.261833},"geometry":{"type":"Polygon","coordinates":[[[136.876768,35.26134],[136.876468,35.26095],[136.876202,35.2611],[136.875932,35.261256],[136.875606,35.261419],[136.875677,35.261534],[136.875833,35.26172],[136.875891,35.261783],[136.875969,35.261867],[136.876095,35.261975],[136.876271,35.262222],[136.876236,35.262264],[136.876286,35.262334],[136.876313,35.262375],[136.876401,35.262393],[136.876507,35.262532],[136.876624,35.262673],[136.876908,35.262595],[136.876897,35.262524],[136.877233,35.262411],[136.877534,35.262316],[136.877206,35.261875],[136.877016,35.26163],[136.876768,35.26134]]]}},{"type":"Feature","id":"232280220","properties":{"KEY_CODE":"232280220","PREF":"23","CITY":"228","S_AREA":"022000","PREF_NAME":"愛知県","CITY_NAME":"岩倉市","S_NAME":"南新町","HCODE":8101,"AREA":41278.926,"KIGO_E":"","JINKO":571,"SETAI":261,"X_CODE":136.868168,"Y_CODE":35.270292},"geometry":{"type":"Polygon","coordinates":[[[136.869426,35.270578],[136.869469,35.270229],[136.869524,35.269745],[136.869236,35.269626],[136.868812,35.269629],[136.86844,35.269651],[136.868386,35.269651],[136.868385,35.26972],[136.868026,35.269714],[136.868025,35.269611],[136.867963,35.269428],[136.867881,35.269285],[136.867844,35.269154],[136.867825,35.269057],[136.867724,35.269056],[136.867503,35.269097],[136.867112,35.269228],[136.867101,35.269331],[136.86721,35.26963],[136.867289,35.269771],[136.867149,35.269783],[136.867147,35.269987],[136.867015,35.269979],[136.866984,35.270025],[136.866911,35.270226],[136.866733,35.27017],[136.86676,35.270767],[136.866831,35.270848],[136.866949,35.270868],[136.867184,35.270905],[136.867204,35.270945],[136.867652,35.271002],[136.867941,35.27108],[136.868172,35.271121],[136.868456,35.271191],[136.86884,35.271207],[136.869394,35.271262],[136.869407,35.27105],[136.869442,35.270724],[136.869447,35.270675],[136.86945,35.270657],[136.869426,35.270578]]]}},{"type":"Feature","id":"232280230","properties":{"KEY_CODE":"232280230","PREF":"23","CITY":"228","S_AREA":"023000","PREF_NAME":"愛知県","CITY_NAME":"岩倉市","S_NAME":"東新町","HCODE":8101,"AREA":187077.324,"KIGO_E":"","JINKO":3156,"SETAI":1857,"X_CODE":136.884118,"Y_CODE":35.279956},"geometry":{"type":"Polygon","coordinates":[[[136.884757,35.27621],[136.884492,35.276182],[136.884333,35.276183],[136.88418,35.27618],[136.883905,35.276167],[136.883859,35.276134],[136.883763,35.276134],[136.883642,35.276139],[136.883393,35.27614],[136.883279,35.276136],[136.883178,35.276129],[136.882834,35.276103],[136.882837,35.276407],[136.882836,35.276452],[136.882833,35.276971],[136.882834,35.277033],[136.882837,35.277343],[136.882832,35.277482],[136.882834,35.27765],[136.882838,35.277898],[136.882836,35.27795],[136.882832,35.278266],[136.882835,35.278319],[136.882852,35.278819],[136.882857,35.27907],[136.882865,35.279183],[136.882916,35.279184],[136.882934,35.279418],[136.882957,35.279699],[136.882925,35.279903],[136.882913,35.279924],[136.882896,35.279971],[136.882882,35.280046],[136.882864,35.280268],[136.882871,35.280498],[136.882893,35.28057],[136.882899,35.280639],[136.882959,35.280776],[136.882992,35.280913],[136.882997,35.280982],[136.882987,35.281074],[136.882969,35.281137],[136.88299,35.281202],[136.882891,35.281285],[136.882855,35.281459],[136.882843,35.281553],[136.882811,35.281652],[136.882794,35.281758],[136.882758,35.281991],[136.882727,35.282158],[136.8827,35.282298],[136.882639,35.282615],[136.882615,35.282755],[136.882584,35.282934],[136.882512,35.28333],[136.883448,35.283344],[136.883957,35.283347],[136.884389,35.283352],[136.885687,35.283366],[136.885684,35.283248],[136.885672,35.282976],[136.885661,35.282744],[136.885661,35.282736],[136.885654,35.282458],[136.885653,35.282437],[136.885626,35.282177],[136.885617,35.281924],[136.885617,35.281917],[136.885611,35.281655],[136.885602,35.281557],[136.885601,35.281546],[136.885589,35.28113],[136.885577,35.280841],[136.885563,35.280633],[136.885537,35.280238],[136.88551,35.27992],[136.88529,35.279919],[136.885291,35.279674],[136.885277,35.279107],[136.885275,35.279058],[136.885272,35.278784],[136.885272,35.278742],[136.885257,35.278449],[136.885254,35.278394],[136.885235,35.278156],[136.885232,35.278107],[136.885217,35.277858],[136.885214,35.277812],[136.885203,35.277566],[136.885202,35.277556],[136.885163,35.276977],[136.88516,35.276937],[136.885157,35.276917],[136.885111,35.276283],[136.884943,35.27625],[136.884757,35.27621]]]}},{"type":"Feature","id":"23228024001","properties":{"KEY_CODE":"23228024001","PREF":"23","CITY":"228","S_AREA":"024001","PREF_NAME":"愛知県","CITY_NAME":"岩倉市","S_NAME":"宮前町一丁目","HCODE":8101,"AREA":13772.319,"KIGO_E":"","JINKO":76,"SETAI":35,"X_CODE":136.870356,"Y_CODE":35.283701},"geometry":{"type":"Polygon","coordinates":[[[136.871177,35.284135],[136.871228,35.283633],[136.871364,35.283613],[136.871363,35.283448],[136.871224,35.283446],[136.870846,35.283444],[136.870676,35.283439],[136.870676,35.283244],[136.870418,35.28322],[136.869574,35.283285],[136.86954,35.283431],[136.869523,35.283536],[136.869518,35.283637],[136.869521,35.283759],[136.869509,35.283896],[136.869522,35.284015],[136.869528,35.284079],[136.871177,35.284135]]]}},{"type":"Feature","id":"23228024002","properties":{"KEY_CODE":"23228024002","PREF":"23","CITY":"228","S_AREA":"024002","PREF_NAME":"愛知県","CITY_NAME":"岩倉市","S_NAME":"宮前町二丁目","HCODE":8101,"AREA":33254.763,"KIGO_E":"","JINKO":301,"SETAI":132,"X_CODE":136.868237,"Y_CODE":35.283727},"geometry":{"type":"Polygon","coordinates":[[[136.869611,35.283112],[136.869617,35.283052],[136.86827,35.28309],[136.867953,35.283093],[136.866925,35.283118],[136.866978,35.283605],[136.867019,35.284062],[136.867064,35.284502],[136.868,35.284408],[136.869536,35.284255],[136.869528,35.284079],[136.869522,35.284015],[136.869509,35.283896],[136.869521,35.283759],[136.869518,35.283637],[136.869523,35.283536],[136.86954,35.283431],[136.869574,35.283285],[136.869597,35.283171],[136.869611,35.283112]]]}},{"type":"Feature","id":"23228024003","properties":{"KEY_CODE":"23228024003","PREF":"23","CITY":"228","S_AREA":"024003","PREF_NAME":"愛知県","CITY_NAME":"岩倉市","S_NAME":"宮前町三丁目","HCODE":8101,"AREA":28992.566,"KIGO_E":"","JINKO":255,"SETAI":113,"X_CODE":136.866383,"Y_CODE":35.284296},"geometry":{"type":"Polygon","coordinates":[[[136.866978,35.283605],[136.866925,35.283118],[136.866212,35.283143],[136.865682,35.283149],[136.865732,35.283654],[136.865766,35.284108],[136.865813,35.28455],[136.865855,35.285007],[136.865915,35.285701],[136.866503,35.285633],[136.866503,35.28527],[136.866547,35.285229],[136.867114,35.285187],[136.867064,35.284502],[136.867019,35.284062],[136.866978,35.283605]]]}},{"type":"Feature","id":"23228025001","properties":{"KEY_CODE":"23228025001","PREF":"23","CITY":"228","S_AREA":"025001","PREF_NAME":"愛知県","CITY_NAME":"岩倉市","S_NAME":"栄町一丁目","HCODE":8101,"AREA":62282.973,"KIGO_E":"","JINKO":770,"SETAI":381,"X_CODE":136.871208,"Y_CODE":35.27975},"geometry":{"type":"Polygon","coordinates":[[[136.87146,35.281133],[136.871748,35.280882],[136.871713,35.280771],[136.871674,35.280623],[136.872068,35.280434],[136.87241,35.280198],[136.872575,35.28005],[136.872661,35.279959],[136.872704,35.279882],[136.872718,35.279791],[136.872763,35.278732],[136.873178,35.278749],[136.873193,35.278649],[136.872774,35.278646],[136.872396,35.278643],[136.872124,35.278638],[136.871781,35.278635],[136.871099,35.278627],[136.87092,35.278625],[136.870562,35.278621],[136.869952,35.278617],[136.869927,35.279151],[136.869922,35.27954],[136.86992,35.27962],[136.869911,35.279963],[136.869902,35.280111],[136.869899,35.280371],[136.869889,35.280794],[136.869878,35.281039],[136.870131,35.281007],[136.870367,35.280962],[136.870367,35.281139],[136.87146,35.281133]]]}},{"type":"Feature","id":"23228025002","properties":{"KEY_CODE":"23228025002","PREF":"23","CITY":"228","S_AREA":"025002","PREF_NAME":"愛知県","CITY_NAME":"岩倉市","S_NAME":"栄町二丁目","HCODE":8101,"AREA":47225.273,"KIGO_E":"","JINKO":530,"SETAI":336,"X_CODE":136.871586,"Y_CODE":35.2779},"geometry":{"type":"Polygon","coordinates":[[[136.873007,35.277854],[136.873044,35.27732],[136.873169,35.277324],[136.873474,35.277342],[136.873482,35.277219],[136.873661,35.277213],[136.873662,35.277157],[136.873249,35.277156],[136.87298,35.277148],[136.872832,35.277144],[136.872495,35.277145],[136.872115,35.277163],[136.871794,35.277179],[136.870586,35.27718],[136.869987,35.277181],[136.869971,35.277762],[136.869959,35.278302],[136.869952,35.278617],[136.870562,35.278621],[136.87092,35.278625],[136.871099,35.278627],[136.871781,35.278635],[136.872124,35.278638],[136.872396,35.278643],[136.872774,35.278646],[136.873193,35.278649],[136.873257,35.27804],[136.873,35.278026],[136.873007,35.277854]]]}},{"type":"Feature","id":"23228026001","properties":{"KEY_CODE":"23228026001","PREF":"23","CITY":"228","S_AREA":"026001","PREF_NAME":"愛知県","CITY_NAME":"岩倉市","S_NAME":"旭町一丁目","HCODE":8101,"AREA":67762.579,"KIGO_E":"","JINKO":374,"SETAI":228,"X_CODE":136.871863,"Y_CODE":35.276269},"geometry":{"type":"Polygon","coordinates":[[[136.872495,35.277145],[136.872832,35.277144],[136.87298,35.277148],[136.873249,35.277156],[136.873662,35.277157],[136.873701,35.276809],[136.873712,35.276586],[136.873746,35.276301],[136.873845,35.275378],[136.871858,35.275387],[136.870603,35.275378],[136.870359,35.275381],[136.87001,35.275368],[136.869994,35.276067],[136.869995,35.276326],[136.869965,35.277181],[136.869987,35.277181],[136.870586,35.27718],[136.871794,35.277179],[136.872115,35.277163],[136.872495,35.277145]]]}},{"type":"Feature","id":"23228026002","properties":{"KEY_CODE":"23228026002","PREF":"23","CITY":"228","S_AREA":"026002","PREF_NAME":"愛知県","CITY_NAME":"岩倉市","S_NAME":"旭町二丁目","HCODE":8101,"AREA":27963.774,"KIGO_E":"","JINKO":340,"SETAI":151,"X_CODE":136.871628,"Y_CODE":35.274997},"geometry":{"type":"Polygon","coordinates":[[[136.871858,35.275387],[136.873845,35.275378],[136.873892,35.275089],[136.873905,35.275007],[136.871821,35.274651],[136.870926,35.274494],[136.870612,35.274437],[136.869982,35.274319],[136.869986,35.274751],[136.87001,35.275368],[136.870359,35.275381],[136.870603,35.275378],[136.871858,35.275387]]]}},{"type":"Feature","id":"23228027001","properties":{"KEY_CODE":"23228027001","PREF":"23","CITY":"228","S_AREA":"027001","PREF_NAME":"愛知県","CITY_NAME":"岩倉市","S_NAME":"新柳町一丁目","HCODE":8101,"AREA":52434.538,"KIGO_E":"","JINKO":1354,"SETAI":560,"X_CODE":136.868865,"Y_CODE":35.279862},"geometry":{"type":"Polygon","coordinates":[[[136.869927,35.279151],[136.869952,35.278617],[136.867882,35.278612],[136.86786,35.278884],[136.867837,35.279128],[136.867814,35.279573],[136.867813,35.279586],[136.867842,35.28044],[136.867859,35.28095],[136.867857,35.281201],[136.868024,35.281189],[136.868893,35.281123],[136.869029,35.281115],[136.869439,35.281077],[136.869577,35.281064],[136.869878,35.281039],[136.869889,35.280794],[136.869899,35.280371],[136.869902,35.280111],[136.869911,35.279963],[136.86992,35.27962],[136.869922,35.27954],[136.869927,35.279151]]]}},{"type":"Feature","id":"23228027002","properties":{"KEY_CODE":"23228027002","PREF":"23","CITY":"228","S_AREA":"027002","PREF_NAME":"愛知県","CITY_NAME":"岩倉市","S_NAME":"新柳町二丁目","HCODE":8101,"AREA":44389.48,"KIGO_E":"","JINKO":405,"SETAI":176,"X_CODE":136.866866,"Y_CODE":35.279859},"geometry":{"type":"Polygon","coordinates":[[[136.867882,35.278612],[136.866356,35.278587],[136.866327,35.278875],[136.866307,35.279104],[136.866267,35.279602],[136.865703,35.279623],[136.865667,35.280077],[136.865582,35.280867],[136.86595,35.280883],[136.866129,35.28089],[136.867859,35.28095],[136.867842,35.28044],[136.867813,35.279586],[136.867814,35.279573],[136.867837,35.279128],[136.86786,35.278884],[136.867882,35.278612]]]}},{"type":"Feature","id":"23228027003","properties":{"KEY_CODE":"23228027003","PREF":"23","CITY":"228","S_AREA":"027003","PREF_NAME":"愛知県","CITY_NAME":"岩倉市","S_NAME":"新柳町三丁目","HCODE":8101,"AREA":24406.563,"KIGO_E":"","JINKO":265,"SETAI":109,"X_CODE":136.86516,"Y_CODE":35.279125},"geometry":{"type":"Polygon","coordinates":[[[136.866356,35.278587],[136.864786,35.278579],[136.864151,35.278579],[136.863968,35.279728],[136.864758,35.279681],[136.865703,35.279623],[136.866267,35.279602],[136.866307,35.279104],[136.866327,35.278875],[136.866356,35.278587]]]}},{"type":"Feature","id":"23228028001","properties":{"KEY_CODE":"23228028001","PREF":"23","CITY":"228","S_AREA":"028001","PREF_NAME":"愛知県","CITY_NAME":"岩倉市","S_NAME":"中央町一丁目","HCODE":8101,"AREA":46036.084,"KIGO_E":"","JINKO":455,"SETAI":224,"X_CODE":136.868975,"Y_CODE":35.277487},"geometry":{"type":"Polygon","coordinates":[[[136.869965,35.277181],[136.869995,35.276326],[136.869322,35.276329],[136.868083,35.276329],[136.868035,35.276749],[136.867999,35.277177],[136.867965,35.277623],[136.867929,35.27805],[136.867882,35.278612],[136.869952,35.278617],[136.869959,35.278302],[136.869971,35.277762],[136.869987,35.277181],[136.869965,35.277181]]]}},{"type":"Feature","id":"23228028002","properties":{"KEY_CODE":"23228028002","PREF":"23","CITY":"228","S_AREA":"028002","PREF_NAME":"愛知県","CITY_NAME":"岩倉市","S_NAME":"中央町二丁目","HCODE":8101,"AREA":34329.528,"KIGO_E":"","JINKO":301,"SETAI":155,"X_CODE":136.867229,"Y_CODE":35.277473},"geometry":{"type":"Polygon","coordinates":[[[136.868035,35.276749],[136.868083,35.276329],[136.86659,35.276338],[136.866553,35.276737],[136.866517,35.277169],[136.866502,35.27717],[136.866482,35.277401],[136.866468,35.27761],[136.866413,35.278043],[136.866356,35.278587],[136.867882,35.278612],[136.867929,35.27805],[136.867965,35.277623],[136.867999,35.277177],[136.868035,35.276749]]]}},{"type":"Feature","id":"23228028003","properties":{"KEY_CODE":"23228028003","PREF":"23","CITY":"228","S_AREA":"028003","PREF_NAME":"愛知県","CITY_NAME":"岩倉市","S_NAME":"中央町三丁目","HCODE":8101,"AREA":49129.709,"KIGO_E":"","JINKO":331,"SETAI":145,"X_CODE":136.865393,"Y_CODE":35.277466},"geometry":{"type":"Polygon","coordinates":[[[136.866356,35.278587],[136.866413,35.278043],[136.866468,35.27761],[136.866482,35.277401],[136.866502,35.27717],[136.866517,35.277169],[136.866553,35.276737],[136.86659,35.276338],[136.865108,35.276333],[136.864469,35.276338],[136.864151,35.278579],[136.864786,35.278579],[136.866356,35.278587]]]}},{"type":"Feature","id":"23228029001","properties":{"KEY_CODE":"23228029001","PREF":"23","CITY":"228","S_AREA":"029001","PREF_NAME":"愛知県","CITY_NAME":"岩倉市","S_NAME":"大地新町一丁目","HCODE":8101,"AREA":39216.943,"KIGO_E":"","JINKO":410,"SETAI":220,"X_CODE":136.869061,"Y_CODE":35.275291},"geometry":{"type":"Polygon","coordinates":[[[136.869525,35.27425],[136.869421,35.274233],[136.869346,35.274217],[136.868899,35.274214],[136.868517,35.274217],[136.868266,35.274228],[136.868164,35.27423],[136.868118,35.274227],[136.868153,35.27452],[136.868189,35.274908],[136.868149,35.275373],[136.868124,35.275662],[136.868105,35.275871],[136.868083,35.276329],[136.869322,35.276329],[136.869995,35.276326],[136.869994,35.276067],[136.87001,35.275368],[136.869986,35.274751],[136.869982,35.274319],[136.869651,35.274265],[136.869525,35.27425]]]}},{"type":"Feature","id":"23228029002","properties":{"KEY_CODE":"23228029002","PREF":"23","CITY":"228","S_AREA":"029002","PREF_NAME":"愛知県","CITY_NAME":"岩倉市","S_NAME":"大地新町二丁目","HCODE":8101,"AREA":34110.903,"KIGO_E":"","JINKO":290,"SETAI":130,"X_CODE":136.867321,"Y_CODE":35.275228},"geometry":{"type":"Polygon","coordinates":[[[136.868149,35.275373],[136.868189,35.274908],[136.868153,35.27452],[136.868118,35.274227],[136.867483,35.274245],[136.867365,35.274247],[136.867027,35.274243],[136.866557,35.274222],[136.866333,35.274222],[136.866323,35.274299],[136.866251,35.274686],[136.866192,35.274922],[136.866696,35.274922],[136.866684,35.275383],[136.866652,35.275684],[136.866632,35.275888],[136.86659,35.276338],[136.868083,35.276329],[136.868105,35.275871],[136.868124,35.275662],[136.868149,35.275373]]]}},{"type":"Feature","id":"23228029003","properties":{"KEY_CODE":"23228029003","PREF":"23","CITY":"228","S_AREA":"029003","PREF_NAME":"愛知県","CITY_NAME":"岩倉市","S_NAME":"大地新町三丁目","HCODE":8101,"AREA":42800.04,"KIGO_E":"","JINKO":255,"SETAI":107,"X_CODE":136.865551,"Y_CODE":35.275305},"geometry":{"type":"Polygon","coordinates":[[[136.864469,35.276338],[136.865108,35.276333],[136.86659,35.276338],[136.866632,35.275888],[136.866652,35.275684],[136.866684,35.275383],[136.866696,35.274922],[136.866192,35.274922],[136.866251,35.274686],[136.866323,35.274299],[136.866333,35.274222],[136.865847,35.274185],[136.865332,35.274116],[136.865249,35.274105],[136.865054,35.274089],[136.864719,35.274075],[136.864562,35.275395],[136.864469,35.276338]]]}},{"type":"Feature","id":"23228030001","properties":{"KEY_CODE":"23228030001","PREF":"23","CITY":"228","S_AREA":"030001","PREF_NAME":"愛知県","CITY_NAME":"岩倉市","S_NAME":"昭和町一丁目","HCODE":8101,"AREA":19544.532,"KIGO_E":"","JINKO":160,"SETAI":82,"X_CODE":136.872866,"Y_CODE":35.274376},"geometry":{"type":"Polygon","coordinates":[[[136.872809,35.273927],[136.871744,35.273732],[136.871792,35.274175],[136.871794,35.274213],[136.871821,35.274651],[136.873905,35.275007],[136.873946,35.274586],[136.873991,35.274127],[136.872809,35.273927]]]}},{"type":"Feature","id":"23228030002","properties":{"KEY_CODE":"23228030002","PREF":"23","CITY":"228","S_AREA":"030002","PREF_NAME":"愛知県","CITY_NAME":"岩倉市","S_NAME":"昭和町二丁目","HCODE":8101,"AREA":37526.303,"KIGO_E":"","JINKO":360,"SETAI":178,"X_CODE":136.872853,"Y_CODE":35.273131},"geometry":{"type":"Polygon","coordinates":[[[136.871901,35.271959],[136.871875,35.271748],[136.871565,35.271779],[136.871588,35.271996],[136.871629,35.27241],[136.871642,35.272668],[136.871648,35.272762],[136.871651,35.272869],[136.871697,35.273284],[136.871734,35.273606],[136.871744,35.273732],[136.872809,35.273927],[136.873991,35.274127],[136.87409,35.273221],[136.874114,35.273008],[136.874138,35.272673],[136.874157,35.272538],[136.873549,35.272506],[136.87281,35.272466],[136.87194,35.272414],[136.871901,35.271959]]]}},{"type":"Feature","id":"23228030003","properties":{"KEY_CODE":"23228030003","PREF":"23","CITY":"228","S_AREA":"030003","PREF_NAME":"愛知県","CITY_NAME":"岩倉市","S_NAME":"昭和町三丁目","HCODE":8101,"AREA":21103.388,"KIGO_E":"","JINKO":248,"SETAI":136,"X_CODE":136.873159,"Y_CODE":35.272012},"geometry":{"type":"Polygon","coordinates":[[[136.874191,35.272155],[136.87426,35.271385],[136.874133,35.271405],[136.873585,35.271489],[136.873145,35.271555],[136.872634,35.271636],[136.872428,35.27166],[136.871875,35.271748],[136.871901,35.271959],[136.87194,35.272414],[136.87281,35.272466],[136.873549,35.272506],[136.874157,35.272538],[136.874158,35.272499],[136.874191,35.272155]]]}}]}