{"type":"FeatureCollection","name":"23361_大口町","crs":{"type":"name","properties":{"name":"urn:ogc:def:crs:OGC:1.3:CRS84"}},"features":[{"type":"Feature","id":"23361001001","properties":{"KEY_CODE":"23361001001","PREF":"23","CITY":"361","S_AREA":"001001","PREF_NAME":"愛知県","CITY_NAME":"大口町","S_NAME":"秋田一丁目","HCODE":8101,"AREA":206042.217,"KIGO_E":"","JINKO":156,"SETAI":51,"X_CODE":136.900964,"Y_CODE":35.321687},"geometry":{"type":"Polygon","coordinates":[[[136.903486,35.324458],[136.903446,35.322337],[136.90341,35.32212],[136.90336,35.319371],[136.901183,35.319639],[136.900668,35.319691],[136.899829,35.319843],[136.899444,35.319957],[136.899013,35.320086],[136.898843,35.320113],[136.89817,35.32046],[136.898077,35.320548],[136.898019,35.320528],[136.897951,35.320666],[136.897771,35.321019],[136.898184,35.322093],[136.898442,35.32281],[136.898463,35.322895],[136.898817,35.323898],[136.900601,35.323285],[136.901042,35.323032],[136.901055,35.323025],[136.901148,35.323106],[136.901318,35.323234],[136.901486,35.323376],[136.901897,35.323651],[136.902467,35.323973],[136.903064,35.324294],[136.903486,35.324458]]]}},{"type":"Feature","id":"23361001002","properties":{"KEY_CODE":"23361001002","PREF":"23","CITY":"361","S_AREA":"001002","PREF_NAME":"愛知県","CITY_NAME":"大口町","S_NAME":"秋田二丁目","HCODE":8101,"AREA":231930.405,"KIGO_E":"","JINKO":270,"SETAI":93,"X_CODE":136.905712,"Y_CODE":35.321812},"geometry":{"type":"Polygon","coordinates":[[[136.905837,35.323023],[136.907391,35.323026],[136.907468,35.323173],[136.907556,35.323295],[136.907636,35.323374],[136.907764,35.32344],[136.908157,35.323603],[136.908319,35.323019],[136.908365,35.322811],[136.908375,35.322586],[136.909429,35.322268],[136.909732,35.322172],[136.909727,35.322136],[136.909661,35.322159],[136.909626,35.321999],[136.909578,35.321781],[136.909442,35.321643],[136.909354,35.321566],[136.909009,35.321459],[136.908853,35.321409],[136.908762,35.321339],[136.908531,35.321211],[136.908364,35.321132],[136.907959,35.320758],[136.907782,35.320626],[136.907478,35.320616],[136.907191,35.320042],[136.906992,35.319646],[136.906609,35.319014],[136.906424,35.319033],[136.905746,35.319117],[136.905028,35.319185],[136.90336,35.319371],[136.90341,35.32212],[136.903446,35.322337],[136.903486,35.324458],[136.903942,35.324614],[136.904481,35.324788],[136.905877,35.32523],[136.905837,35.323023]]]}},{"type":"Feature","id":"23361001003","properties":{"KEY_CODE":"23361001003","PREF":"23","CITY":"361","S_AREA":"001003","PREF_NAME":"愛知県","CITY_NAME":"大口町","S_NAME":"秋田三丁目","HCODE":8101,"AREA":233739.696,"KIGO_E":"","JINKO":311,"SETAI":105,"X_CODE":136.90177,"Y_CODE":35.318361},"geometry":{"type":"Polygon","coordinates":[[[136.906306,35.317979],[136.906287,35.317819],[136.905747,35.317826],[136.905717,35.316705],[136.905681,35.316706],[136.903309,35.316738],[136.902516,35.316742],[136.90129,35.316963],[136.901115,35.317019],[136.900969,35.317058],[136.900852,35.317074],[136.900066,35.317136],[136.900105,35.317379],[136.898493,35.317408],[136.898494,35.317433],[136.898129,35.317446],[136.897441,35.317433],[136.897524,35.320387],[136.898019,35.320528],[136.898077,35.320548],[136.89817,35.32046],[136.898843,35.320113],[136.899013,35.320086],[136.899444,35.319957],[136.899829,35.319843],[136.900668,35.319691],[136.901183,35.319639],[136.90336,35.319371],[136.905028,35.319185],[136.905746,35.319117],[136.906424,35.319033],[136.906609,35.319014],[136.907076,35.318921],[136.907148,35.318901],[136.907191,35.318893],[136.907101,35.318676],[136.907014,35.318521],[136.906958,35.318491],[136.90682,35.318417],[136.906714,35.318342],[136.906401,35.318052],[136.906306,35.317979]]]}},{"type":"Feature","id":"23361001004","properties":{"KEY_CODE":"23361001004","PREF":"23","CITY":"361","S_AREA":"001004","PREF_NAME":"愛知県","CITY_NAME":"大口町","S_NAME":"秋田四丁目","HCODE":8101,"AREA":156671.296,"KIGO_E":"","JINKO":31,"SETAI":10,"X_CODE":136.902649,"Y_CODE":35.316043},"geometry":{"type":"Polygon","coordinates":[[[136.903309,35.316738],[136.905681,35.316706],[136.905717,35.316705],[136.90596,35.316699],[136.907374,35.31669],[136.907358,35.316058],[136.907343,35.315144],[136.905615,35.315114],[136.905391,35.31511],[136.903801,35.315118],[136.902208,35.315136],[136.898579,35.315197],[136.898538,35.316488],[136.898493,35.317408],[136.900105,35.317379],[136.900066,35.317136],[136.900852,35.317074],[136.900969,35.317058],[136.901115,35.317019],[136.90129,35.316963],[136.902516,35.316742],[136.903309,35.316738]]]}},{"type":"Feature","id":"23361005001","properties":{"KEY_CODE":"23361005001","PREF":"23","CITY":"361","S_AREA":"005001","PREF_NAME":"愛知県","CITY_NAME":"大口町","S_NAME":"伝右一丁目","HCODE":8101,"AREA":291711.584,"KIGO_E":"","JINKO":193,"SETAI":70,"X_CODE":136.911086,"Y_CODE":35.32752},"geometry":{"type":"Polygon","coordinates":[[[136.916218,35.329016],[136.916708,35.326435],[136.916397,35.326441],[136.914921,35.326429],[136.914417,35.326435],[136.913436,35.326417],[136.91259,35.326415],[136.911667,35.326384],[136.910492,35.326272],[136.909713,35.326173],[136.908629,35.325972],[136.907871,35.325809],[136.907421,35.325693],[136.905877,35.32523],[136.905901,35.326309],[136.905909,35.326423],[136.905908,35.326848],[136.905921,35.327953],[136.906372,35.327959],[136.906857,35.328183],[136.90785,35.328175],[136.907587,35.329114],[136.916218,35.329016]]]}},{"type":"Feature","id":"23361005002","properties":{"KEY_CODE":"23361005002","PREF":"23","CITY":"361","S_AREA":"005002","PREF_NAME":"愛知県","CITY_NAME":"大口町","S_NAME":"伝右二丁目","HCODE":8101,"AREA":215669.178,"KIGO_E":"","JINKO":243,"SETAI":86,"X_CODE":136.90971,"Y_CODE":35.32465},"geometry":{"type":"Polygon","coordinates":[[[136.916397,35.326441],[136.91547,35.325808],[136.915475,35.325766],[136.915421,35.325763],[136.915386,35.325786],[136.915363,35.32581],[136.915268,35.326069],[136.915093,35.326025],[136.915,35.32604],[136.914942,35.32608],[136.914921,35.326121],[136.914881,35.32622],[136.914809,35.326373],[136.914766,35.326367],[136.914628,35.326343],[136.914524,35.326348],[136.914386,35.326424],[136.914332,35.326431],[136.914223,35.326404],[136.914141,35.326337],[136.913877,35.325966],[136.913801,35.325897],[136.913704,35.325813],[136.913625,35.325904],[136.913571,35.325935],[136.913506,35.325934],[136.913435,35.325915],[136.913405,35.325855],[136.913399,35.325782],[136.913428,35.325563],[136.913407,35.325469],[136.913366,35.32537],[136.913242,35.325185],[136.91315,35.325188],[136.913102,35.325037],[136.912518,35.3251],[136.912429,35.324529],[136.91241,35.324362],[136.912229,35.324125],[136.912016,35.323854],[136.911669,35.323654],[136.91123,35.323389],[136.910782,35.323102],[136.910451,35.322981],[136.910216,35.322893],[136.909845,35.322924],[136.909848,35.322902],[136.909919,35.322381],[136.909948,35.322061],[136.909778,35.322118],[136.909727,35.322136],[136.909732,35.322172],[136.909429,35.322268],[136.908375,35.322586],[136.908365,35.322811],[136.908319,35.323019],[136.908157,35.323603],[136.907764,35.32344],[136.907636,35.323374],[136.907556,35.323295],[136.907468,35.323173],[136.907391,35.323026],[136.905837,35.323023],[136.905877,35.32523],[136.907421,35.325693],[136.907871,35.325809],[136.908629,35.325972],[136.909713,35.326173],[136.910492,35.326272],[136.911667,35.326384],[136.91259,35.326415],[136.913436,35.326417],[136.914417,35.326435],[136.914921,35.326429],[136.916397,35.326441]]]}},{"type":"Feature","id":"23361007001","properties":{"KEY_CODE":"23361007001","PREF":"23","CITY":"361","S_AREA":"007001","PREF_NAME":"愛知県","CITY_NAME":"大口町","S_NAME":"替地一丁目","HCODE":8101,"AREA":160745.624,"KIGO_E":"","JINKO":338,"SETAI":132,"X_CODE":136.898424,"Y_CODE":35.312952},"geometry":{"type":"Polygon","coordinates":[[[136.900736,35.311541],[136.900706,35.31149],[136.900589,35.311536],[136.900399,35.310911],[136.900389,35.310852],[136.900396,35.310753],[136.900408,35.310695],[136.900436,35.310637],[136.900464,35.310578],[136.900481,35.310543],[136.900493,35.310502],[136.900482,35.310448],[136.900307,35.310003],[136.899876,35.310036],[136.899642,35.310056],[136.899279,35.310129],[136.898652,35.310228],[136.898148,35.31029],[136.897272,35.31033],[136.89694,35.310382],[136.897181,35.311173],[136.897366,35.311785],[136.89741,35.311874],[136.897476,35.311946],[136.897594,35.312018],[136.897948,35.31221],[136.896753,35.312301],[136.89583,35.312358],[136.896194,35.312766],[136.896348,35.312881],[136.89682,35.313161],[136.897314,35.313353],[136.897366,35.31509],[136.897394,35.315261],[136.897441,35.317433],[136.898129,35.317446],[136.898494,35.317433],[136.898493,35.317408],[136.898538,35.316488],[136.898579,35.315197],[136.8986,35.315063],[136.89865,35.314944],[136.899115,35.31416],[136.899175,35.314048],[136.899504,35.313518],[136.899578,35.3134],[136.899746,35.313126],[136.899854,35.31295],[136.89996,35.312638],[136.900092,35.312223],[136.9002,35.311904],[136.900284,35.311681],[136.900736,35.311541]]]}},{"type":"Feature","id":"23361007002","properties":{"KEY_CODE":"23361007002","PREF":"23","CITY":"361","S_AREA":"007002","PREF_NAME":"愛知県","CITY_NAME":"大口町","S_NAME":"替地二丁目","HCODE":8101,"AREA":149836.045,"KIGO_E":"","JINKO":371,"SETAI":137,"X_CODE":136.902517,"Y_CODE":35.314106},"geometry":{"type":"Polygon","coordinates":[[[136.903801,35.315118],[136.905391,35.31511],[136.905615,35.315114],[136.907343,35.315144],[136.907507,35.315166],[136.90651,35.313347],[136.904798,35.313994],[136.904528,35.313508],[136.902699,35.314202],[136.902625,35.314065],[136.901903,35.312819],[136.901523,35.312963],[136.9013,35.312508],[136.900736,35.311541],[136.900284,35.311681],[136.9002,35.311904],[136.900092,35.312223],[136.89996,35.312638],[136.899854,35.31295],[136.899746,35.313126],[136.899578,35.3134],[136.899504,35.313518],[136.899175,35.314048],[136.899115,35.31416],[136.89865,35.314944],[136.8986,35.315063],[136.898579,35.315197],[136.902208,35.315136],[136.903801,35.315118]]]}},{"type":"Feature","id":"23361007003","properties":{"KEY_CODE":"23361007003","PREF":"23","CITY":"361","S_AREA":"007003","PREF_NAME":"愛知県","CITY_NAME":"大口町","S_NAME":"替地三丁目","HCODE":8101,"AREA":84806.124,"KIGO_E":"","JINKO":352,"SETAI":144,"X_CODE":136.896369,"Y_CODE":35.310534},"geometry":{"type":"Polygon","coordinates":[[[136.898158,35.309382],[136.898175,35.309328],[136.898273,35.308996],[136.898246,35.308977],[136.897904,35.308971],[136.89633,35.30918],[136.896247,35.309206],[136.896171,35.309241],[136.895859,35.309349],[136.89575,35.309297],[136.895589,35.309358],[136.89552,35.309396],[136.895075,35.309508],[136.894353,35.309635],[136.894459,35.31],[136.894792,35.310811],[136.894954,35.311168],[136.895073,35.311363],[136.895174,35.311477],[136.895546,35.311951],[136.89583,35.312358],[136.896753,35.312301],[136.897948,35.31221],[136.897594,35.312018],[136.897476,35.311946],[136.89741,35.311874],[136.897366,35.311785],[136.897181,35.311173],[136.89694,35.310382],[136.897272,35.31033],[136.898148,35.31029],[136.898652,35.310228],[136.898553,35.310088],[136.898384,35.309834],[136.898,35.309668],[136.897995,35.309628],[136.898007,35.309596],[136.898158,35.309382]]]}},{"type":"Feature","id":"23361009001","properties":{"KEY_CODE":"23361009001","PREF":"23","CITY":"361","S_AREA":"009001","PREF_NAME":"愛知県","CITY_NAME":"大口町","S_NAME":"堀尾跡一丁目","HCODE":8101,"AREA":83713.771,"KIGO_E":"","JINKO":105,"SETAI":41,"X_CODE":136.888471,"Y_CODE":35.318512},"geometry":{"type":"Polygon","coordinates":[[[136.888509,35.317087],[136.88837,35.317077],[136.887667,35.317214],[136.887027,35.317272],[136.886473,35.317387],[136.886696,35.318023],[136.88687,35.318359],[136.886975,35.318666],[136.887076,35.31887],[136.887172,35.319007],[136.887535,35.319801],[136.88765,35.320154],[136.889129,35.319869],[136.889771,35.31972],[136.890108,35.319625],[136.890577,35.319496],[136.890374,35.319333],[136.889909,35.318634],[136.889833,35.318535],[136.889834,35.31841],[136.890012,35.317555],[136.890034,35.317401],[136.888767,35.317119],[136.888509,35.317087]]]}},{"type":"Feature","id":"23361009002","properties":{"KEY_CODE":"23361009002","PREF":"23","CITY":"361","S_AREA":"009002","PREF_NAME":"愛知県","CITY_NAME":"大口町","S_NAME":"堀尾跡二丁目","HCODE":8101,"AREA":41321.323,"KIGO_E":"","JINKO":52,"SETAI":21,"X_CODE":136.891025,"Y_CODE":35.318328},"geometry":{"type":"Polygon","coordinates":[[[136.890577,35.319496],[136.891307,35.319293],[136.89182,35.319153],[136.892194,35.319053],[136.892138,35.318319],[136.892007,35.317374],[136.890397,35.317352],[136.8902,35.31738],[136.890033,35.317373],[136.890034,35.317401],[136.890012,35.317555],[136.889834,35.31841],[136.889833,35.318535],[136.889909,35.318634],[136.890374,35.319333],[136.890577,35.319496]]]}},{"type":"Feature","id":"23361010001","properties":{"KEY_CODE":"23361010001","PREF":"23","CITY":"361","S_AREA":"010001","PREF_NAME":"愛知県","CITY_NAME":"大口町","S_NAME":"御供所一丁目","HCODE":8101,"AREA":192233.892,"KIGO_E":"","JINKO":322,"SETAI":109,"X_CODE":136.885039,"Y_CODE":35.317392},"geometry":{"type":"Polygon","coordinates":[[[136.884836,35.314027],[136.884731,35.313661],[136.882732,35.314012],[136.882736,35.314035],[136.882816,35.314285],[136.883083,35.314821],[136.88317,35.314976],[136.883287,35.315237],[136.883332,35.3154],[136.883355,35.315807],[136.883358,35.315897],[136.883432,35.316211],[136.883512,35.316414],[136.883709,35.316772],[136.883722,35.316797],[136.883781,35.317078],[136.883776,35.317281],[136.88369,35.317476],[136.88349,35.317747],[136.883404,35.317895],[136.88334,35.318086],[136.883328,35.318177],[136.883314,35.318283],[136.883359,35.318541],[136.883435,35.3187],[136.883697,35.318962],[136.883866,35.319099],[136.883885,35.319115],[136.884033,35.319344],[136.884163,35.319594],[136.88426,35.31978],[136.884668,35.320519],[136.884794,35.320728],[136.884874,35.320714],[136.885086,35.320679],[136.885151,35.320668],[136.885272,35.32064],[136.885516,35.320584],[136.885769,35.320531],[136.885909,35.320504],[136.885931,35.3205],[136.88765,35.320154],[136.887535,35.319801],[136.887172,35.319007],[136.887076,35.31887],[136.886975,35.318666],[136.88687,35.318359],[136.886696,35.318023],[136.886473,35.317387],[136.886383,35.317061],[136.88627,35.316538],[136.886153,35.316198],[136.886095,35.316086],[136.885927,35.315325],[136.885881,35.315173],[136.885788,35.315045],[136.885483,35.314777],[136.884923,35.314148],[136.884836,35.314027]]]}},{"type":"Feature","id":"23361010002","properties":{"KEY_CODE":"23361010002","PREF":"23","CITY":"361","S_AREA":"010002","PREF_NAME":"愛知県","CITY_NAME":"大口町","S_NAME":"御供所二丁目","HCODE":8101,"AREA":174933.398,"KIGO_E":"","JINKO":187,"SETAI":66,"X_CODE":136.887879,"Y_CODE":35.315072},"geometry":{"type":"Polygon","coordinates":[[[136.890033,35.317373],[136.889998,35.316201],[136.889986,35.315331],[136.889926,35.312803],[136.887403,35.313223],[136.886579,35.313347],[136.884731,35.313661],[136.884836,35.314027],[136.884923,35.314148],[136.885483,35.314777],[136.885788,35.315045],[136.885881,35.315173],[136.885927,35.315325],[136.886095,35.316086],[136.886153,35.316198],[136.88627,35.316538],[136.886383,35.317061],[136.886473,35.317387],[136.887027,35.317272],[136.887667,35.317214],[136.88837,35.317077],[136.888509,35.317087],[136.888767,35.317119],[136.890034,35.317401],[136.890033,35.317373]]]}},{"type":"Feature","id":"23361010003","properties":{"KEY_CODE":"23361010003","PREF":"23","CITY":"361","S_AREA":"010003","PREF_NAME":"愛知県","CITY_NAME":"大口町","S_NAME":"御供所三丁目","HCODE":8101,"AREA":354911.496,"KIGO_E":"","JINKO":65,"SETAI":24,"X_CODE":136.893662,"Y_CODE":35.315008},"geometry":{"type":"Polygon","coordinates":[[[136.897441,35.317433],[136.897394,35.315261],[136.897366,35.31509],[136.897314,35.313353],[136.89682,35.313161],[136.896348,35.312881],[136.896194,35.312766],[136.89583,35.312358],[136.892734,35.312543],[136.89222,35.312579],[136.891663,35.312628],[136.890722,35.312699],[136.889926,35.312803],[136.889986,35.315331],[136.889998,35.316201],[136.890033,35.317373],[136.8902,35.31738],[136.890397,35.317352],[136.892007,35.317374],[136.892878,35.317376],[136.897441,35.317433]]]}},{"type":"Feature","id":"23361011101","properties":{"KEY_CODE":"23361011101","PREF":"23","CITY":"361","S_AREA":"011101","PREF_NAME":"愛知県","CITY_NAME":"大口町","S_NAME":"豊田一丁目","HCODE":8101,"AREA":207022.619,"KIGO_E":"","JINKO":17,"SETAI":7,"X_CODE":136.884598,"Y_CODE":35.311098},"geometry":{"type":"Polygon","coordinates":[[[136.884731,35.313661],[136.886579,35.313347],[136.886468,35.308649],[136.8865,35.308531],[136.886437,35.307731],[136.884137,35.308662],[136.882612,35.30927],[136.882658,35.310164],[136.882657,35.310359],[136.882618,35.310634],[136.882535,35.310897],[136.882464,35.311445],[136.88244,35.31243],[136.882508,35.31271],[136.882599,35.313122],[136.882652,35.313528],[136.882732,35.314012],[136.884731,35.313661]]]}},{"type":"Feature","id":"23361011102","properties":{"KEY_CODE":"23361011102","PREF":"23","CITY":"361","S_AREA":"011102","PREF_NAME":"愛知県","CITY_NAME":"大口町","S_NAME":"豊田二丁目","HCODE":8101,"AREA":175589.504,"KIGO_E":"","JINKO":118,"SETAI":37,"X_CODE":136.88801,"Y_CODE":35.310292},"geometry":{"type":"Polygon","coordinates":[[[136.889926,35.312803],[136.889894,35.311801],[136.889886,35.311602],[136.889842,35.311369],[136.889776,35.311156],[136.889207,35.309828],[136.889121,35.309431],[136.889078,35.309142],[136.889086,35.308697],[136.889125,35.308369],[136.88914,35.308174],[136.889171,35.307745],[136.889165,35.307646],[136.889147,35.307177],[136.889119,35.306979],[136.889099,35.306894],[136.889048,35.30678],[136.889001,35.306693],[136.888675,35.306825],[136.886437,35.307731],[136.8865,35.308531],[136.886468,35.308649],[136.886579,35.313347],[136.887403,35.313223],[136.889926,35.312803]]]}},{"type":"Feature","id":"23361011103","properties":{"KEY_CODE":"23361011103","PREF":"23","CITY":"361","S_AREA":"011103","PREF_NAME":"愛知県","CITY_NAME":"大口町","S_NAME":"豊田三丁目","HCODE":8101,"AREA":377401.23,"KIGO_E":"","JINKO":186,"SETAI":80,"X_CODE":136.892274,"Y_CODE":35.309228},"geometry":{"type":"Polygon","coordinates":[[[136.896017,35.306774],[136.895097,35.306215],[136.894894,35.305939],[136.894882,35.30594],[136.894606,35.305966],[136.894423,35.305992],[136.892725,35.30583],[136.892658,35.306262],[136.892574,35.306309],[136.892448,35.306345],[136.892068,35.306429],[136.891841,35.306519],[136.891584,35.30666],[136.891468,35.306681],[136.891229,35.306695],[136.890995,35.306755],[136.890945,35.30674],[136.889265,35.306215],[136.889189,35.306151],[136.888392,35.305114],[136.88808,35.304974],[136.887973,35.304925],[136.888483,35.305803],[136.888789,35.306303],[136.888803,35.306326],[136.889001,35.306693],[136.889048,35.30678],[136.889099,35.306894],[136.889119,35.306979],[136.889147,35.307177],[136.889165,35.307646],[136.889171,35.307745],[136.88914,35.308174],[136.889125,35.308369],[136.889086,35.308697],[136.889078,35.309142],[136.889121,35.309431],[136.889207,35.309828],[136.889776,35.311156],[136.889842,35.311369],[136.889886,35.311602],[136.889894,35.311801],[136.889926,35.312803],[136.890722,35.312699],[136.891663,35.312628],[136.89222,35.312579],[136.892734,35.312543],[136.89583,35.312358],[136.895546,35.311951],[136.895174,35.311477],[136.895073,35.311363],[136.894954,35.311168],[136.894792,35.310811],[136.894459,35.31],[136.894353,35.309635],[136.895075,35.309508],[136.89552,35.309396],[136.895589,35.309358],[136.895452,35.309356],[136.895408,35.309324],[136.895364,35.309292],[136.895315,35.309246],[136.895272,35.309192],[136.89525,35.309165],[136.89524,35.309111],[136.895262,35.309057],[136.895296,35.308981],[136.895336,35.308909],[136.895386,35.308878],[136.895534,35.308807],[136.895538,35.308803],[136.895566,35.30878],[136.895612,35.308744],[136.895679,35.308728],[136.895276,35.308157],[136.895274,35.308039],[136.895274,35.307803],[136.895283,35.307704],[136.895315,35.307535],[136.895321,35.307523],[136.895536,35.307067],[136.895666,35.306834],[136.895784,35.306827],[136.89599,35.306791],[136.896017,35.306774]]]}},{"type":"Feature","id":"23361011201","properties":{"KEY_CODE":"23361011201","PREF":"23","CITY":"361","S_AREA":"011201","PREF_NAME":"愛知県","CITY_NAME":"大口町","S_NAME":"奈良子一丁目","HCODE":8101,"AREA":232718.486,"KIGO_E":"","JINKO":321,"SETAI":139,"X_CODE":136.890872,"Y_CODE":35.322129},"geometry":{"type":"Polygon","coordinates":[[[136.893825,35.324715],[136.893036,35.323118],[136.894088,35.32278],[136.893561,35.32164],[136.893481,35.321513],[136.89292,35.320293],[136.892929,35.320089],[136.892811,35.320068],[136.892569,35.320045],[136.892397,35.320037],[136.892016,35.320047],[136.891692,35.32005],[136.891556,35.32001],[136.891418,35.319971],[136.891277,35.319907],[136.891069,35.319794],[136.890672,35.319569],[136.890577,35.319496],[136.890108,35.319625],[136.889771,35.31972],[136.889129,35.319869],[136.88765,35.320154],[136.885931,35.3205],[136.885909,35.320504],[136.885769,35.320531],[136.885516,35.320584],[136.885272,35.32064],[136.885151,35.320668],[136.885086,35.320679],[136.884874,35.320714],[136.884794,35.320728],[136.885011,35.321127],[136.885011,35.321128],[136.885106,35.32115],[136.885249,35.321195],[136.885273,35.321202],[136.885368,35.321233],[136.885394,35.32124],[136.885396,35.321241],[136.885396,35.321241],[136.885545,35.321285],[136.885624,35.321257],[136.885647,35.321249],[136.88601,35.321222],[136.886013,35.321221],[136.886027,35.32122],[136.886687,35.321211],[136.88901,35.321193],[136.889298,35.321487],[136.889476,35.321724],[136.889531,35.321848],[136.889577,35.321993],[136.889953,35.322743],[136.890268,35.323337],[136.890887,35.323147],[136.891163,35.323725],[136.891562,35.324584],[136.890253,35.325],[136.890809,35.326135],[136.892022,35.325565],[136.893825,35.324715]]]}},{"type":"Feature","id":"23361011202","properties":{"KEY_CODE":"23361011202","PREF":"23","CITY":"361","S_AREA":"011202","PREF_NAME":"愛知県","CITY_NAME":"大口町","S_NAME":"奈良子二丁目","HCODE":8101,"AREA":141298.156,"KIGO_E":"","JINKO":235,"SETAI":80,"X_CODE":136.895118,"Y_CODE":35.320947},"geometry":{"type":"Polygon","coordinates":[[[136.898184,35.322093],[136.897771,35.321019],[136.897951,35.320666],[136.898019,35.320528],[136.897524,35.320387],[136.896295,35.320089],[136.894981,35.319809],[136.894267,35.31953],[136.893552,35.319254],[136.893185,35.319112],[136.892856,35.319049],[136.892521,35.319037],[136.892194,35.319053],[136.89182,35.319153],[136.891307,35.319293],[136.890577,35.319496],[136.890672,35.319569],[136.891069,35.319794],[136.891277,35.319907],[136.891418,35.319971],[136.891556,35.32001],[136.891692,35.32005],[136.892016,35.320047],[136.892397,35.320037],[136.892569,35.320045],[136.892811,35.320068],[136.892929,35.320089],[136.89292,35.320293],[136.893481,35.321513],[136.893561,35.32164],[136.894088,35.32278],[136.894626,35.322609],[136.89467,35.322498],[136.895079,35.321637],[136.895378,35.321485],[136.895531,35.321657],[136.8958,35.32191],[136.89607,35.322099],[136.896391,35.322328],[136.896659,35.3225],[136.896974,35.322737],[136.897169,35.322948],[136.897464,35.323345],[136.897998,35.323053],[136.898442,35.32281],[136.898184,35.322093]]]}},{"type":"Feature","id":"23361011203","properties":{"KEY_CODE":"23361011203","PREF":"23","CITY":"361","S_AREA":"011203","PREF_NAME":"愛知県","CITY_NAME":"大口町","S_NAME":"奈良子三丁目","HCODE":8101,"AREA":122916.718,"KIGO_E":"","JINKO":178,"SETAI":59,"X_CODE":136.895085,"Y_CODE":35.318579},"geometry":{"type":"Polygon","coordinates":[[[136.897524,35.320387],[136.897441,35.317433],[136.892878,35.317376],[136.892007,35.317374],[136.892138,35.318319],[136.892194,35.319053],[136.892521,35.319037],[136.892856,35.319049],[136.893185,35.319112],[136.893552,35.319254],[136.894267,35.31953],[136.894981,35.319809],[136.896295,35.320089],[136.897524,35.320387]]]}},{"type":"Feature","id":"23361012001","properties":{"KEY_CODE":"23361012001","PREF":"23","CITY":"361","S_AREA":"012001","PREF_NAME":"愛知県","CITY_NAME":"大口町","S_NAME":"高橋一丁目","HCODE":8101,"AREA":138475.946,"KIGO_E":"","JINKO":147,"SETAI":56,"X_CODE":136.895572,"Y_CODE":35.324035},"geometry":{"type":"Polygon","coordinates":[[[136.895531,35.321657],[136.895378,35.321485],[136.895079,35.321637],[136.89467,35.322498],[136.894626,35.322609],[136.894088,35.32278],[136.893036,35.323118],[136.893825,35.324715],[136.89384,35.324735],[136.894601,35.326362],[136.895244,35.326043],[136.895905,35.32588],[136.896357,35.32575],[136.897621,35.325339],[136.897604,35.324945],[136.898029,35.324914],[136.897939,35.32474],[136.897939,35.32474],[136.897858,35.324458],[136.897773,35.32419],[136.897721,35.323978],[136.897585,35.323623],[136.897501,35.32341],[136.897464,35.323345],[136.897169,35.322948],[136.896974,35.322737],[136.896659,35.3225],[136.896391,35.322328],[136.89607,35.322099],[136.8958,35.32191],[136.895531,35.321657]]]}},{"type":"Feature","id":"23361012002","properties":{"KEY_CODE":"23361012002","PREF":"23","CITY":"361","S_AREA":"012002","PREF_NAME":"愛知県","CITY_NAME":"大口町","S_NAME":"高橋二丁目","HCODE":8101,"AREA":103636.725,"KIGO_E":"","JINKO":236,"SETAI":66,"X_CODE":136.904328,"Y_CODE":35.325934},"geometry":{"type":"Polygon","coordinates":[[[136.907587,35.329114],[136.90785,35.328175],[136.906857,35.328183],[136.906372,35.327959],[136.905921,35.327953],[136.905908,35.326848],[136.905909,35.326423],[136.905901,35.326309],[136.905877,35.32523],[136.904481,35.324788],[136.903942,35.324614],[136.903486,35.324458],[136.903064,35.324294],[136.902467,35.323973],[136.901897,35.323651],[136.901486,35.323376],[136.901318,35.323234],[136.901148,35.323106],[136.901055,35.323025],[136.901042,35.323032],[136.900601,35.323285],[136.901527,35.324269],[136.902403,35.325181],[136.902545,35.325337],[136.903291,35.326093],[136.903993,35.326729],[136.90454,35.327239],[136.904782,35.327381],[136.905566,35.32796],[136.906053,35.328287],[136.906981,35.328996],[136.907133,35.329119],[136.907587,35.329114]]]}},{"type":"Feature","id":"23361013101","properties":{"KEY_CODE":"23361013101","PREF":"23","CITY":"361","S_AREA":"013101","PREF_NAME":"愛知県","CITY_NAME":"大口町","S_NAME":"大屋敷一丁目","HCODE":8101,"AREA":252798.391,"KIGO_E":"","JINKO":237,"SETAI":68,"X_CODE":136.894585,"Y_CODE":35.32753},"geometry":{"type":"Polygon","coordinates":[[[136.897692,35.327179],[136.897621,35.325339],[136.896357,35.32575],[136.895905,35.32588],[136.895244,35.326043],[136.894601,35.326362],[136.89384,35.324735],[136.893825,35.324715],[136.892022,35.325565],[136.890809,35.326135],[136.89101,35.326566],[136.89133,35.327208],[136.891697,35.327968],[136.891801,35.328214],[136.892078,35.328738],[136.892185,35.328986],[136.892772,35.329755],[136.895907,35.329683],[136.897781,35.329639],[136.897692,35.327179]]]}},{"type":"Feature","id":"23361013102","properties":{"KEY_CODE":"23361013102","PREF":"23","CITY":"361","S_AREA":"013102","PREF_NAME":"愛知県","CITY_NAME":"大口町","S_NAME":"大屋敷二丁目","HCODE":8101,"AREA":169691.06,"KIGO_E":"","JINKO":129,"SETAI":36,"X_CODE":136.899974,"Y_CODE":35.327946},"geometry":{"type":"Polygon","coordinates":[[[136.900577,35.329624],[136.901733,35.329588],[136.90213,35.329532],[136.90244,35.32948],[136.902882,35.329371],[136.903107,35.329325],[136.903724,35.329197],[136.904092,35.329184],[136.904473,35.32918],[136.904889,35.329136],[136.90508,35.329129],[136.904673,35.328947],[136.904561,35.328885],[136.904281,35.328759],[136.904123,35.328715],[136.903887,35.328675],[136.90352,35.328633],[136.903314,35.328596],[136.903139,35.328567],[136.90296,35.328537],[136.902809,35.328474],[136.902637,35.328368],[136.902323,35.328164],[136.902121,35.327987],[136.901902,35.32778],[136.901404,35.327266],[136.90104,35.326937],[136.900823,35.326777],[136.90039,35.326498],[136.900168,35.326353],[136.899841,35.326163],[136.899424,35.325938],[136.899111,35.325752],[136.898692,35.325531],[136.898487,35.325405],[136.898223,35.325171],[136.898192,35.325135],[136.898093,35.325019],[136.898029,35.324914],[136.897604,35.324945],[136.897621,35.325339],[136.897692,35.327179],[136.897781,35.329639],[136.897778,35.329692],[136.900577,35.329624]]]}},{"type":"Feature","id":"23361013103","properties":{"KEY_CODE":"23361013103","PREF":"23","CITY":"361","S_AREA":"013103","PREF_NAME":"愛知県","CITY_NAME":"大口町","S_NAME":"大屋敷三丁目","HCODE":8101,"AREA":200865.023,"KIGO_E":"","JINKO":234,"SETAI":95,"X_CODE":136.901713,"Y_CODE":35.326123},"geometry":{"type":"Polygon","coordinates":[[[136.901527,35.324269],[136.900601,35.323285],[136.898817,35.323898],[136.898463,35.322895],[136.898442,35.32281],[136.897998,35.323053],[136.897464,35.323345],[136.897501,35.32341],[136.897585,35.323623],[136.897721,35.323978],[136.897773,35.32419],[136.897858,35.324458],[136.897939,35.32474],[136.897939,35.32474],[136.898029,35.324914],[136.898093,35.325019],[136.898192,35.325135],[136.898223,35.325171],[136.898487,35.325405],[136.898692,35.325531],[136.899111,35.325752],[136.899424,35.325938],[136.899841,35.326163],[136.900168,35.326353],[136.90039,35.326498],[136.900823,35.326777],[136.90104,35.326937],[136.901404,35.327266],[136.901902,35.32778],[136.902121,35.327987],[136.902323,35.328164],[136.902637,35.328368],[136.902809,35.328474],[136.90296,35.328537],[136.903139,35.328567],[136.903314,35.328596],[136.90352,35.328633],[136.903887,35.328675],[136.904123,35.328715],[136.904281,35.328759],[136.904561,35.328885],[136.904673,35.328947],[136.90508,35.329129],[136.90541,35.329139],[136.907133,35.329119],[136.906981,35.328996],[136.906053,35.328287],[136.905566,35.32796],[136.904782,35.327381],[136.90454,35.327239],[136.903993,35.326729],[136.903291,35.326093],[136.902545,35.325337],[136.902403,35.325181],[136.901527,35.324269]]]}},{"type":"Feature","id":"23361013201","properties":{"KEY_CODE":"23361013201","PREF":"23","CITY":"361","S_AREA":"013201","PREF_NAME":"愛知県","CITY_NAME":"大口町","S_NAME":"大御堂一丁目","HCODE":8101,"AREA":212202.12,"KIGO_E":"","JINKO":229,"SETAI":83,"X_CODE":136.895071,"Y_CODE":35.331391},"geometry":{"type":"Polygon","coordinates":[[[136.897885,35.333562],[136.89783,35.331531],[136.897778,35.329692],[136.897781,35.329639],[136.895907,35.329683],[136.892772,35.329755],[136.892185,35.328986],[136.890783,35.32943],[136.891561,35.330398],[136.892136,35.331158],[136.892579,35.331768],[136.892648,35.331845],[136.892679,35.331893],[136.893033,35.332454],[136.894253,35.332157],[136.894893,35.333473],[136.894758,35.33352],[136.895,35.333818],[136.89511,35.333912],[136.895194,35.333988],[136.89552,35.334247],[136.895613,35.334315],[136.895768,35.334355],[136.895923,35.334385],[136.896414,35.334363],[136.896224,35.333755],[136.896716,35.333589],[136.897151,35.333579],[136.897885,35.333562]]]}},{"type":"Feature","id":"23361013202","properties":{"KEY_CODE":"23361013202","PREF":"23","CITY":"361","S_AREA":"013202","PREF_NAME":"愛知県","CITY_NAME":"大口町","S_NAME":"大御堂二丁目","HCODE":8101,"AREA":110319.356,"KIGO_E":"","JINKO":0,"SETAI":0,"X_CODE":136.899244,"Y_CODE":35.331601},"geometry":{"type":"Polygon","coordinates":[[[136.900645,35.331402],[136.900577,35.329624],[136.897778,35.329692],[136.89783,35.331531],[136.897885,35.333562],[136.900638,35.3335],[136.900749,35.333494],[136.900708,35.33285],[136.900647,35.331458],[136.900645,35.331402]]]}},{"type":"Feature","id":"23361013301","properties":{"KEY_CODE":"23361013301","PREF":"23","CITY":"361","S_AREA":"013301","PREF_NAME":"愛知県","CITY_NAME":"大口町","S_NAME":"丸一丁目","HCODE":8101,"AREA":134856.45,"KIGO_E":"","JINKO":337,"SETAI":111,"X_CODE":136.9026,"Y_CODE":35.331533},"geometry":{"type":"Polygon","coordinates":[[[136.901831,35.333447],[136.902327,35.333445],[136.902657,35.333449],[136.902628,35.332751],[136.902607,35.332519],[136.904108,35.332592],[136.904601,35.332675],[136.905105,35.332731],[136.905268,35.33277],[136.905468,35.33285],[136.906183,35.333251],[136.906458,35.332697],[136.904105,35.331336],[136.903926,35.330961],[136.903107,35.329325],[136.902882,35.329371],[136.90244,35.32948],[136.90213,35.329532],[136.901733,35.329588],[136.900577,35.329624],[136.900645,35.331402],[136.900647,35.331458],[136.900708,35.33285],[136.900749,35.333494],[136.900821,35.333478],[136.901831,35.333447]]]}},{"type":"Feature","id":"23361013302","properties":{"KEY_CODE":"23361013302","PREF":"23","CITY":"361","S_AREA":"013302","PREF_NAME":"愛知県","CITY_NAME":"大口町","S_NAME":"丸二丁目","HCODE":8101,"AREA":101566.688,"KIGO_E":"","JINKO":75,"SETAI":27,"X_CODE":136.905529,"Y_CODE":35.33049},"geometry":{"type":"Polygon","coordinates":[[[136.907281,35.330213],[136.907587,35.329114],[136.907133,35.329119],[136.90541,35.329139],[136.90508,35.329129],[136.904889,35.329136],[136.904473,35.32918],[136.904092,35.329184],[136.903724,35.329197],[136.903107,35.329325],[136.903926,35.330961],[136.904105,35.331336],[136.906458,35.332697],[136.906472,35.33267],[136.90664,35.332355],[136.906812,35.331939],[136.906846,35.331831],[136.907256,35.330303],[136.907281,35.330213]]]}},{"type":"Feature","id":"23361014001","properties":{"KEY_CODE":"23361014001","PREF":"23","CITY":"361","S_AREA":"014001","PREF_NAME":"愛知県","CITY_NAME":"大口町","S_NAME":"外坪一丁目","HCODE":8101,"AREA":245782.958,"KIGO_E":"","JINKO":222,"SETAI":69,"X_CODE":136.920768,"Y_CODE":35.325333},"geometry":{"type":"Polygon","coordinates":[[[136.922229,35.327309],[136.922533,35.327228],[136.922626,35.327217],[136.923042,35.327213],[136.924721,35.327311],[136.924734,35.326963],[136.924738,35.325254],[136.924648,35.32524],[136.923714,35.324995],[136.923546,35.324919],[136.923489,35.32489],[136.923432,35.324835],[136.923314,35.324677],[136.922703,35.323672],[136.922617,35.323596],[136.922172,35.323327],[136.922019,35.323224],[136.921889,35.323093],[136.92148,35.322614],[136.921337,35.322428],[136.921204,35.322227],[136.921169,35.322152],[136.919611,35.323106],[136.91958,35.323208],[136.919487,35.323656],[136.919298,35.325283],[136.917475,35.324953],[136.915974,35.324698],[136.915826,35.324658],[136.915642,35.324587],[136.915499,35.325559],[136.915475,35.325766],[136.91547,35.325808],[136.916397,35.326441],[136.916708,35.326435],[136.917138,35.32644],[136.91753,35.326466],[136.920001,35.326476],[136.920066,35.326933],[136.92009,35.326961],[136.920386,35.327065],[136.920621,35.327082],[136.920704,35.327211],[136.920748,35.327225],[136.92099,35.327235],[136.921268,35.32723],[136.921541,35.327253],[136.922133,35.327313],[136.922229,35.327309]]]}},{"type":"Feature","id":"23361014002","properties":{"KEY_CODE":"23361014002","PREF":"23","CITY":"361","S_AREA":"014002","PREF_NAME":"愛知県","CITY_NAME":"大口町","S_NAME":"外坪二丁目","HCODE":8101,"AREA":116653.616,"KIGO_E":"","JINKO":0,"SETAI":0,"X_CODE":136.926622,"Y_CODE":35.327484},"geometry":{"type":"Polygon","coordinates":[[[136.929154,35.328845],[136.929558,35.327537],[136.92949,35.327517],[136.929395,35.327492],[136.929191,35.327474],[136.929,35.327454],[136.928786,35.327432],[136.928059,35.327361],[136.928044,35.327336],[136.927901,35.326986],[136.927817,35.326839],[136.927633,35.326589],[136.927462,35.326424],[136.927284,35.326322],[136.926954,35.326153],[136.926432,35.325892],[136.926062,35.325734],[136.925234,35.325379],[136.924829,35.325203],[136.924832,35.325248],[136.924738,35.325254],[136.924734,35.326963],[136.924721,35.327311],[136.924728,35.328867],[136.925672,35.32888],[136.929154,35.328845]]]}},{"type":"Feature","id":"23361014003","properties":{"KEY_CODE":"23361014003","PREF":"23","CITY":"361","S_AREA":"014003","PREF_NAME":"愛知県","CITY_NAME":"大口町","S_NAME":"外坪三丁目","HCODE":8101,"AREA":101293.361,"KIGO_E":"","JINKO":244,"SETAI":83,"X_CODE":136.922235,"Y_CODE":35.322046},"geometry":{"type":"Polygon","coordinates":[[[136.924838,35.324585],[136.924831,35.324068],[136.924614,35.324122],[136.924527,35.324185],[136.924299,35.324274],[136.924131,35.324094],[136.924072,35.323955],[136.923938,35.323633],[136.923793,35.32339],[136.923573,35.323004],[136.923261,35.322459],[136.923086,35.322094],[136.922851,35.321641],[136.922743,35.32145],[136.922606,35.321202],[136.922506,35.321018],[136.922253,35.320545],[136.922155,35.320368],[136.921934,35.31998],[136.921818,35.319778],[136.921734,35.319735],[136.921674,35.319637],[136.921562,35.319393],[136.921454,35.319363],[136.921292,35.319298],[136.921227,35.319258],[136.921166,35.319237],[136.921087,35.319237],[136.921084,35.319237],[136.919876,35.319325],[136.9198,35.319331],[136.920268,35.320412],[136.920357,35.320531],[136.921134,35.32207],[136.921169,35.322152],[136.921204,35.322227],[136.921337,35.322428],[136.92148,35.322614],[136.921889,35.323093],[136.922019,35.323224],[136.922172,35.323327],[136.922617,35.323596],[136.922703,35.323672],[136.923314,35.324677],[136.923432,35.324835],[136.923489,35.32489],[136.923546,35.324919],[136.923714,35.324995],[136.924648,35.32524],[136.924738,35.325254],[136.924832,35.325248],[136.924829,35.325203],[136.924838,35.324585]]]}},{"type":"Feature","id":"23361014004","properties":{"KEY_CODE":"23361014004","PREF":"23","CITY":"361","S_AREA":"014004","PREF_NAME":"愛知県","CITY_NAME":"大口町","S_NAME":"外坪四丁目","HCODE":8101,"AREA":99494.654,"KIGO_E":"","JINKO":61,"SETAI":23,"X_CODE":136.919057,"Y_CODE":35.320811},"geometry":{"type":"Polygon","coordinates":[[[136.921169,35.322152],[136.921134,35.32207],[136.920357,35.320531],[136.920268,35.320412],[136.9198,35.319331],[136.919693,35.319074],[136.919067,35.319114],[136.917957,35.319198],[136.917978,35.319109],[136.916629,35.319123],[136.917018,35.319865],[136.917503,35.32071],[136.917773,35.321099],[136.918677,35.322115],[136.918894,35.322328],[136.919611,35.323106],[136.921169,35.322152]]]}},{"type":"Feature","id":"23361014005","properties":{"KEY_CODE":"23361014005","PREF":"23","CITY":"361","S_AREA":"014005","PREF_NAME":"愛知県","CITY_NAME":"大口町","S_NAME":"外坪五丁目","HCODE":8101,"AREA":237263.476,"KIGO_E":"","JINKO":214,"SETAI":65,"X_CODE":136.916512,"Y_CODE":35.322311},"geometry":{"type":"Polygon","coordinates":[[[136.919298,35.325283],[136.919487,35.323656],[136.91958,35.323208],[136.919611,35.323106],[136.918894,35.322328],[136.918677,35.322115],[136.917773,35.321099],[136.917503,35.32071],[136.917018,35.319865],[136.916629,35.319123],[136.916622,35.319123],[136.915448,35.319199],[136.915165,35.319236],[136.914869,35.319308],[136.914179,35.319633],[136.913608,35.319881],[136.913947,35.320909],[136.913972,35.321008],[136.913878,35.321026],[136.913912,35.32112],[136.914587,35.322977],[136.914014,35.323108],[136.914356,35.324085],[136.915033,35.323936],[136.915121,35.324058],[136.915283,35.324251],[136.915512,35.324425],[136.915659,35.324498],[136.915645,35.324567],[136.915642,35.324587],[136.915826,35.324658],[136.915974,35.324698],[136.917475,35.324953],[136.919298,35.325283]]]}},{"type":"Feature","id":"23361019101","properties":{"KEY_CODE":"23361019101","PREF":"23","CITY":"361","S_AREA":"019101","PREF_NAME":"愛知県","CITY_NAME":"大口町","S_NAME":"河北一丁目","HCODE":8101,"AREA":322380.714,"KIGO_E":"","JINKO":10,"SETAI":3,"X_CODE":136.938844,"Y_CODE":35.354073},"geometry":{"type":"Polygon","coordinates":[[[136.931506,35.349469],[136.931098,35.349451],[136.930588,35.349423],[136.929754,35.349379],[136.929753,35.3494],[136.929681,35.350717],[136.929797,35.350736],[136.929864,35.349776],[136.930112,35.349787],[136.933036,35.349913],[136.934169,35.34998],[136.934583,35.350004],[136.935462,35.350052],[136.935433,35.350573],[136.936663,35.350631],[136.936695,35.35117],[136.93667,35.351227],[136.936665,35.351286],[136.936726,35.35161],[136.936736,35.351723],[136.936703,35.352492],[136.936721,35.353115],[136.936709,35.353518],[136.936793,35.353536],[136.936942,35.35359],[136.937501,35.353933],[136.937656,35.354043],[136.937885,35.354207],[136.938092,35.354362],[136.938252,35.354496],[136.93856,35.354791],[136.938715,35.354939],[136.938656,35.355027],[136.938646,35.355106],[136.938777,35.355228],[136.938855,35.355327],[136.938911,35.355439],[136.938945,35.355542],[136.938961,35.355678],[136.938962,35.355785],[136.938882,35.356597],[136.938792,35.357653],[136.938791,35.357698],[136.938787,35.358079],[136.938848,35.358523],[136.938926,35.358697],[136.938989,35.358847],[136.939611,35.359316],[136.940509,35.359334],[136.941558,35.359356],[136.941559,35.359356],[136.941555,35.359273],[136.941565,35.359105],[136.941634,35.358343],[136.941629,35.357989],[136.941611,35.357621],[136.941614,35.357331],[136.94163,35.357092],[136.941677,35.356972],[136.941687,35.356823],[136.941704,35.356565],[136.941711,35.356298],[136.941757,35.35611],[136.941766,35.355898],[136.941734,35.355728],[136.941667,35.35548],[136.941656,35.355392],[136.941671,35.355306],[136.941687,35.355191],[136.941675,35.35504],[136.941633,35.354913],[136.941562,35.354753],[136.941502,35.354526],[136.941439,35.354233],[136.941348,35.353828],[136.941273,35.353413],[136.94123,35.352944],[136.941227,35.352726],[136.941093,35.352656],[136.940792,35.352469],[136.940764,35.352323],[136.940709,35.352153],[136.940674,35.352063],[136.940611,35.351934],[136.940559,35.351851],[136.940562,35.351801],[136.940597,35.351703],[136.940636,35.351619],[136.940402,35.35152],[136.940245,35.351482],[136.939912,35.351439],[136.939624,35.351366],[136.939171,35.351318],[136.939171,35.351318],[136.939057,35.351305],[136.939056,35.351305],[136.938919,35.351313],[136.938918,35.351313],[136.938781,35.351327],[136.937982,35.35107],[136.937978,35.35078],[136.938233,35.350638],[136.938354,35.350583],[136.938502,35.350517],[136.938287,35.350266],[136.938178,35.350014],[136.938154,35.349915],[136.93782,35.349783],[136.937727,35.349774],[136.934611,35.349638],[136.932752,35.349544],[136.931506,35.349469]]]}},{"type":"Feature","id":"23361019102","properties":{"KEY_CODE":"23361019102","PREF":"23","CITY":"361","S_AREA":"019102","PREF_NAME":"愛知県","CITY_NAME":"大口町","S_NAME":"河北二丁目","HCODE":8101,"AREA":304674.634,"KIGO_E":"","JINKO":1273,"SETAI":429,"X_CODE":136.933417,"Y_CODE":35.347628},"geometry":{"type":"Polygon","coordinates":[[[136.937276,35.347382],[136.936637,35.346954],[136.936399,35.347019],[136.936247,35.346915],[136.935358,35.346411],[136.935103,35.346264],[136.934493,35.345856],[136.933407,35.345139],[136.933112,35.345025],[136.932891,35.34497],[136.93265,35.344928],[136.932343,35.344905],[136.932031,35.344898],[136.931888,35.344901],[136.931707,35.344921],[136.931183,35.345013],[136.930673,35.345146],[136.930426,35.345207],[136.93011,35.345274],[136.929853,35.345325],[136.929864,35.345399],[136.929832,35.347146],[136.929774,35.348913],[136.929759,35.349275],[136.929754,35.349379],[136.930588,35.349423],[136.931098,35.349451],[136.931506,35.349469],[136.932752,35.349544],[136.934611,35.349638],[136.937727,35.349774],[136.93782,35.349783],[136.938154,35.349915],[136.938097,35.349676],[136.938061,35.349449],[136.937943,35.3487],[136.937921,35.348588],[136.937914,35.348562],[136.937909,35.348538],[136.937814,35.348143],[136.937588,35.34771],[136.937276,35.347382]]]}},{"type":"Feature","id":"23361019103","properties":{"KEY_CODE":"23361019103","PREF":"23","CITY":"361","S_AREA":"019103","PREF_NAME":"愛知県","CITY_NAME":"大口町","S_NAME":"河北三丁目","HCODE":8101,"AREA":247992.699,"KIGO_E":"","JINKO":3,"SETAI":1,"X_CODE":136.933206,"Y_CODE":35.343419},"geometry":{"type":"Polygon","coordinates":[[[136.93541,35.345688],[136.935412,35.345407],[136.935657,35.345409],[136.935781,35.345371],[136.93586,35.345259],[136.935971,35.345103],[136.935991,35.345039],[136.936004,35.344865],[136.935961,35.344695],[136.935896,35.344488],[136.935957,35.344434],[136.935988,35.344332],[136.935984,35.344196],[136.936022,35.344125],[136.936229,35.343907],[136.936397,35.343903],[136.936608,35.343901],[136.936591,35.343364],[136.93655,35.342356],[136.936467,35.34232],[136.936458,35.342316],[136.936363,35.342278],[136.936037,35.342125],[136.935939,35.342057],[136.935828,35.34193],[136.935641,35.341672],[136.935643,35.341493],[136.935584,35.341494],[136.93554,35.341491],[136.935486,35.341484],[136.935448,35.341476],[136.930015,35.341347],[136.930003,35.341536],[136.929987,35.342198],[136.929933,35.343987],[136.929886,35.345007],[136.929865,35.345096],[136.929853,35.345325],[136.93011,35.345274],[136.930426,35.345207],[136.930673,35.345146],[136.931183,35.345013],[136.931707,35.344921],[136.931888,35.344901],[136.932031,35.344898],[136.932343,35.344905],[136.93265,35.344928],[136.932891,35.34497],[136.933112,35.345025],[136.933407,35.345139],[136.934493,35.345856],[136.935103,35.346264],[136.935358,35.346411],[136.936247,35.346915],[136.936399,35.347019],[136.936637,35.346954],[136.936613,35.346938],[136.935964,35.34659],[136.935392,35.346285],[136.935401,35.345869],[136.93541,35.345688]]]}},{"type":"Feature","id":"233610192","properties":{"KEY_CODE":"233610192","PREF":"23","CITY":"361","S_AREA":"019201","PREF_NAME":"愛知県","CITY_NAME":"大口町","S_NAME":"大字河北","HCODE":8101,"AREA":16385.957,"KIGO_E":"","JINKO":12,"SETAI":4,"X_CODE":136.939851,"Y_CODE":35.360152},"geometry":{"type":"Polygon","coordinates":[[[136.94037,35.360009],[136.940493,35.359411],[136.940509,35.359334],[136.939611,35.359316],[136.939143,35.35964],[136.939461,35.360194],[136.939501,35.36029],[136.939573,35.360465],[136.939599,35.36081],[136.939415,35.361444],[136.939593,35.361503],[136.939655,35.361471],[136.939705,35.361424],[136.939738,35.361372],[136.940112,35.360798],[136.940193,35.360696],[136.94037,35.360009]]]}},{"type":"Feature","id":"23361020001","properties":{"KEY_CODE":"23361020001","PREF":"23","CITY":"361","S_AREA":"020001","PREF_NAME":"愛知県","CITY_NAME":"大口町","S_NAME":"仲沖一丁目","HCODE":8101,"AREA":176986.095,"KIGO_E":"","JINKO":197,"SETAI":64,"X_CODE":136.931997,"Y_CODE":35.339922},"geometry":{"type":"Polygon","coordinates":[[[136.935448,35.341476],[136.93541,35.341453],[136.93536,35.341408],[136.935332,35.341344],[136.935308,35.341256],[136.935327,35.340999],[136.935312,35.340798],[136.935245,35.34049],[136.935206,35.340311],[136.935169,35.340137],[136.935058,35.339602],[136.935029,35.339434],[136.934983,35.339208],[136.934916,35.339103],[136.93488,35.339049],[136.93469,35.338773],[136.934602,35.338643],[136.9346,35.33864],[136.928611,35.338409],[136.928498,35.340326],[136.928801,35.340421],[136.929314,35.340563],[136.929418,35.340578],[136.929524,35.340572],[136.930019,35.340525],[136.930015,35.341347],[136.935448,35.341476]]]}},{"type":"Feature","id":"23361020002","properties":{"KEY_CODE":"23361020002","PREF":"23","CITY":"361","S_AREA":"020002","PREF_NAME":"愛知県","CITY_NAME":"大口町","S_NAME":"仲沖二丁目","HCODE":8101,"AREA":105013.127,"KIGO_E":"","JINKO":0,"SETAI":0,"X_CODE":136.931344,"Y_CODE":35.337576},"geometry":{"type":"Polygon","coordinates":[[[136.9346,35.33864],[136.934558,35.338567],[136.934489,35.338471],[136.934323,35.338214],[136.934011,35.337744],[136.93396,35.337674],[136.933849,35.337289],[136.933777,35.337202],[136.933694,35.337105],[136.933651,35.336985],[136.93359,35.33667],[136.933437,35.336543],[136.933453,35.336667],[136.931991,35.336601],[136.930695,35.336536],[136.928725,35.336454],[136.928697,35.336933],[136.928611,35.338409],[136.9346,35.33864]]]}},{"type":"Feature","id":"23361022001","properties":{"KEY_CODE":"23361022001","PREF":"23","CITY":"361","S_AREA":"022001","PREF_NAME":"愛知県","CITY_NAME":"大口町","S_NAME":"二ツ屋一丁目","HCODE":8101,"AREA":146100.816,"KIGO_E":"","JINKO":110,"SETAI":42,"X_CODE":136.931236,"Y_CODE":35.335047},"geometry":{"type":"Polygon","coordinates":[[[136.933437,35.336543],[136.933437,35.336543],[136.933425,35.336452],[136.933433,35.336238],[136.933456,35.336079],[136.933474,35.336016],[136.933481,35.33594],[136.933508,35.335895],[136.933548,35.335831],[136.933564,35.335785],[136.933592,35.33569],[136.93366,35.335367],[136.933666,35.335321],[136.933689,35.335139],[136.933689,35.334975],[136.933689,35.334961],[136.933684,35.334807],[136.933668,35.334406],[136.933636,35.334056],[136.933621,35.333646],[136.933604,35.333541],[136.933557,35.333481],[136.932812,35.333523],[136.93201,35.333543],[136.93183,35.333564],[136.931269,35.333564],[136.930796,35.333522],[136.930558,35.333549],[136.930329,35.333563],[136.930117,35.333557],[136.92979,35.333543],[136.929398,35.333562],[136.928965,35.333555],[136.92889,35.333539],[136.928816,35.334697],[136.928725,35.336454],[136.930695,35.336536],[136.931991,35.336601],[136.933453,35.336667],[136.933437,35.336543]]]}},{"type":"Feature","id":"23361022002","properties":{"KEY_CODE":"23361022002","PREF":"23","CITY":"361","S_AREA":"022002","PREF_NAME":"愛知県","CITY_NAME":"大口町","S_NAME":"二ツ屋二丁目","HCODE":8101,"AREA":214351.064,"KIGO_E":"","JINKO":87,"SETAI":29,"X_CODE":136.930552,"Y_CODE":35.331266},"geometry":{"type":"Polygon","coordinates":[[[136.92889,35.333539],[136.928965,35.333555],[136.929398,35.333562],[136.92979,35.333543],[136.930117,35.333557],[136.930329,35.333563],[136.930558,35.333549],[136.930796,35.333522],[136.931269,35.333564],[136.93183,35.333564],[136.93201,35.333543],[136.932812,35.333523],[136.933557,35.333481],[136.933494,35.333386],[136.933421,35.332788],[136.933323,35.332286],[136.933269,35.332057],[136.933248,35.331876],[136.933242,35.331804],[136.933248,35.331778],[136.93328,35.331749],[136.933064,35.331674],[136.932111,35.33134],[136.932424,35.330557],[136.932489,35.33034],[136.932567,35.330068],[136.932453,35.330108],[136.932262,35.330176],[136.931977,35.329669],[136.93177,35.329251],[136.931508,35.328937],[136.931366,35.328751],[136.931219,35.328593],[136.930896,35.328341],[136.930696,35.328192],[136.930334,35.327907],[136.929965,35.327707],[136.929884,35.327659],[136.929758,35.327611],[136.929635,35.327567],[136.929574,35.327542],[136.929558,35.327537],[136.929154,35.328845],[136.929129,35.328922],[136.927808,35.333488],[136.927972,35.333476],[136.928384,35.333511],[136.928825,35.333527],[136.92889,35.333539]]]}},{"type":"Feature","id":"23361024001","properties":{"KEY_CODE":"23361024001","PREF":"23","CITY":"361","S_AREA":"024001","PREF_NAME":"愛知県","CITY_NAME":"大口町","S_NAME":"余野一丁目","HCODE":8101,"AREA":123417.16,"KIGO_E":"","JINKO":623,"SETAI":255,"X_CODE":136.9035,"Y_CODE":35.343369},"geometry":{"type":"Polygon","coordinates":[[[136.904537,35.342101],[136.903405,35.341322],[136.902084,35.342152],[136.90193,35.342248],[136.901162,35.342741],[136.900659,35.343068],[136.900699,35.343102],[136.900779,35.34317],[136.900993,35.343429],[136.90105,35.343479],[136.901246,35.343587],[136.901343,35.343639],[136.901463,35.343767],[136.901519,35.343813],[136.901718,35.34392],[136.901983,35.344168],[136.902026,35.344203],[136.902054,35.344225],[136.902144,35.344251],[136.902187,35.34428],[136.90225,35.344355],[136.902335,35.34448],[136.902837,35.344944],[136.903032,35.345123],[136.903257,35.345359],[136.903415,35.345587],[136.903477,35.345691],[136.903483,35.345706],[136.903488,35.345719],[136.904096,35.345607],[136.904193,35.345285],[136.904259,35.345087],[136.904343,35.344942],[136.904483,35.3448],[136.904641,35.344634],[136.905249,35.343982],[136.905595,35.343619],[136.90567,35.343545],[136.905834,35.343382],[136.906074,35.343192],[136.906467,35.342889],[136.90641,35.342868],[136.905953,35.342726],[136.905743,35.342639],[136.904537,35.342101]]]}},{"type":"Feature","id":"23361024002","properties":{"KEY_CODE":"23361024002","PREF":"23","CITY":"361","S_AREA":"024002","PREF_NAME":"愛知県","CITY_NAME":"大口町","S_NAME":"余野二丁目","HCODE":8101,"AREA":97452.114,"KIGO_E":"","JINKO":494,"SETAI":211,"X_CODE":136.907248,"Y_CODE":35.34397},"geometry":{"type":"Polygon","coordinates":[[[136.906424,35.345205],[136.906793,35.345181],[136.906848,35.345194],[136.907245,35.344805],[136.907454,35.344646],[136.907514,35.344593],[136.907878,35.344174],[136.908083,35.344011],[136.908254,35.344151],[136.908473,35.344366],[136.908906,35.344324],[136.909261,35.344376],[136.909586,35.344413],[136.90982,35.344459],[136.910195,35.344429],[136.909996,35.343502],[136.909897,35.342944],[136.909833,35.342666],[136.909457,35.342701],[136.909142,35.342718],[136.908906,35.34273],[136.908838,35.342734],[136.908113,35.342745],[136.906624,35.342785],[136.90655,35.342813],[136.906467,35.342889],[136.906074,35.343192],[136.905834,35.343382],[136.90567,35.343545],[136.905595,35.343619],[136.905249,35.343982],[136.904641,35.344634],[136.904483,35.3448],[136.904343,35.344942],[136.904259,35.345087],[136.904193,35.345285],[136.904096,35.345607],[136.90476,35.345486],[136.90543,35.345386],[136.905538,35.345366],[136.906424,35.345205]]]}},{"type":"Feature","id":"23361024003","properties":{"KEY_CODE":"23361024003","PREF":"23","CITY":"361","S_AREA":"024003","PREF_NAME":"愛知県","CITY_NAME":"大口町","S_NAME":"余野三丁目","HCODE":8101,"AREA":190567.756,"KIGO_E":"","JINKO":1569,"SETAI":612,"X_CODE":136.911997,"Y_CODE":35.344389},"geometry":{"type":"Polygon","coordinates":[[[136.913226,35.347264],[136.91356,35.347177],[136.914048,35.347093],[136.914382,35.347054],[136.914363,35.346906],[136.91433,35.346639],[136.914283,35.346485],[136.914188,35.346237],[136.914106,35.345977],[136.914058,35.345736],[136.913942,35.345477],[136.913769,35.345133],[136.913694,35.344796],[136.913686,35.344761],[136.913659,35.344641],[136.913652,35.344608],[136.913485,35.343913],[136.913357,35.343551],[136.913296,35.343419],[136.91316,35.343195],[136.913085,35.343073],[136.913048,35.342987],[136.913013,35.342873],[136.913049,35.342867],[136.913449,35.342796],[136.913489,35.342789],[136.913656,35.342779],[136.913676,35.342552],[136.91368,35.342397],[136.913712,35.342348],[136.913712,35.342111],[136.913695,35.342053],[136.913429,35.342028],[136.913126,35.342049],[136.912398,35.342038],[136.912276,35.342036],[136.912239,35.342017],[136.912035,35.341801],[136.911506,35.341473],[136.911321,35.34137],[136.911232,35.341326],[136.911123,35.341273],[136.91087,35.341162],[136.910542,35.341036],[136.910354,35.340956],[136.910132,35.341222],[136.909767,35.341649],[136.909833,35.342666],[136.909897,35.342944],[136.909996,35.343502],[136.910195,35.344429],[136.910248,35.344648],[136.910406,35.344722],[136.91067,35.344877],[136.91094,35.345062],[136.911028,35.345142],[136.911293,35.34549],[136.9116,35.345954],[136.911661,35.346066],[136.911697,35.346237],[136.911712,35.346511],[136.911725,35.346682],[136.911694,35.346736],[136.911487,35.346851],[136.911405,35.346913],[136.91132,35.347012],[136.91101,35.347237],[136.91081,35.347215],[136.9108,35.3474],[136.910863,35.347498],[136.911089,35.347811],[136.911385,35.348124],[136.911682,35.347991],[136.911874,35.34786],[136.912768,35.347442],[136.913226,35.347264]]]}},{"type":"Feature","id":"23361024004","properties":{"KEY_CODE":"23361024004","PREF":"23","CITY":"361","S_AREA":"024004","PREF_NAME":"愛知県","CITY_NAME":"大口町","S_NAME":"余野四丁目","HCODE":8101,"AREA":107094.773,"KIGO_E":"","JINKO":759,"SETAI":298,"X_CODE":136.906803,"Y_CODE":35.34169},"geometry":{"type":"Polygon","coordinates":[[[136.905607,35.34036],[136.90533,35.340094],[136.904428,35.340639],[136.903405,35.341322],[136.904537,35.342101],[136.905743,35.342639],[136.905953,35.342726],[136.90641,35.342868],[136.906467,35.342889],[136.90655,35.342813],[136.906624,35.342785],[136.908113,35.342745],[136.908838,35.342734],[136.908906,35.34273],[136.909142,35.342718],[136.909457,35.342701],[136.909833,35.342666],[136.909767,35.341649],[136.910132,35.341222],[136.908715,35.341101],[136.907274,35.340954],[136.906857,35.340919],[136.906357,35.340788],[136.906183,35.340729],[136.905927,35.3406],[136.905716,35.340459],[136.905607,35.34036]]]}},{"type":"Feature","id":"23361024005","properties":{"KEY_CODE":"23361024005","PREF":"23","CITY":"361","S_AREA":"024005","PREF_NAME":"愛知県","CITY_NAME":"大口町","S_NAME":"余野五丁目","HCODE":8101,"AREA":120558.844,"KIGO_E":"","JINKO":886,"SETAI":329,"X_CODE":136.907602,"Y_CODE":35.339141},"geometry":{"type":"Polygon","coordinates":[[[136.908744,35.336896],[136.908739,35.336841],[136.907826,35.336859],[136.906256,35.336932],[136.906289,35.337233],[136.906312,35.338208],[136.906315,35.33878],[136.906298,35.338997],[136.906227,35.33922],[136.90616,35.339359],[136.906055,35.339514],[136.905932,35.33966],[136.905755,35.3398],[136.90533,35.340094],[136.905607,35.34036],[136.905716,35.340459],[136.905927,35.3406],[136.906183,35.340729],[136.906357,35.340788],[136.906857,35.340919],[136.907274,35.340954],[136.908715,35.341101],[136.910132,35.341222],[136.910354,35.340956],[136.909786,35.340844],[136.909475,35.340743],[136.909318,35.340705],[136.909253,35.340663],[136.909215,35.340593],[136.90916,35.340439],[136.909108,35.340219],[136.909055,35.339928],[136.908996,35.339481],[136.908928,35.339254],[136.908904,35.339097],[136.908888,35.338872],[136.908846,35.338682],[136.908777,35.338547],[136.908751,35.33849],[136.908726,35.338341],[136.908727,35.338228],[136.908732,35.338085],[136.908776,35.337798],[136.908783,35.337692],[136.90878,35.337446],[136.908744,35.336896]]]}},{"type":"Feature","id":"23361024006","properties":{"KEY_CODE":"23361024006","PREF":"23","CITY":"361","S_AREA":"024006","PREF_NAME":"愛知県","CITY_NAME":"大口町","S_NAME":"余野六丁目","HCODE":8101,"AREA":201237.912,"KIGO_E":"","JINKO":1391,"SETAI":539,"X_CODE":136.903084,"Y_CODE":35.339882},"geometry":{"type":"Polygon","coordinates":[[[136.906289,35.337233],[136.906256,35.336932],[136.905298,35.336993],[136.904448,35.336984],[136.904446,35.337162],[136.904432,35.337214],[136.904358,35.337309],[136.904252,35.337402],[136.903941,35.337652],[136.90377,35.337756],[136.903473,35.338011],[136.903027,35.338289],[136.902875,35.338415],[136.902737,35.338552],[136.90257,35.33874],[136.902328,35.338953],[136.902171,35.339066],[136.901862,35.339275],[136.901552,35.339419],[136.901276,35.339547],[136.901074,35.339675],[136.900368,35.340113],[136.900188,35.340229],[136.899389,35.340704],[136.899403,35.340727],[136.899571,35.341096],[136.899768,35.34167],[136.899795,35.341761],[136.899822,35.341852],[136.899869,35.342059],[136.899914,35.342197],[136.899962,35.342265],[136.900159,35.342464],[136.900206,35.342515],[136.900277,35.342598],[136.900345,35.342726],[136.900409,35.342814],[136.900523,35.342926],[136.900659,35.343068],[136.901162,35.342741],[136.90193,35.342248],[136.902084,35.342152],[136.903405,35.341322],[136.904428,35.340639],[136.90533,35.340094],[136.905755,35.3398],[136.905932,35.33966],[136.906055,35.339514],[136.90616,35.339359],[136.906227,35.33922],[136.906298,35.338997],[136.906315,35.33878],[136.906312,35.338208],[136.906289,35.337233]]]}},{"type":"Feature","id":"23361025001","properties":{"KEY_CODE":"23361025001","PREF":"23","CITY":"361","S_AREA":"025001","PREF_NAME":"愛知県","CITY_NAME":"大口町","S_NAME":"上小口一丁目","HCODE":8101,"AREA":423047.429,"KIGO_E":"","JINKO":1374,"SETAI":520,"X_CODE":136.920794,"Y_CODE":35.3488},"geometry":{"type":"Polygon","coordinates":[[[136.920868,35.346573],[136.920126,35.346541],[136.919649,35.346556],[136.918634,35.346641],[136.918015,35.346701],[136.916681,35.346847],[136.91572,35.346933],[136.915655,35.346939],[136.915628,35.347327],[136.915628,35.347635],[136.915706,35.349299],[136.915723,35.349487],[136.915767,35.349593],[136.91609,35.350042],[136.91639,35.3501],[136.916685,35.350184],[136.917146,35.350398],[136.917346,35.350458],[136.917559,35.350605],[136.917703,35.350702],[136.917704,35.350703],[136.917831,35.350788],[136.918321,35.351135],[136.919153,35.351655],[136.919401,35.351541],[136.919803,35.35141],[136.920207,35.351327],[136.920723,35.351245],[136.921641,35.351072],[136.921649,35.351071],[136.923021,35.350848],[136.92362,35.350755],[136.925058,35.350533],[136.92505,35.350476],[136.926015,35.350309],[136.925912,35.349305],[136.925741,35.34736],[136.925693,35.346887],[136.922307,35.346641],[136.922244,35.346638],[136.920868,35.346573]]]}},{"type":"Feature","id":"23361025002","properties":{"KEY_CODE":"23361025002","PREF":"23","CITY":"361","S_AREA":"025002","PREF_NAME":"愛知県","CITY_NAME":"大口町","S_NAME":"上小口二丁目","HCODE":8101,"AREA":255619.219,"KIGO_E":"","JINKO":18,"SETAI":7,"X_CODE":136.927597,"Y_CODE":35.347136},"geometry":{"type":"Polygon","coordinates":[[[136.929681,35.350717],[136.929753,35.3494],[136.929754,35.349379],[136.929759,35.349275],[136.929774,35.348913],[136.929832,35.347146],[136.929864,35.345399],[136.929853,35.345325],[136.929865,35.345096],[136.929654,35.345118],[136.929499,35.345112],[136.929061,35.345055],[136.928589,35.344988],[136.928347,35.344902],[136.928305,35.344887],[136.928043,35.344759],[136.927879,35.34464],[136.927803,35.344603],[136.92752,35.344384],[136.927394,35.344271],[136.925928,35.34309],[136.925692,35.342885],[136.925622,35.342818],[136.925593,35.342754],[136.925575,35.342681],[136.925578,35.342585],[136.925579,35.342323],[136.925548,35.342261],[136.925557,35.342004],[136.925391,35.342041],[136.92524,35.342089],[136.925229,35.342264],[136.925173,35.342546],[136.925235,35.342677],[136.925324,35.342942],[136.925366,35.343279],[136.925554,35.345049],[136.925615,35.346115],[136.925693,35.346887],[136.925741,35.34736],[136.925912,35.349305],[136.926015,35.350309],[136.926078,35.350298],[136.926738,35.350186],[136.926944,35.350184],[136.927174,35.35021],[136.92737,35.350258],[136.927775,35.35042],[136.927899,35.350489],[136.928013,35.350368],[136.928098,35.350415],[136.928205,35.35045],[136.928732,35.350552],[136.929157,35.350631],[136.929681,35.350717]]]}},{"type":"Feature","id":"23361025003","properties":{"KEY_CODE":"23361025003","PREF":"23","CITY":"361","S_AREA":"025003","PREF_NAME":"愛知県","CITY_NAME":"大口町","S_NAME":"上小口三丁目","HCODE":8101,"AREA":274025.308,"KIGO_E":"","JINKO":379,"SETAI":141,"X_CODE":136.922224,"Y_CODE":35.344769},"geometry":{"type":"Polygon","coordinates":[[[136.925693,35.346887],[136.925615,35.346115],[136.925554,35.345049],[136.925366,35.343279],[136.925324,35.342942],[136.925235,35.342677],[136.925173,35.342546],[136.925229,35.342264],[136.924723,35.342211],[136.923926,35.342137],[136.922482,35.341935],[136.922523,35.343287],[136.922328,35.343366],[136.922153,35.343427],[136.918631,35.343393],[136.918459,35.344185],[136.918436,35.344317],[136.91818,35.345771],[136.918015,35.346701],[136.918634,35.346641],[136.919649,35.346556],[136.920126,35.346541],[136.920868,35.346573],[136.922244,35.346638],[136.922307,35.346641],[136.925693,35.346887]]]}},{"type":"Feature","id":"23361028001","properties":{"KEY_CODE":"23361028001","PREF":"23","CITY":"361","S_AREA":"028001","PREF_NAME":"愛知県","CITY_NAME":"大口町","S_NAME":"萩島一丁目","HCODE":8101,"AREA":259975.614,"KIGO_E":"","JINKO":168,"SETAI":56,"X_CODE":136.926802,"Y_CODE":35.336656},"geometry":{"type":"Polygon","coordinates":[[[136.928384,35.333511],[136.927972,35.333476],[136.927808,35.333488],[136.927433,35.333472],[136.926959,35.333459],[136.926644,35.333445],[136.926424,35.333414],[136.926254,35.333373],[136.926085,35.333313],[136.925828,35.33318],[136.925536,35.333188],[136.925377,35.333216],[136.92486,35.333247],[136.924702,35.333259],[136.924742,35.334154],[136.924863,35.336143],[136.924845,35.336342],[136.924957,35.338123],[136.924994,35.338411],[136.925041,35.339221],[136.925911,35.340229],[136.928498,35.340326],[136.928611,35.338409],[136.928697,35.336933],[136.928725,35.336454],[136.928816,35.334697],[136.92889,35.333539],[136.928825,35.333527],[136.928384,35.333511]]]}},{"type":"Feature","id":"23361028002","properties":{"KEY_CODE":"23361028002","PREF":"23","CITY":"361","S_AREA":"028002","PREF_NAME":"愛知県","CITY_NAME":"大口町","S_NAME":"萩島二丁目","HCODE":8101,"AREA":170616.25,"KIGO_E":"","JINKO":136,"SETAI":53,"X_CODE":136.926649,"Y_CODE":35.330981},"geometry":{"type":"Polygon","coordinates":[[[136.929154,35.328845],[136.925672,35.32888],[136.924728,35.328867],[136.924729,35.328948],[136.92473,35.33136],[136.924702,35.333259],[136.92486,35.333247],[136.925377,35.333216],[136.925536,35.333188],[136.925828,35.33318],[136.926085,35.333313],[136.926254,35.333373],[136.926424,35.333414],[136.926644,35.333445],[136.926959,35.333459],[136.927433,35.333472],[136.927808,35.333488],[136.929129,35.328922],[136.929154,35.328845]]]}},{"type":"Feature","id":"23361030001","properties":{"KEY_CODE":"23361030001","PREF":"23","CITY":"361","S_AREA":"030001","PREF_NAME":"愛知県","CITY_NAME":"大口町","S_NAME":"中小口一丁目","HCODE":8101,"AREA":81585.8,"KIGO_E":"","JINKO":16,"SETAI":4,"X_CODE":136.914179,"Y_CODE":35.348362},"geometry":{"type":"Polygon","coordinates":[[[136.91609,35.350042],[136.915767,35.349593],[136.915723,35.349487],[136.915706,35.349299],[136.915628,35.347635],[136.915628,35.347327],[136.915655,35.346939],[136.914382,35.347054],[136.914048,35.347093],[136.91356,35.347177],[136.913226,35.347264],[136.912768,35.347442],[136.911874,35.34786],[136.911682,35.347991],[136.911948,35.348283],[136.912037,35.348367],[136.912392,35.348553],[136.912644,35.348778],[136.912706,35.348828],[136.912766,35.348876],[136.912947,35.348994],[136.913248,35.349166],[136.913421,35.349299],[136.913557,35.349408],[136.913736,35.349522],[136.913912,35.349614],[136.914269,35.349734],[136.91435,35.349734],[136.914581,35.349742],[136.91486,35.349786],[136.915013,35.349828],[136.915219,35.349887],[136.916014,35.350045],[136.91609,35.350042]]]}},{"type":"Feature","id":"23361030002","properties":{"KEY_CODE":"23361030002","PREF":"23","CITY":"361","S_AREA":"030002","PREF_NAME":"愛知県","CITY_NAME":"大口町","S_NAME":"中小口二丁目","HCODE":8101,"AREA":64137.957,"KIGO_E":"","JINKO":13,"SETAI":5,"X_CODE":136.92057,"Y_CODE":35.342556},"geometry":{"type":"Polygon","coordinates":[[[136.922482,35.341935],[136.921596,35.341806],[136.919348,35.341497],[136.919215,35.341463],[136.919036,35.341385],[136.918978,35.341662],[136.918923,35.341936],[136.918631,35.343393],[136.922153,35.343427],[136.922328,35.343366],[136.922523,35.343287],[136.922482,35.341935]]]}},{"type":"Feature","id":"23361030003","properties":{"KEY_CODE":"23361030003","PREF":"23","CITY":"361","S_AREA":"030003","PREF_NAME":"愛知県","CITY_NAME":"大口町","S_NAME":"中小口三丁目","HCODE":8101,"AREA":305629.288,"KIGO_E":"","JINKO":132,"SETAI":56,"X_CODE":136.922349,"Y_CODE":35.339281},"geometry":{"type":"Polygon","coordinates":[[[136.92524,35.342089],[136.925203,35.341455],[136.92508,35.339726],[136.925041,35.339221],[136.924994,35.338411],[136.924957,35.338123],[136.924845,35.336342],[136.923728,35.336375],[136.919994,35.336555],[136.919864,35.337096],[136.919862,35.337105],[136.919845,35.337193],[136.919365,35.339606],[136.919041,35.341364],[136.919036,35.341385],[136.919215,35.341463],[136.919348,35.341497],[136.921596,35.341806],[136.922482,35.341935],[136.923926,35.342137],[136.924723,35.342211],[136.925229,35.342264],[136.92524,35.342089]]]}},{"type":"Feature","id":"23361030004","properties":{"KEY_CODE":"23361030004","PREF":"23","CITY":"361","S_AREA":"030004","PREF_NAME":"愛知県","CITY_NAME":"大口町","S_NAME":"中小口四丁目","HCODE":8101,"AREA":187671.604,"KIGO_E":"","JINKO":23,"SETAI":8,"X_CODE":136.927808,"Y_CODE":35.342289},"geometry":{"type":"Polygon","coordinates":[[[136.929865,35.345096],[136.929886,35.345007],[136.929933,35.343987],[136.929987,35.342198],[136.930003,35.341536],[136.930015,35.341347],[136.930019,35.340525],[136.929524,35.340572],[136.929418,35.340578],[136.929314,35.340563],[136.928801,35.340421],[136.928498,35.340326],[136.925911,35.340229],[136.925041,35.339221],[136.92508,35.339726],[136.925203,35.341455],[136.92524,35.342089],[136.925391,35.342041],[136.925557,35.342004],[136.925548,35.342261],[136.925579,35.342323],[136.925578,35.342585],[136.925575,35.342681],[136.925593,35.342754],[136.925622,35.342818],[136.925692,35.342885],[136.925928,35.34309],[136.927394,35.344271],[136.92752,35.344384],[136.927803,35.344603],[136.927879,35.34464],[136.928043,35.344759],[136.928305,35.344887],[136.928347,35.344902],[136.928589,35.344988],[136.929061,35.345055],[136.929499,35.345112],[136.929654,35.345118],[136.929865,35.345096]]]}},{"type":"Feature","id":"23361030005","properties":{"KEY_CODE":"23361030005","PREF":"23","CITY":"361","S_AREA":"030005","PREF_NAME":"愛知県","CITY_NAME":"大口町","S_NAME":"中小口五丁目","HCODE":8101,"AREA":142072.382,"KIGO_E":"","JINKO":7,"SETAI":4,"X_CODE":136.922522,"Y_CODE":35.334911},"geometry":{"type":"Polygon","coordinates":[[[136.924742,35.334154],[136.924702,35.333259],[136.922008,35.3333],[136.921326,35.333311],[136.921059,35.333312],[136.920726,35.333315],[136.920605,35.333331],[136.919994,35.336555],[136.923728,35.336375],[136.924845,35.336342],[136.924863,35.336143],[136.924742,35.334154]]]}},{"type":"Feature","id":"23361035001","properties":{"KEY_CODE":"23361035001","PREF":"23","CITY":"361","S_AREA":"035001","PREF_NAME":"愛知県","CITY_NAME":"大口町","S_NAME":"城屋敷一丁目","HCODE":8101,"AREA":93116.625,"KIGO_E":"","JINKO":369,"SETAI":134,"X_CODE":136.916217,"Y_CODE":35.341151},"geometry":{"type":"Polygon","coordinates":[[[136.916309,35.342351],[136.916475,35.342286],[136.916514,35.342269],[136.91648,35.342241],[136.916857,35.342157],[136.917125,35.342095],[136.917266,35.342045],[136.917481,35.341941],[136.917747,35.341787],[136.917895,35.341723],[136.91834,35.341647],[136.918529,35.341622],[136.918978,35.341662],[136.919036,35.341385],[136.919041,35.341364],[136.918865,35.34126],[136.917791,35.340393],[136.917438,35.340027],[136.917183,35.339712],[136.917031,35.339475],[136.917015,35.339451],[136.916737,35.339573],[136.916546,35.339629],[136.916291,35.339684],[136.916065,35.339723],[136.915045,35.339848],[136.915019,35.340081],[136.915019,35.340353],[136.914949,35.340839],[136.914959,35.341235],[136.914786,35.341248],[136.914404,35.341258],[136.914175,35.341302],[136.913968,35.341354],[136.913818,35.341391],[136.913513,35.341467],[136.913606,35.341717],[136.913695,35.342053],[136.913712,35.342111],[136.913712,35.342348],[136.913925,35.342338],[136.914514,35.342321],[136.914693,35.342327],[136.915207,35.342372],[136.915312,35.342382],[136.915316,35.342394],[136.915381,35.342402],[136.915627,35.342431],[136.915745,35.34244],[136.915861,35.342444],[136.915907,35.342442],[136.915979,35.342437],[136.916063,35.342425],[136.916172,35.342397],[136.916309,35.342351]]]}},{"type":"Feature","id":"23361035002","properties":{"KEY_CODE":"23361035002","PREF":"23","CITY":"361","S_AREA":"035002","PREF_NAME":"愛知県","CITY_NAME":"大口町","S_NAME":"城屋敷二丁目","HCODE":8101,"AREA":106076.885,"KIGO_E":"","JINKO":100,"SETAI":36,"X_CODE":136.918016,"Y_CODE":35.338593},"geometry":{"type":"Polygon","coordinates":[[[136.919365,35.339606],[136.919845,35.337193],[136.919862,35.337105],[136.919564,35.337203],[136.919252,35.337205],[136.918946,35.337195],[136.91852,35.337175],[136.918416,35.33717],[136.918012,35.337148],[136.917453,35.337118],[136.917389,35.337078],[136.917265,35.336766],[136.917228,35.336695],[136.915867,35.336755],[136.915723,35.336779],[136.916085,35.337627],[136.916313,35.338125],[136.91648,35.338449],[136.917015,35.339451],[136.917031,35.339475],[136.917183,35.339712],[136.917438,35.340027],[136.917791,35.340393],[136.918865,35.34126],[136.919041,35.341364],[136.919365,35.339606]]]}},{"type":"Feature","id":"23361036001","properties":{"KEY_CODE":"23361036001","PREF":"23","CITY":"361","S_AREA":"036001","PREF_NAME":"愛知県","CITY_NAME":"大口町","S_NAME":"新宮一丁目","HCODE":8101,"AREA":219582.403,"KIGO_E":"","JINKO":449,"SETAI":42,"X_CODE":136.922177,"Y_CODE":35.330976},"geometry":{"type":"Polygon","coordinates":[[[136.92473,35.33136],[136.924729,35.328948],[136.922196,35.328949],[136.91946,35.328975],[136.919453,35.328975],[136.918721,35.328981],[136.918711,35.328981],[136.918687,35.328982],[136.919632,35.330982],[136.920434,35.332696],[136.920726,35.333315],[136.921059,35.333312],[136.921326,35.333311],[136.922008,35.3333],[136.924702,35.333259],[136.92473,35.33136]]]}},{"type":"Feature","id":"23361036002","properties":{"KEY_CODE":"23361036002","PREF":"23","CITY":"361","S_AREA":"036002","PREF_NAME":"愛知県","CITY_NAME":"大口町","S_NAME":"新宮二丁目","HCODE":8101,"AREA":172759.512,"KIGO_E":"","JINKO":132,"SETAI":49,"X_CODE":136.920175,"Y_CODE":35.327913},"geometry":{"type":"Polygon","coordinates":[[[136.918687,35.328982],[136.918711,35.328981],[136.918721,35.328981],[136.919453,35.328975],[136.91946,35.328975],[136.922196,35.328949],[136.924729,35.328948],[136.924728,35.328867],[136.924721,35.327311],[136.923042,35.327213],[136.922626,35.327217],[136.922533,35.327228],[136.922229,35.327309],[136.922133,35.327313],[136.921541,35.327253],[136.921268,35.32723],[136.92099,35.327235],[136.920748,35.327225],[136.920704,35.327211],[136.920621,35.327082],[136.920386,35.327065],[136.92009,35.326961],[136.920066,35.326933],[136.920001,35.326476],[136.91753,35.326466],[136.917138,35.32644],[136.916708,35.326435],[136.916218,35.329016],[136.918687,35.328982]]]}},{"type":"Feature","id":"23361038001","properties":{"KEY_CODE":"23361038001","PREF":"23","CITY":"361","S_AREA":"038001","PREF_NAME":"愛知県","CITY_NAME":"大口町","S_NAME":"下小口一丁目","HCODE":8101,"AREA":105104.495,"KIGO_E":"","JINKO":719,"SETAI":285,"X_CODE":136.910278,"Y_CODE":35.338676},"geometry":{"type":"Polygon","coordinates":[[[136.911096,35.337207],[136.911082,35.336948],[136.910844,35.336993],[136.910087,35.33686],[136.909919,35.336828],[136.909707,35.336813],[136.909383,35.336812],[136.908739,35.336841],[136.908744,35.336896],[136.90878,35.337446],[136.908783,35.337692],[136.908776,35.337798],[136.908732,35.338085],[136.908727,35.338228],[136.908726,35.338341],[136.908751,35.33849],[136.908777,35.338547],[136.908846,35.338682],[136.908888,35.338872],[136.908904,35.339097],[136.908928,35.339254],[136.908996,35.339481],[136.909055,35.339928],[136.909108,35.340219],[136.90916,35.340439],[136.909215,35.340593],[136.909253,35.340663],[136.909318,35.340705],[136.909475,35.340743],[136.909786,35.340844],[136.910354,35.340956],[136.910616,35.340608],[136.911912,35.339042],[136.912407,35.338432],[136.912543,35.338276],[136.91184,35.33776],[136.911151,35.337253],[136.911096,35.337207]]]}},{"type":"Feature","id":"23361038002","properties":{"KEY_CODE":"23361038002","PREF":"23","CITY":"361","S_AREA":"038002","PREF_NAME":"愛知県","CITY_NAME":"大口町","S_NAME":"下小口二丁目","HCODE":8101,"AREA":102492.531,"KIGO_E":"","JINKO":759,"SETAI":308,"X_CODE":136.912836,"Y_CODE":35.340389},"geometry":{"type":"Polygon","coordinates":[[[136.913695,35.342053],[136.913606,35.341717],[136.913513,35.341467],[136.913818,35.341391],[136.913968,35.341354],[136.914175,35.341302],[136.914404,35.341258],[136.914786,35.341248],[136.914959,35.341235],[136.914949,35.340839],[136.915019,35.340353],[136.915019,35.340081],[136.915045,35.339848],[136.914749,35.339881],[136.913581,35.339039],[136.912543,35.338276],[136.912407,35.338432],[136.911912,35.339042],[136.910616,35.340608],[136.910354,35.340956],[136.910542,35.341036],[136.91087,35.341162],[136.911123,35.341273],[136.911232,35.341326],[136.911321,35.34137],[136.911506,35.341473],[136.912035,35.341801],[136.912239,35.342017],[136.912276,35.342036],[136.912398,35.342038],[136.913126,35.342049],[136.913429,35.342028],[136.913695,35.342053]]]}},{"type":"Feature","id":"23361038003","properties":{"KEY_CODE":"23361038003","PREF":"23","CITY":"361","S_AREA":"038003","PREF_NAME":"愛知県","CITY_NAME":"大口町","S_NAME":"下小口三丁目","HCODE":8101,"AREA":110279.702,"KIGO_E":"","JINKO":411,"SETAI":157,"X_CODE":136.914389,"Y_CODE":35.33815},"geometry":{"type":"Polygon","coordinates":[[[136.916085,35.337627],[136.915723,35.336779],[136.91369,35.336858],[136.911082,35.336948],[136.911096,35.337207],[136.911151,35.337253],[136.91184,35.33776],[136.912543,35.338276],[136.913581,35.339039],[136.914749,35.339881],[136.915045,35.339848],[136.916065,35.339723],[136.916291,35.339684],[136.916546,35.339629],[136.916737,35.339573],[136.917015,35.339451],[136.91648,35.338449],[136.916313,35.338125],[136.916085,35.337627]]]}},{"type":"Feature","id":"23361038004","properties":{"KEY_CODE":"23361038004","PREF":"23","CITY":"361","S_AREA":"038004","PREF_NAME":"愛知県","CITY_NAME":"大口町","S_NAME":"下小口四丁目","HCODE":8101,"AREA":162912.556,"KIGO_E":"","JINKO":342,"SETAI":124,"X_CODE":136.91251,"Y_CODE":35.335263},"geometry":{"type":"Polygon","coordinates":[[[136.91265,35.332868],[136.912428,35.332695],[136.912043,35.333072],[136.911228,35.333636],[136.910285,35.334302],[136.909942,35.334544],[136.909964,35.33463],[136.909994,35.334907],[136.910044,35.335398],[136.910084,35.33573],[136.910113,35.336557],[136.91007,35.336791],[136.910087,35.33686],[136.910844,35.336993],[136.911082,35.336948],[136.91369,35.336858],[136.915723,35.336779],[136.914889,35.335321],[136.91472,35.335028],[136.914367,35.334411],[136.914132,35.334071],[136.913943,35.333864],[136.913846,35.333759],[136.913542,35.333468],[136.91265,35.332868]]]}},{"type":"Feature","id":"23361038005","properties":{"KEY_CODE":"23361038005","PREF":"23","CITY":"361","S_AREA":"038005","PREF_NAME":"愛知県","CITY_NAME":"大口町","S_NAME":"下小口五丁目","HCODE":8101,"AREA":373589.87,"KIGO_E":"","JINKO":171,"SETAI":147,"X_CODE":136.917654,"Y_CODE":35.333368},"geometry":{"type":"Polygon","coordinates":[[[136.919864,35.337096],[136.919994,35.336555],[136.920605,35.333331],[136.920726,35.333315],[136.920434,35.332696],[136.919632,35.330982],[136.918687,35.328982],[136.916218,35.329016],[136.915345,35.333351],[136.913542,35.333468],[136.913846,35.333759],[136.913943,35.333864],[136.914132,35.334071],[136.914367,35.334411],[136.91472,35.335028],[136.914889,35.335321],[136.915723,35.336779],[136.915867,35.336755],[136.917228,35.336695],[136.917265,35.336766],[136.917389,35.337078],[136.917453,35.337118],[136.918012,35.337148],[136.918416,35.33717],[136.91852,35.337175],[136.918946,35.337195],[136.919252,35.337205],[136.919564,35.337203],[136.919862,35.337105],[136.919864,35.337096]]]}},{"type":"Feature","id":"23361038006","properties":{"KEY_CODE":"23361038006","PREF":"23","CITY":"361","S_AREA":"038006","PREF_NAME":"愛知県","CITY_NAME":"大口町","S_NAME":"下小口六丁目","HCODE":8101,"AREA":266787.421,"KIGO_E":"","JINKO":145,"SETAI":18,"X_CODE":136.912403,"Y_CODE":35.330771},"geometry":{"type":"Polygon","coordinates":[[[136.915345,35.333351],[136.916218,35.329016],[136.907587,35.329114],[136.907281,35.330213],[136.908161,35.330647],[136.909634,35.331382],[136.910497,35.331804],[136.912199,35.33265],[136.912302,35.332684],[136.912428,35.332695],[136.91265,35.332868],[136.913542,35.333468],[136.915345,35.333351]]]}},{"type":"Feature","id":"23361038007","properties":{"KEY_CODE":"23361038007","PREF":"23","CITY":"361","S_AREA":"038007","PREF_NAME":"愛知県","CITY_NAME":"大口町","S_NAME":"下小口七丁目","HCODE":8101,"AREA":193317.142,"KIGO_E":"","JINKO":702,"SETAI":306,"X_CODE":136.908957,"Y_CODE":35.333309},"geometry":{"type":"Polygon","coordinates":[[[136.910087,35.33686],[136.91007,35.336791],[136.910113,35.336557],[136.910084,35.33573],[136.910044,35.335398],[136.909994,35.334907],[136.909964,35.33463],[136.909942,35.334544],[136.910285,35.334302],[136.911228,35.333636],[136.912043,35.333072],[136.912428,35.332695],[136.912302,35.332684],[136.912199,35.33265],[136.910497,35.331804],[136.909634,35.331382],[136.908161,35.330647],[136.907281,35.330213],[136.907256,35.330303],[136.906846,35.331831],[136.906812,35.331939],[136.90664,35.332355],[136.906472,35.33267],[136.906458,35.332697],[136.906183,35.333251],[136.906141,35.333339],[136.906441,35.333441],[136.906582,35.33353],[136.906954,35.333762],[136.907301,35.334058],[136.907568,35.33436],[136.907813,35.334675],[136.908056,35.335016],[136.908139,35.335149],[136.908227,35.335289],[136.908376,35.335592],[136.90849,35.335879],[136.908518,35.335962],[136.908607,35.336219],[136.908667,35.336455],[136.908739,35.336841],[136.909383,35.336812],[136.909707,35.336813],[136.909919,35.336828],[136.910087,35.33686]]]}},{"type":"Feature","id":"23361045201","properties":{"KEY_CODE":"23361045201","PREF":"23","CITY":"361","S_AREA":"045201","PREF_NAME":"愛知県","CITY_NAME":"大口町","S_NAME":"竹田一丁目","HCODE":8101,"AREA":167433.95,"KIGO_E":"","JINKO":183,"SETAI":66,"X_CODE":136.900289,"Y_CODE":35.33822},"geometry":{"type":"Polygon","coordinates":[[[136.90055,35.336872],[136.898485,35.336845],[136.898215,35.336846],[136.896497,35.337186],[136.896547,35.337214],[136.896927,35.337367],[136.897383,35.337595],[136.8973,35.337719],[136.897012,35.338034],[136.897246,35.33826],[136.897574,35.338593],[136.897866,35.338856],[136.898095,35.339111],[136.898358,35.339443],[136.898708,35.339804],[136.898837,35.339941],[136.899125,35.340283],[136.899389,35.340704],[136.900188,35.340229],[136.900368,35.340113],[136.901074,35.339675],[136.901276,35.339547],[136.901552,35.339419],[136.901862,35.339275],[136.902171,35.339066],[136.902328,35.338953],[136.90257,35.33874],[136.902737,35.338552],[136.902875,35.338415],[136.903027,35.338289],[136.903473,35.338011],[136.90377,35.337756],[136.903941,35.337652],[136.904252,35.337402],[136.904358,35.337309],[136.904432,35.337214],[136.904446,35.337162],[136.904448,35.336984],[136.903261,35.336947],[136.901933,35.3369],[136.901713,35.336893],[136.90055,35.336872]]]}},{"type":"Feature","id":"23361045202","properties":{"KEY_CODE":"23361045202","PREF":"23","CITY":"361","S_AREA":"045202","PREF_NAME":"愛知県","CITY_NAME":"大口町","S_NAME":"竹田二丁目","HCODE":8101,"AREA":269378.935,"KIGO_E":"","JINKO":304,"SETAI":166,"X_CODE":136.904502,"Y_CODE":35.33502},"geometry":{"type":"Polygon","coordinates":[[[136.906582,35.33353],[136.906441,35.333441],[136.906141,35.333339],[136.906183,35.333251],[136.905468,35.33285],[136.905268,35.33277],[136.905105,35.332731],[136.904601,35.332675],[136.904108,35.332592],[136.902607,35.332519],[136.902628,35.332751],[136.902657,35.333449],[136.902327,35.333445],[136.901831,35.333447],[136.900821,35.333478],[136.900749,35.333494],[136.900758,35.333553],[136.900805,35.334927],[136.901182,35.33575],[136.901579,35.336528],[136.901713,35.336893],[136.901933,35.3369],[136.903261,35.336947],[136.904448,35.336984],[136.905298,35.336993],[136.906256,35.336932],[136.907826,35.336859],[136.908739,35.336841],[136.908667,35.336455],[136.908607,35.336219],[136.908518,35.335962],[136.90849,35.335879],[136.908376,35.335592],[136.908227,35.335289],[136.908139,35.335149],[136.908056,35.335016],[136.907813,35.334675],[136.907568,35.33436],[136.907301,35.334058],[136.906954,35.333762],[136.906582,35.33353]]]}},{"type":"Feature","id":"23361045203","properties":{"KEY_CODE":"23361045203","PREF":"23","CITY":"361","S_AREA":"045203","PREF_NAME":"愛知県","CITY_NAME":"大口町","S_NAME":"竹田三丁目","HCODE":8101,"AREA":230366.383,"KIGO_E":"","JINKO":378,"SETAI":130,"X_CODE":136.897559,"Y_CODE":35.335075},"geometry":{"type":"Polygon","coordinates":[[[136.898215,35.336846],[136.898485,35.336845],[136.90055,35.336872],[136.901713,35.336893],[136.901579,35.336528],[136.901182,35.33575],[136.900805,35.334927],[136.900758,35.333553],[136.900749,35.333494],[136.900638,35.3335],[136.897885,35.333562],[136.897151,35.333579],[136.896716,35.333589],[136.896224,35.333755],[136.896414,35.334363],[136.895923,35.334385],[136.895768,35.334355],[136.895613,35.334315],[136.89552,35.334247],[136.895194,35.333988],[136.89511,35.333912],[136.895,35.333818],[136.894758,35.33352],[136.894893,35.333473],[136.894253,35.332157],[136.893033,35.332454],[136.893478,35.333321],[136.893685,35.333708],[136.894146,35.334633],[136.894164,35.334669],[136.894237,35.334939],[136.894282,35.335193],[136.894327,35.335397],[136.8944,35.335522],[136.894456,35.335612],[136.894583,35.335727],[136.89475,35.335856],[136.894892,35.335961],[136.895038,35.336096],[136.895235,35.336241],[136.895383,35.336386],[136.895539,35.336516],[136.895776,35.336719],[136.896088,35.336954],[136.896497,35.337186],[136.898215,35.336846]]]}},{"type":"Feature","id":"23361045300","properties":{"KEY_CODE":"23361045300","PREF":"23","CITY":"361","S_AREA":"045300","PREF_NAME":"愛知県","CITY_NAME":"大口町","S_NAME":"大字小口字城屋敷","HCODE":8101,"AREA":29423.8,"KIGO_E":"","JINKO":189,"SETAI":61,"X_CODE":136.916803,"Y_CODE":35.342584},"geometry":{"type":"Polygon","coordinates":[[[136.916882,35.342844],[136.917025,35.342793],[136.917043,35.342812],[136.917123,35.342796],[136.917357,35.342752],[136.917402,35.342741],[136.917616,35.342667],[136.917789,35.342539],[136.917936,35.342409],[136.918007,35.342346],[136.91817,35.342262],[136.91828,35.342204],[136.918384,35.342144],[136.91849,35.342083],[136.918851,35.341961],[136.918923,35.341936],[136.918978,35.341662],[136.918529,35.341622],[136.91834,35.341647],[136.917895,35.341723],[136.917747,35.341787],[136.917481,35.341941],[136.917266,35.342045],[136.917125,35.342095],[136.916857,35.342157],[136.91648,35.342241],[136.916514,35.342269],[136.916475,35.342286],[136.916309,35.342351],[136.916172,35.342397],[136.916063,35.342425],[136.915979,35.342437],[136.915907,35.342442],[136.915861,35.342444],[136.915745,35.34244],[136.915627,35.342431],[136.915381,35.342402],[136.915316,35.342394],[136.915312,35.342382],[136.915207,35.342372],[136.9152,35.342406],[136.915167,35.342608],[136.915165,35.34263],[136.915269,35.342657],[136.915347,35.342684],[136.915372,35.342699],[136.915384,35.342732],[136.915387,35.342739],[136.915401,35.34284],[136.915399,35.342979],[136.915405,35.34302],[136.915414,35.343105],[136.915423,35.343188],[136.915431,35.343263],[136.91544,35.343348],[136.915444,35.343382],[136.91545,35.343408],[136.915463,35.343469],[136.915477,35.343535],[136.915502,35.343649],[136.915524,35.343713],[136.915555,35.343798],[136.915712,35.343726],[136.915917,35.343643],[136.916181,35.343546],[136.91623,35.343515],[136.916326,35.343407],[136.916458,35.343259],[136.916814,35.342884],[136.916882,35.342844]]]}},{"type":"Feature","id":"23361045301","properties":{"KEY_CODE":"23361045301","PREF":"23","CITY":"361","S_AREA":"045301","PREF_NAME":"愛知県","CITY_NAME":"大口町","S_NAME":"大字小口字地蔵堂","HCODE":8101,"AREA":34062.718,"KIGO_E":"","JINKO":194,"SETAI":70,"X_CODE":136.914901,"Y_CODE":35.345815},"geometry":{"type":"Polygon","coordinates":[[[136.915864,35.345888],[136.91581,35.344958],[136.915145,35.345007],[136.914725,35.345096],[136.914565,35.345112],[136.914487,35.344746],[136.914057,35.344813],[136.914046,35.344742],[136.913694,35.344796],[136.913769,35.345133],[136.913942,35.345477],[136.914058,35.345736],[136.914106,35.345977],[136.914188,35.346237],[136.914283,35.346485],[136.91433,35.346639],[136.914363,35.346906],[136.914388,35.346905],[136.914505,35.346898],[136.91464,35.34689],[136.914795,35.346881],[136.914893,35.346875],[136.914999,35.346856],[136.915082,35.346841],[136.915227,35.346815],[136.915297,35.346802],[136.915366,35.346793],[136.915464,35.34678],[136.91558,35.346765],[136.915758,35.346741],[136.915762,35.346726],[136.915768,35.346705],[136.915775,35.346681],[136.915784,35.346648],[136.915795,35.346609],[136.915797,35.346601],[136.915835,35.346464],[136.915835,35.346463],[136.915856,35.346386],[136.915877,35.346311],[136.915875,35.346252],[136.915872,35.346144],[136.915868,35.346009],[136.915864,35.345888]]]}},{"type":"Feature","id":"23361045302","properties":{"KEY_CODE":"23361045302","PREF":"23","CITY":"361","S_AREA":"045302","PREF_NAME":"愛知県","CITY_NAME":"大口町","S_NAME":"大字小口字下山伏","HCODE":8101,"AREA":37206.596,"KIGO_E":"","JINKO":274,"SETAI":102,"X_CODE":136.917032,"Y_CODE":35.345251},"geometry":{"type":"Polygon","coordinates":[[[136.91818,35.345771],[136.918436,35.344317],[136.917695,35.344322],[136.917125,35.344465],[136.917045,35.344485],[136.916782,35.344554],[136.916757,35.34456],[136.916467,35.344645],[136.916298,35.344708],[136.91616,35.344735],[136.916071,35.344738],[136.915798,35.344728],[136.91581,35.344958],[136.915864,35.345888],[136.915868,35.346009],[136.915872,35.346144],[136.915875,35.346252],[136.915877,35.346311],[136.915856,35.346386],[136.915835,35.346463],[136.915835,35.346464],[136.916608,35.346423],[136.916563,35.345846],[136.916864,35.345827],[136.916916,35.345824],[136.91818,35.345771]]]}},{"type":"Feature","id":"23361045303","properties":{"KEY_CODE":"23361045303","PREF":"23","CITY":"361","S_AREA":"045303","PREF_NAME":"愛知県","CITY_NAME":"大口町","S_NAME":"大字小口字下之段","HCODE":8101,"AREA":36465.842,"KIGO_E":"","JINKO":247,"SETAI":96,"X_CODE":136.915288,"Y_CODE":35.344298},"geometry":{"type":"Polygon","coordinates":[[[136.91581,35.344958],[136.915798,35.344728],[136.916071,35.344738],[136.91616,35.344735],[136.916298,35.344708],[136.916467,35.344645],[136.916757,35.34456],[136.916782,35.344554],[136.917045,35.344485],[136.917125,35.344465],[136.917083,35.344373],[136.917044,35.344289],[136.917009,35.344217],[136.916977,35.344163],[136.916892,35.344018],[136.916864,35.343969],[136.91685,35.343941],[136.916827,35.343894],[136.916789,35.343815],[136.916777,35.34379],[136.916763,35.343765],[136.9167,35.343673],[136.916675,35.343638],[136.916634,35.343611],[136.916548,35.343555],[136.916466,35.343501],[136.916326,35.343407],[136.91623,35.343515],[136.916181,35.343546],[136.915917,35.343643],[136.915712,35.343726],[136.915555,35.343798],[136.915436,35.343852],[136.915187,35.343877],[136.915013,35.343886],[136.914884,35.34388],[136.914541,35.343818],[136.914259,35.343808],[136.914078,35.343812],[136.91385,35.343838],[136.913485,35.343913],[136.913652,35.344608],[136.913659,35.344641],[136.913686,35.344761],[136.913694,35.344796],[136.914046,35.344742],[136.914057,35.344813],[136.914487,35.344746],[136.914565,35.345112],[136.914725,35.345096],[136.915145,35.345007],[136.91581,35.344958]]]}},{"type":"Feature","id":"23361045304","properties":{"KEY_CODE":"23361045304","PREF":"23","CITY":"361","S_AREA":"045304","PREF_NAME":"愛知県","CITY_NAME":"大口町","S_NAME":"大字小口字宮之前","HCODE":8101,"AREA":30205.258,"KIGO_E":"","JINKO":202,"SETAI":75,"X_CODE":136.914381,"Y_CODE":35.343149},"geometry":{"type":"Polygon","coordinates":[[[136.915555,35.343798],[136.915524,35.343713],[136.915502,35.343649],[136.915477,35.343535],[136.915463,35.343469],[136.91545,35.343408],[136.915444,35.343382],[136.91544,35.343348],[136.915431,35.343263],[136.915423,35.343188],[136.915414,35.343105],[136.915405,35.34302],[136.915399,35.342979],[136.915401,35.34284],[136.915387,35.342739],[136.915384,35.342732],[136.915372,35.342699],[136.915347,35.342684],[136.915269,35.342657],[136.915165,35.34263],[136.915167,35.342608],[136.9152,35.342406],[136.915207,35.342372],[136.914693,35.342327],[136.914514,35.342321],[136.913925,35.342338],[136.913938,35.34253],[136.913676,35.342552],[136.913656,35.342779],[136.913489,35.342789],[136.913449,35.342796],[136.913049,35.342867],[136.913013,35.342873],[136.913048,35.342987],[136.913085,35.343073],[136.91316,35.343195],[136.913296,35.343419],[136.913357,35.343551],[136.913485,35.343913],[136.91385,35.343838],[136.914078,35.343812],[136.914259,35.343808],[136.914541,35.343818],[136.914884,35.34388],[136.915013,35.343886],[136.915187,35.343877],[136.915436,35.343852],[136.915555,35.343798]]]}},{"type":"Feature","id":"23361045305","properties":{"KEY_CODE":"23361045305","PREF":"23","CITY":"361","S_AREA":"045305","PREF_NAME":"愛知県","CITY_NAME":"大口町","S_NAME":"大字小口字金三西","HCODE":8101,"AREA":14450.831,"KIGO_E":"","JINKO":75,"SETAI":34,"X_CODE":136.917345,"Y_CODE":35.346275},"geometry":{"type":"Polygon","coordinates":[[[136.918015,35.346701],[136.91818,35.345771],[136.916916,35.345824],[136.916864,35.345827],[136.916563,35.345846],[136.916608,35.346423],[136.916648,35.346497],[136.916662,35.346658],[136.916669,35.346727],[136.916681,35.346847],[136.918015,35.346701]]]}},{"type":"Feature","id":"23361045306","properties":{"KEY_CODE":"23361045306","PREF":"23","CITY":"361","S_AREA":"045306","PREF_NAME":"愛知県","CITY_NAME":"大口町","S_NAME":"大字小口字上山伏","HCODE":8101,"AREA":3967.268,"KIGO_E":"","JINKO":47,"SETAI":15,"X_CODE":136.916209,"Y_CODE":35.346674},"geometry":{"type":"Polygon","coordinates":[[[136.916681,35.346847],[136.916669,35.346727],[136.916662,35.346658],[136.916648,35.346497],[136.916608,35.346423],[136.915835,35.346464],[136.915797,35.346601],[136.915795,35.346609],[136.915784,35.346648],[136.915775,35.346681],[136.915768,35.346705],[136.915762,35.346726],[136.915758,35.346741],[136.915734,35.346861],[136.91572,35.346933],[136.916681,35.346847]]]}},{"type":"Feature","id":"23361045307","properties":{"KEY_CODE":"23361045307","PREF":"23","CITY":"361","S_AREA":"045307","PREF_NAME":"愛知県","CITY_NAME":"大口町","S_NAME":"大字小口字定光寺","HCODE":8101,"AREA":2144.947,"KIGO_E":"","JINKO":6,"SETAI":2,"X_CODE":136.915094,"Y_CODE":35.34691},"geometry":{"type":"Polygon","coordinates":[[[136.915655,35.346939],[136.91572,35.346933],[136.915734,35.346861],[136.915758,35.346741],[136.91558,35.346765],[136.915464,35.34678],[136.915366,35.346793],[136.915297,35.346802],[136.915227,35.346815],[136.915082,35.346841],[136.914999,35.346856],[136.914893,35.346875],[136.914795,35.346881],[136.91464,35.34689],[136.914505,35.346898],[136.914388,35.346905],[136.914363,35.346906],[136.914382,35.347054],[136.915655,35.346939]]]}},{"type":"Feature","id":"23361045308","properties":{"KEY_CODE":"23361045308","PREF":"23","CITY":"361","S_AREA":"045308","PREF_NAME":"愛知県","CITY_NAME":"大口町","S_NAME":"大字小口字馬場","HCODE":8101,"AREA":36239.668,"KIGO_E":"","JINKO":253,"SETAI":89,"X_CODE":136.917769,"Y_CODE":35.343327},"geometry":{"type":"Polygon","coordinates":[[[136.918631,35.343393],[136.918923,35.341936],[136.918851,35.341961],[136.91849,35.342083],[136.918384,35.342144],[136.91828,35.342204],[136.91817,35.342262],[136.918007,35.342346],[136.917936,35.342409],[136.917789,35.342539],[136.917616,35.342667],[136.917402,35.342741],[136.917357,35.342752],[136.917123,35.342796],[136.917043,35.342812],[136.917025,35.342793],[136.916882,35.342844],[136.916814,35.342884],[136.916458,35.343259],[136.916326,35.343407],[136.916466,35.343501],[136.916548,35.343555],[136.916634,35.343611],[136.916675,35.343638],[136.9167,35.343673],[136.916763,35.343765],[136.916777,35.34379],[136.916789,35.343815],[136.916827,35.343894],[136.91685,35.343941],[136.916864,35.343969],[136.916892,35.344018],[136.916977,35.344163],[136.917009,35.344217],[136.917044,35.344289],[136.917083,35.344373],[136.917125,35.344465],[136.917695,35.344322],[136.918436,35.344317],[136.918459,35.344185],[136.918631,35.343393]]]}},{"type":"Feature","id":"23361045401","properties":{"KEY_CODE":"23361045401","PREF":"23","CITY":"361","S_AREA":"045401","PREF_NAME":"愛知県","CITY_NAME":"大口町","S_NAME":"さつきケ丘一丁目","HCODE":8101,"AREA":40627.292,"KIGO_E":"","JINKO":384,"SETAI":169,"X_CODE":136.909327,"Y_CODE":35.347724},"geometry":{"type":"Polygon","coordinates":[[[136.910632,35.34817],[136.910545,35.348048],[136.910342,35.347753],[136.910108,35.347425],[136.910103,35.347367],[136.910043,35.347282],[136.909654,35.346719],[136.90951,35.346503],[136.909378,35.346427],[136.908377,35.346854],[136.908001,35.347004],[136.907917,35.347033],[136.907811,35.347057],[136.90816,35.347546],[136.908586,35.348198],[136.908681,35.348164],[136.908771,35.348279],[136.908782,35.348293],[136.909105,35.348705],[136.909091,35.348773],[136.909279,35.349023],[136.909287,35.349033],[136.909318,35.349074],[136.909654,35.348913],[136.909814,35.348837],[136.910654,35.348452],[136.910825,35.348373],[136.910714,35.348208],[136.910632,35.34817]]]}},{"type":"Feature","id":"23361045402","properties":{"KEY_CODE":"23361045402","PREF":"23","CITY":"361","S_AREA":"045402","PREF_NAME":"愛知県","CITY_NAME":"大口町","S_NAME":"さつきケ丘二丁目","HCODE":8101,"AREA":58050.307,"KIGO_E":"","JINKO":457,"SETAI":181,"X_CODE":136.908385,"Y_CODE":35.345417},"geometry":{"type":"Polygon","coordinates":[[[136.909971,35.345003],[136.91027,35.3449],[136.910353,35.344931],[136.910453,35.345007],[136.91079,35.345301],[136.911028,35.345142],[136.91094,35.345062],[136.91067,35.344877],[136.910406,35.344722],[136.910248,35.344648],[136.910195,35.344429],[136.90982,35.344459],[136.909586,35.344413],[136.909261,35.344376],[136.908906,35.344324],[136.908473,35.344366],[136.908254,35.344151],[136.908083,35.344011],[136.907878,35.344174],[136.907514,35.344593],[136.907454,35.344646],[136.907245,35.344805],[136.906848,35.345194],[136.906856,35.345472],[136.906918,35.345739],[136.907015,35.346042],[136.907349,35.346361],[136.907368,35.346386],[136.907325,35.346415],[136.907558,35.346685],[136.907807,35.34705],[136.907811,35.347057],[136.907917,35.347033],[136.908001,35.347004],[136.908377,35.346854],[136.909378,35.346427],[136.909246,35.346349],[136.908981,35.346182],[136.908549,35.345712],[136.908627,35.345688],[136.90933,35.345347],[136.909529,35.34525],[136.909971,35.345003]]]}},{"type":"Feature","id":"233610455","properties":{"KEY_CODE":"233610455","PREF":"23","CITY":"361","S_AREA":"045501","PREF_NAME":"愛知県","CITY_NAME":"大口町","S_NAME":"垣田","HCODE":8101,"AREA":54152.723,"KIGO_E":"","JINKO":715,"SETAI":344,"X_CODE":136.910389,"Y_CODE":35.346332},"geometry":{"type":"Polygon","coordinates":[[[136.9108,35.3474],[136.91081,35.347215],[136.91101,35.347237],[136.91132,35.347012],[136.911405,35.346913],[136.911487,35.346851],[136.911694,35.346736],[136.911725,35.346682],[136.911712,35.346511],[136.911697,35.346237],[136.911661,35.346066],[136.9116,35.345954],[136.911293,35.34549],[136.911028,35.345142],[136.91079,35.345301],[136.910453,35.345007],[136.910353,35.344931],[136.91027,35.3449],[136.909971,35.345003],[136.909529,35.34525],[136.90933,35.345347],[136.908627,35.345688],[136.908549,35.345712],[136.908981,35.346182],[136.909246,35.346349],[136.909378,35.346427],[136.90951,35.346503],[136.909654,35.346719],[136.910043,35.347282],[136.910103,35.347367],[136.910108,35.347425],[136.910342,35.347753],[136.910545,35.348048],[136.910632,35.34817],[136.910714,35.348208],[136.910825,35.348373],[136.911385,35.348124],[136.911089,35.347811],[136.910863,35.347498],[136.9108,35.3474]]]}},{"type":"Feature","id":"233610456","properties":{"KEY_CODE":"233610456","PREF":"23","CITY":"361","S_AREA":"045601","PREF_NAME":"愛知県","CITY_NAME":"大口町","S_NAME":"大字余野","HCODE":8101,"AREA":494.872,"KIGO_E":"","JINKO":2,"SETAI":1,"X_CODE":136.913806,"Y_CODE":35.342445},"geometry":{"type":"Polygon","coordinates":[[[136.913676,35.342552],[136.913938,35.34253],[136.913925,35.342338],[136.913712,35.342348],[136.91368,35.342397],[136.913676,35.342552]]]}}]}