{"type":"FeatureCollection","name":"23424_大治町","crs":{"type":"name","properties":{"name":"urn:ogc:def:crs:OGC:1.3:CRS84"}},"features":[{"type":"Feature","id":"234240010","properties":{"KEY_CODE":"234240010","PREF":"23","CITY":"424","S_AREA":"001000","PREF_NAME":"愛知県","CITY_NAME":"大治町","S_NAME":"大字西條","HCODE":8101,"AREA":1794504.844,"KIGO_E":"","JINKO":9141,"SETAI":3843,"X_CODE":136.812961,"Y_CODE":35.17981},"geometry":{"type":"Polygon","coordinates":[[[136.813826,35.190582],[136.813836,35.190142],[136.813927,35.189966],[136.813923,35.189854],[136.813857,35.189792],[136.813891,35.189116],[136.813879,35.18903],[136.813913,35.188451],[136.813892,35.187679],[136.813881,35.187285],[136.81577,35.187293],[136.816111,35.187294],[136.81636,35.187277],[136.816415,35.187279],[136.81731,35.187313],[136.817987,35.187303],[136.818659,35.187298],[136.819221,35.187289],[136.820592,35.187265],[136.820608,35.187265],[136.822249,35.187244],[136.822235,35.187043],[136.822249,35.186775],[136.822246,35.18672],[136.822142,35.186187],[136.822026,35.185772],[136.821973,35.185605],[136.821891,35.185447],[136.821865,35.185419],[136.82184,35.185391],[136.821439,35.185243],[136.821343,35.185187],[136.821035,35.184794],[136.82059,35.184167],[136.820607,35.184167],[136.820071,35.183402],[136.819648,35.182838],[136.819383,35.182443],[136.819113,35.182071],[136.818901,35.181803],[136.818778,35.181662],[136.818671,35.181524],[136.818555,35.181375],[136.818422,35.18117],[136.818272,35.180938],[136.818118,35.180718],[136.818115,35.180717],[136.817831,35.180549],[136.817602,35.180435],[136.817414,35.18036],[136.817064,35.180229],[136.81701,35.180232],[136.816852,35.180231],[136.81668,35.180214],[136.816585,35.180177],[136.816533,35.18013],[136.816506,35.180082],[136.816476,35.180028],[136.816449,35.179981],[136.81643,35.179956],[136.816408,35.179926],[136.816378,35.179908],[136.816322,35.179886],[136.816048,35.179811],[136.815917,35.179769],[136.815697,35.179676],[136.815403,35.179502],[136.815104,35.179312],[136.814928,35.179169],[136.814832,35.179091],[136.81482,35.179072],[136.814807,35.179052],[136.814792,35.178977],[136.814813,35.178928],[136.814824,35.178835],[136.814829,35.17868],[136.814816,35.178562],[136.814802,35.178392],[136.814761,35.178287],[136.814711,35.178189],[136.816008,35.178005],[136.815987,35.177484],[136.815978,35.177383],[136.815973,35.177345],[136.815954,35.177313],[136.815949,35.177284],[136.815946,35.177185],[136.815942,35.177],[136.815936,35.17698],[136.815912,35.176966],[136.81589,35.176958],[136.8158,35.176949],[136.815738,35.176994],[136.815514,35.176998],[136.815461,35.177015],[136.815296,35.177008],[136.815272,35.176629],[136.815165,35.175986],[136.815108,35.175771],[136.815192,35.175739],[136.815126,35.175501],[136.815103,35.17543],[136.815031,35.175208],[136.815086,35.175174],[136.815196,35.17513],[136.816103,35.174884],[136.815861,35.173802],[136.815611,35.173187],[136.815535,35.172979],[136.815425,35.172978],[136.8154,35.17285],[136.815392,35.172813],[136.815337,35.172529],[136.815344,35.172511],[136.81535,35.172494],[136.815357,35.17247],[136.815357,35.172437],[136.81535,35.172413],[136.815335,35.172384],[136.815319,35.172355],[136.815291,35.1722],[136.815204,35.171733],[136.814674,35.171688],[136.814589,35.171551],[136.814496,35.17141],[136.814353,35.171177],[136.814344,35.171163],[136.813995,35.170873],[136.813631,35.170596],[136.813367,35.170391],[136.813264,35.17029],[136.813242,35.170256],[136.81323,35.170178],[136.813228,35.170119],[136.813017,35.169573],[136.812739,35.168748],[136.812737,35.168741],[136.812666,35.16853],[136.812599,35.168293],[136.812449,35.16774],[136.812022,35.167822],[136.811953,35.167814],[136.811902,35.167807],[136.81183,35.167798],[136.811171,35.167893],[136.810737,35.167982],[136.810599,35.16803],[136.80998,35.168039],[136.80993,35.168038],[136.809864,35.168043],[136.809783,35.167955],[136.809722,35.167823],[136.809403,35.167498],[136.809055,35.167449],[136.808714,35.167401],[136.80851,35.16726],[136.808474,35.167348],[136.808472,35.167369],[136.808468,35.167406],[136.808416,35.167427],[136.808156,35.167532],[136.807805,35.167683],[136.807784,35.167704],[136.807679,35.168234],[136.807706,35.168259],[136.807809,35.168353],[136.807708,35.168742],[136.807589,35.169102],[136.807409,35.169573],[136.807198,35.169569],[136.807195,35.169736],[136.807194,35.16977],[136.807192,35.16981],[136.807203,35.170107],[136.807209,35.170288],[136.807209,35.170433],[136.807224,35.170636],[136.807225,35.170654],[136.807228,35.170698],[136.807253,35.171165],[136.807273,35.171534],[136.807274,35.171566],[136.807319,35.171749],[136.807447,35.172122],[136.807456,35.172146],[136.807577,35.172525],[136.807646,35.172712],[136.807847,35.173262],[136.807986,35.173602],[136.808125,35.173935],[136.808196,35.1741],[136.808226,35.174169],[136.80835,35.174466],[136.808491,35.174822],[136.808567,35.175088],[136.808609,35.175335],[136.808671,35.175767],[136.808674,35.175794],[136.808728,35.176002],[136.808875,35.176553],[136.808963,35.176888],[136.809026,35.177245],[136.809041,35.177401],[136.809041,35.177415],[136.80905,35.177698],[136.809024,35.178053],[136.809011,35.178238],[136.80901,35.178264],[136.809,35.178413],[136.808973,35.178704],[136.808943,35.179207],[136.80894,35.179253],[136.808947,35.179561],[136.808931,35.180113],[136.80893,35.1802],[136.808922,35.180912],[136.808901,35.181421],[136.808897,35.181509],[136.808899,35.18224],[136.808917,35.182888],[136.808921,35.18302],[136.808944,35.183595],[136.808954,35.184114],[136.808956,35.184212],[136.808969,35.184828],[136.808963,35.185775],[136.808966,35.186487],[136.808968,35.187174],[136.808959,35.187372],[136.808984,35.188057],[136.809005,35.1889],[136.809018,35.190026],[136.809026,35.190259],[136.80914,35.190266],[136.809244,35.19026],[136.809378,35.190244],[136.810334,35.190242],[136.811305,35.190233],[136.811312,35.190233],[136.811659,35.190234],[136.812365,35.190231],[136.812469,35.190224],[136.812552,35.190218],[136.813177,35.190247],[136.813199,35.190642],[136.813291,35.190856],[136.813792,35.190758],[136.813826,35.190582]]]}},{"type":"Feature","id":"234240020","properties":{"KEY_CODE":"234240020","PREF":"23","CITY":"424","S_AREA":"002000","PREF_NAME":"愛知県","CITY_NAME":"大治町","S_NAME":"大字中島","HCODE":8101,"AREA":116541.238,"KIGO_E":"","JINKO":537,"SETAI":111,"X_CODE":136.816685,"Y_CODE":35.174277},"geometry":{"type":"Polygon","coordinates":[[[136.815738,35.176994],[136.8158,35.176949],[136.81589,35.176958],[136.815941,35.176963],[136.815985,35.176967],[136.81619,35.176958],[136.816151,35.176597],[136.816343,35.176564],[136.816686,35.176497],[136.816608,35.176159],[136.816578,35.176091],[136.81688,35.176047],[136.817787,35.175858],[136.817856,35.175847],[136.817952,35.175833],[136.818135,35.175769],[136.818317,35.17571],[136.818336,35.175704],[136.818553,35.175639],[136.818931,35.175519],[136.818834,35.175326],[136.818467,35.174914],[136.818299,35.17467],[136.818109,35.174418],[136.818024,35.17432],[136.81795,35.174234],[136.81782,35.173987],[136.817779,35.173901],[136.817755,35.17362],[136.817754,35.173601],[136.817735,35.173354],[136.81771,35.17304],[136.817695,35.172878],[136.817689,35.172813],[136.817703,35.172813],[136.817702,35.172779],[136.817699,35.172766],[136.817637,35.172204],[136.817609,35.171941],[136.817568,35.171643],[136.817274,35.171699],[136.816878,35.171785],[136.816494,35.17184],[136.816207,35.171823],[136.815204,35.171733],[136.815291,35.1722],[136.815319,35.172355],[136.815335,35.172384],[136.81535,35.172413],[136.815357,35.172437],[136.815357,35.17247],[136.81535,35.172494],[136.815344,35.172511],[136.815337,35.172529],[136.815392,35.172813],[136.8154,35.17285],[136.815425,35.172978],[136.815535,35.172979],[136.815611,35.173187],[136.815861,35.173802],[136.816103,35.174884],[136.815196,35.17513],[136.815086,35.175174],[136.815031,35.175208],[136.815103,35.17543],[136.815126,35.175501],[136.815192,35.175739],[136.815108,35.175771],[136.815165,35.175986],[136.815272,35.176629],[136.815296,35.177008],[136.815461,35.177015],[136.815514,35.176998],[136.815738,35.176994]]]}},{"type":"Feature","id":"234240030","properties":{"KEY_CODE":"234240030","PREF":"23","CITY":"424","S_AREA":"003000","PREF_NAME":"愛知県","CITY_NAME":"大治町","S_NAME":"大字花常","HCODE":8101,"AREA":507009.186,"KIGO_E":"","JINKO":3210,"SETAI":1346,"X_CODE":136.820084,"Y_CODE":35.180032},"geometry":{"type":"Polygon","coordinates":[[[136.823643,35.184201],[136.82392,35.183772],[136.824082,35.183403],[136.824015,35.183011],[136.823894,35.182535],[136.823892,35.182525],[136.823813,35.182129],[136.823788,35.181498],[136.823789,35.181421],[136.821742,35.181864],[136.821664,35.181581],[136.821546,35.18117],[136.821309,35.180342],[136.821187,35.179956],[136.820794,35.178718],[136.821687,35.178529],[136.822442,35.178384],[136.823188,35.178243],[136.8231,35.177982],[136.823077,35.177901],[136.823009,35.177748],[136.822909,35.177456],[136.822805,35.177146],[136.822777,35.177067],[136.822699,35.176914],[136.822532,35.176638],[136.822382,35.17639],[136.822156,35.17591],[136.821739,35.175043],[136.82152,35.175112],[136.821359,35.175152],[136.821232,35.175177],[136.821055,35.175197],[136.820849,35.17521],[136.820664,35.175242],[136.82053,35.175299],[136.820432,35.175301],[136.820159,35.175284],[136.819941,35.175308],[136.819707,35.175392],[136.819628,35.175413],[136.819596,35.17532],[136.818931,35.175519],[136.818553,35.175639],[136.818336,35.175704],[136.818317,35.17571],[136.818135,35.175769],[136.817952,35.175833],[136.817856,35.175847],[136.817787,35.175858],[136.81688,35.176047],[136.816578,35.176091],[136.816608,35.176159],[136.816686,35.176497],[136.816343,35.176564],[136.816151,35.176597],[136.81619,35.176958],[136.815985,35.176967],[136.815941,35.176963],[136.81589,35.176958],[136.815912,35.176966],[136.815936,35.17698],[136.815942,35.177],[136.815946,35.177185],[136.815949,35.177284],[136.815954,35.177313],[136.815973,35.177345],[136.815978,35.177383],[136.815987,35.177484],[136.816008,35.178005],[136.814711,35.178189],[136.814761,35.178287],[136.814802,35.178392],[136.814816,35.178562],[136.814829,35.17868],[136.814824,35.178835],[136.814813,35.178928],[136.814792,35.178977],[136.814807,35.179052],[136.81482,35.179072],[136.814832,35.179091],[136.814928,35.179169],[136.815104,35.179312],[136.815403,35.179502],[136.815697,35.179676],[136.815917,35.179769],[136.816048,35.179811],[136.816322,35.179886],[136.816378,35.179908],[136.816408,35.179926],[136.81643,35.179956],[136.816449,35.179981],[136.816476,35.180028],[136.816506,35.180082],[136.816533,35.18013],[136.816585,35.180177],[136.81668,35.180214],[136.816852,35.180231],[136.81701,35.180232],[136.817064,35.180229],[136.817414,35.18036],[136.817602,35.180435],[136.817831,35.180549],[136.818115,35.180717],[136.818118,35.180718],[136.818272,35.180938],[136.818422,35.18117],[136.818555,35.181375],[136.818671,35.181524],[136.818778,35.181662],[136.818901,35.181803],[136.819113,35.182071],[136.819383,35.182443],[136.819648,35.182838],[136.820071,35.183402],[136.820607,35.184167],[136.82059,35.184167],[136.821035,35.184794],[136.821343,35.185187],[136.821439,35.185243],[136.82184,35.185391],[136.821865,35.185419],[136.821891,35.185447],[136.821973,35.185605],[136.822026,35.185772],[136.822142,35.186187],[136.822246,35.18672],[136.822249,35.186775],[136.822235,35.187043],[136.822249,35.187244],[136.822292,35.187243],[136.822897,35.187229],[136.82334,35.187209],[136.823662,35.187168],[136.823641,35.18698],[136.823604,35.186903],[136.823551,35.186308],[136.823653,35.186287],[136.823632,35.186242],[136.823514,35.185984],[136.823504,35.18593],[136.823484,35.185432],[136.823488,35.185145],[136.823493,35.184908],[136.823496,35.184725],[136.823636,35.184212],[136.823643,35.184201]]]}},{"type":"Feature","id":"234240040","properties":{"KEY_CODE":"234240040","PREF":"23","CITY":"424","S_AREA":"004000","PREF_NAME":"愛知県","CITY_NAME":"大治町","S_NAME":"大字馬島","HCODE":8101,"AREA":160947.089,"KIGO_E":"","JINKO":998,"SETAI":434,"X_CODE":136.819896,"Y_CODE":35.173245},"geometry":{"type":"Polygon","coordinates":[[[136.818931,35.175519],[136.819596,35.17532],[136.819628,35.175413],[136.819707,35.175392],[136.819941,35.175308],[136.820159,35.175284],[136.820432,35.175301],[136.82053,35.175299],[136.820664,35.175242],[136.820849,35.17521],[136.821055,35.175197],[136.821232,35.175177],[136.821359,35.175152],[136.82152,35.175112],[136.821739,35.175043],[136.822088,35.174923],[136.822114,35.174801],[136.822264,35.174736],[136.822156,35.174469],[136.822094,35.174295],[136.822049,35.174168],[136.821964,35.173875],[136.821862,35.173402],[136.821752,35.172684],[136.821792,35.172641],[136.821683,35.171049],[136.821314,35.171105],[136.820949,35.171148],[136.820521,35.171201],[136.820028,35.171244],[136.819617,35.171286],[136.819241,35.171325],[136.818986,35.171347],[136.818967,35.171349],[136.818231,35.171522],[136.817885,35.171584],[136.817568,35.171643],[136.817609,35.171941],[136.817637,35.172204],[136.817699,35.172766],[136.817702,35.172779],[136.817703,35.172813],[136.817689,35.172813],[136.817695,35.172878],[136.81771,35.17304],[136.817735,35.173354],[136.817754,35.173601],[136.817755,35.17362],[136.817779,35.173901],[136.81782,35.173987],[136.81795,35.174234],[136.818024,35.17432],[136.818109,35.174418],[136.818299,35.17467],[136.818467,35.174914],[136.818834,35.175326],[136.818931,35.175519]]]}},{"type":"Feature","id":"234240050","properties":{"KEY_CODE":"234240050","PREF":"23","CITY":"424","S_AREA":"005000","PREF_NAME":"愛知県","CITY_NAME":"大治町","S_NAME":"大字三本木","HCODE":8101,"AREA":665896.227,"KIGO_E":"","JINKO":3395,"SETAI":1511,"X_CODE":136.819676,"Y_CODE":35.168722},"geometry":{"type":"Polygon","coordinates":[[[136.825684,35.17029],[136.825757,35.170282],[136.8258,35.170287],[136.825842,35.170301],[136.825926,35.170333],[136.825928,35.170265],[136.825975,35.170267],[136.826016,35.170265],[136.826052,35.170258],[136.826093,35.170243],[136.826133,35.170225],[136.82618,35.170196],[136.826211,35.170175],[136.826244,35.170157],[136.826295,35.170135],[136.826343,35.170118],[136.826395,35.170099],[136.826437,35.170092],[136.826485,35.170091],[136.82654,35.170089],[136.826591,35.170081],[136.826792,35.170043],[136.826906,35.170017],[136.827029,35.169972],[136.827133,35.169972],[136.827234,35.16997],[136.82731,35.169956],[136.827341,35.169918],[136.827363,35.1699],[136.827393,35.169883],[136.827425,35.169873],[136.827458,35.169864],[136.827486,35.16986],[136.827499,35.169788],[136.827558,35.169766],[136.827429,35.169605],[136.827302,35.169448],[136.82775,35.169227],[136.827995,35.169077],[136.827638,35.168569],[136.827343,35.168145],[136.827293,35.168071],[136.827234,35.167934],[136.827151,35.167732],[136.827065,35.167399],[136.826998,35.167065],[136.826892,35.166539],[136.826821,35.166037],[136.826406,35.166394],[136.825805,35.166452],[136.825802,35.166362],[136.825608,35.166258],[136.82517,35.166178],[136.825133,35.166173],[136.825078,35.166176],[136.825029,35.166185],[136.824988,35.166207],[136.824863,35.166295],[136.824731,35.166383],[136.824662,35.166487],[136.824592,35.166591],[136.824542,35.166901],[136.824102,35.167015],[136.823866,35.167064],[136.823592,35.167121],[136.823555,35.167153],[136.823511,35.167179],[136.823457,35.167188],[136.823276,35.167228],[136.823107,35.167265],[136.822731,35.167289],[136.822503,35.167263],[136.822229,35.167206],[136.822037,35.167138],[136.821798,35.166983],[136.821618,35.166814],[136.821566,35.166565],[136.82149,35.166262],[136.821468,35.16617],[136.821391,35.165977],[136.82136,35.165922],[136.821321,35.165895],[136.821199,35.165837],[136.820463,35.1658],[136.820282,35.165794],[136.820189,35.165791],[136.820164,35.165589],[136.820023,35.165603],[136.819807,35.165644],[136.819873,35.166039],[136.819927,35.1664],[136.81837,35.166706],[136.817886,35.166761],[136.817265,35.166813],[136.816864,35.166855],[136.816384,35.166915],[136.816358,35.166705],[136.816359,35.166525],[136.816417,35.165725],[136.816432,35.165499],[136.816446,35.165297],[136.816456,35.164886],[136.815934,35.165056],[136.815052,35.165342],[136.815033,35.165349],[136.814479,35.165499],[136.814112,35.165594],[136.814097,35.16599],[136.814169,35.166276],[136.814276,35.166633],[136.81437,35.166796],[136.814372,35.166922],[136.813957,35.167412],[136.81394,35.167432],[136.813913,35.167464],[136.81331,35.167458],[136.813139,35.16754],[136.812668,35.16766],[136.812497,35.16773],[136.812449,35.16774],[136.812599,35.168293],[136.812666,35.16853],[136.812737,35.168741],[136.812739,35.168748],[136.813017,35.169573],[136.813228,35.170119],[136.81323,35.170178],[136.813242,35.170256],[136.813264,35.17029],[136.813367,35.170391],[136.813631,35.170596],[136.813995,35.170873],[136.814344,35.171163],[136.814353,35.171177],[136.814496,35.17141],[136.814589,35.171551],[136.814674,35.171688],[136.815204,35.171733],[136.816207,35.171823],[136.816494,35.17184],[136.816878,35.171785],[136.817274,35.171699],[136.817568,35.171643],[136.817885,35.171584],[136.818231,35.171522],[136.818967,35.171349],[136.818986,35.171347],[136.819241,35.171325],[136.819617,35.171286],[136.820028,35.171244],[136.820521,35.171201],[136.820949,35.171148],[136.821314,35.171105],[136.821683,35.171049],[136.821762,35.171017],[136.822451,35.170882],[136.822677,35.170839],[136.823119,35.170758],[136.823932,35.170565],[136.824148,35.170512],[136.824439,35.170466],[136.824786,35.17042],[136.825213,35.170354],[136.825684,35.17029]]]}},{"type":"Feature","id":"234240060","properties":{"KEY_CODE":"234240060","PREF":"23","CITY":"424","S_AREA":"006000","PREF_NAME":"愛知県","CITY_NAME":"大治町","S_NAME":"大字砂子","HCODE":8101,"AREA":1016704.509,"KIGO_E":"","JINKO":5222,"SETAI":2073,"X_CODE":136.823975,"Y_CODE":35.161924},"geometry":{"type":"Polygon","coordinates":[[[136.825078,35.166176],[136.825133,35.166173],[136.82517,35.166178],[136.825608,35.166258],[136.825802,35.166362],[136.825805,35.166452],[136.826406,35.166394],[136.826821,35.166037],[136.826774,35.165743],[136.826689,35.165244],[136.826685,35.16521],[136.826879,35.165196],[136.827159,35.165166],[136.827222,35.165161],[136.827272,35.165149],[136.827318,35.165132],[136.827372,35.165104],[136.827427,35.165068],[136.827466,35.165033],[136.827525,35.16495],[136.82771,35.1647],[136.827879,35.164535],[136.828124,35.164189],[136.828544,35.163499],[136.828598,35.163415],[136.828883,35.162949],[136.828952,35.16276],[136.829021,35.162557],[136.82902,35.162447],[136.828989,35.162067],[136.82898,35.161785],[136.828972,35.161704],[136.828965,35.161659],[136.828959,35.161623],[136.82894,35.161517],[136.828935,35.161468],[136.828935,35.161427],[136.828949,35.161357],[136.828956,35.161238],[136.828983,35.160808],[136.828986,35.160798],[136.829013,35.160719],[136.829144,35.160411],[136.829317,35.159995],[136.829357,35.159916],[136.829398,35.159824],[136.829528,35.159682],[136.829596,35.159629],[136.829713,35.159538],[136.829968,35.159343],[136.830186,35.159221],[136.830398,35.159146],[136.830562,35.159108],[136.830624,35.159112],[136.830892,35.159243],[136.83109,35.159366],[136.831358,35.159552],[136.831465,35.15964],[136.831511,35.159673],[136.831702,35.159815],[136.831804,35.159904],[136.831962,35.160027],[136.832448,35.159538],[136.832473,35.159533],[136.832524,35.159521],[136.83279,35.159487],[136.833051,35.159372],[136.833304,35.159266],[136.833316,35.159261],[136.834161,35.158907],[136.834401,35.158796],[136.834676,35.158648],[136.834972,35.158507],[136.835075,35.158434],[136.835264,35.158241],[136.835524,35.158152],[136.835577,35.158058],[136.83563,35.158003],[136.83564,35.157936],[136.835693,35.157801],[136.835655,35.157769],[136.835568,35.157764],[136.835294,35.157814],[136.834726,35.157889],[136.834417,35.157924],[136.834016,35.157931],[136.833685,35.157935],[136.833256,35.157944],[136.83287,35.157974],[136.83282,35.158003],[136.832533,35.158018],[136.832198,35.158038],[136.8321,35.158047],[136.832064,35.15805],[136.831953,35.158061],[136.831922,35.158031],[136.831726,35.158069],[136.831704,35.157978],[136.83168,35.157871],[136.831496,35.15778],[136.831368,35.157731],[136.831274,35.157703],[136.831004,35.15762],[136.830816,35.157555],[136.830753,35.157537],[136.830676,35.157491],[136.830621,35.157469],[136.830572,35.157455],[136.830539,35.157449],[136.830518,35.157445],[136.830477,35.157445],[136.830247,35.157469],[136.830167,35.157476],[136.830115,35.157475],[136.830085,35.157473],[136.83004,35.157465],[136.830027,35.157462],[136.829841,35.157425],[136.829712,35.157407],[136.829561,35.157394],[136.829283,35.157426],[136.829223,35.157423],[136.829124,35.157392],[136.829084,35.157367],[136.828966,35.157399],[136.828789,35.157448],[136.828321,35.157633],[136.828256,35.157643],[136.828196,35.157653],[136.827806,35.157717],[136.827674,35.157872],[136.82763,35.157923],[136.827578,35.157985],[136.82751,35.158005],[136.827099,35.158029],[136.825974,35.158049],[136.825747,35.157991],[136.825686,35.157976],[136.825556,35.157944],[136.825296,35.157881],[136.825241,35.157875],[136.824499,35.157932],[136.824006,35.157966],[136.823587,35.158023],[136.823274,35.158078],[136.822859,35.158081],[136.822568,35.158196],[136.822486,35.158211],[136.821876,35.15828],[136.821273,35.158386],[136.820815,35.158494],[136.820156,35.158568],[136.820099,35.158574],[136.819941,35.158592],[136.818871,35.158714],[136.818471,35.158766],[136.817928,35.158883],[136.817769,35.158918],[136.817556,35.158938],[136.817545,35.158938],[136.817338,35.158933],[136.81732,35.158932],[136.817368,35.159297],[136.817373,35.159335],[136.817455,35.159494],[136.817428,35.159691],[136.817467,35.159908],[136.817588,35.16105],[136.817603,35.1611],[136.817614,35.161137],[136.817681,35.16116],[136.817704,35.161169],[136.817918,35.161254],[136.81804,35.161303],[136.818081,35.161398],[136.818114,35.161512],[136.818167,35.161788],[136.81819,35.161992],[136.818182,35.162185],[136.818276,35.162616],[136.818307,35.162914],[136.818301,35.163026],[136.818313,35.163243],[136.818323,35.16363],[136.81841,35.164119],[136.818537,35.164539],[136.818558,35.164694],[136.818418,35.164688],[136.81829,35.164683],[136.818264,35.164627],[136.817903,35.164676],[136.817631,35.16471],[136.816456,35.164886],[136.816446,35.165297],[136.816432,35.165499],[136.816417,35.165725],[136.816359,35.166525],[136.816358,35.166705],[136.816384,35.166915],[136.816864,35.166855],[136.817265,35.166813],[136.817886,35.166761],[136.81837,35.166706],[136.819927,35.1664],[136.819873,35.166039],[136.819807,35.165644],[136.820023,35.165603],[136.820164,35.165589],[136.820189,35.165791],[136.820282,35.165794],[136.820463,35.1658],[136.821199,35.165837],[136.821321,35.165895],[136.82136,35.165922],[136.821391,35.165977],[136.821468,35.16617],[136.82149,35.166262],[136.821566,35.166565],[136.821618,35.166814],[136.821798,35.166983],[136.822037,35.167138],[136.822229,35.167206],[136.822503,35.167263],[136.822731,35.167289],[136.823107,35.167265],[136.823276,35.167228],[136.823457,35.167188],[136.823511,35.167179],[136.823555,35.167153],[136.823592,35.167121],[136.823866,35.167064],[136.824102,35.167015],[136.824542,35.166901],[136.824592,35.166591],[136.824662,35.166487],[136.824731,35.166383],[136.824863,35.166295],[136.824988,35.166207],[136.825029,35.166185],[136.825078,35.166176]]]}},{"type":"Feature","id":"234240070","properties":{"KEY_CODE":"234240070","PREF":"23","CITY":"424","S_AREA":"007000","PREF_NAME":"愛知県","CITY_NAME":"大治町","S_NAME":"大字鎌須賀","HCODE":8101,"AREA":282040.796,"KIGO_E":"","JINKO":1882,"SETAI":804,"X_CODE":136.82949,"Y_CODE":35.164233},"geometry":{"type":"Polygon","coordinates":[[[136.830624,35.159112],[136.830562,35.159108],[136.830398,35.159146],[136.830186,35.159221],[136.829968,35.159343],[136.829713,35.159538],[136.829596,35.159629],[136.829528,35.159682],[136.829398,35.159824],[136.829357,35.159916],[136.829317,35.159995],[136.829144,35.160411],[136.829013,35.160719],[136.828986,35.160798],[136.828983,35.160808],[136.828956,35.161238],[136.828949,35.161357],[136.828935,35.161427],[136.828935,35.161468],[136.82894,35.161517],[136.828959,35.161623],[136.828965,35.161659],[136.828972,35.161704],[136.82898,35.161785],[136.828989,35.162067],[136.82902,35.162447],[136.829021,35.162557],[136.828952,35.16276],[136.828883,35.162949],[136.828598,35.163415],[136.828544,35.163499],[136.828124,35.164189],[136.827879,35.164535],[136.82771,35.1647],[136.827525,35.16495],[136.827466,35.165033],[136.827427,35.165068],[136.827372,35.165104],[136.827318,35.165132],[136.827272,35.165149],[136.827222,35.165161],[136.827159,35.165166],[136.826879,35.165196],[136.826685,35.16521],[136.826689,35.165244],[136.826774,35.165743],[136.826821,35.166037],[136.826892,35.166539],[136.826998,35.167065],[136.827065,35.167399],[136.827151,35.167732],[136.827234,35.167934],[136.827293,35.168071],[136.827343,35.168145],[136.827638,35.168569],[136.827995,35.169077],[136.828461,35.169611],[136.828918,35.169283],[136.828965,35.169225],[136.828988,35.169137],[136.828991,35.168994],[136.829271,35.168816],[136.829148,35.168334],[136.829386,35.168296],[136.829358,35.168176],[136.829623,35.168132],[136.82962,35.168121],[136.829545,35.167782],[136.829748,35.167243],[136.829899,35.167035],[136.830116,35.166727],[136.830234,35.166531],[136.830686,35.16578],[136.830841,35.165482],[136.830858,35.165398],[136.830877,35.165254],[136.830922,35.165168],[136.831311,35.164988],[136.831304,35.164976],[136.831261,35.164898],[136.831256,35.164872],[136.831242,35.164806],[136.831264,35.16469],[136.8314,35.164392],[136.831436,35.164324],[136.831463,35.164185],[136.831471,35.164065],[136.831454,35.163946],[136.831411,35.16381],[136.831316,35.163606],[136.83128,35.163503],[136.831351,35.163318],[136.831398,35.163254],[136.831429,35.163194],[136.831439,35.163176],[136.831525,35.163048],[136.831747,35.162789],[136.831844,35.162592],[136.83184,35.162336],[136.831841,35.162253],[136.831855,35.162185],[136.831855,35.162114],[136.831625,35.162068],[136.831567,35.162027],[136.83149,35.161949],[136.831485,35.161937],[136.831459,35.161873],[136.83149,35.161718],[136.831554,35.161623],[136.831638,35.161542],[136.83176,35.161396],[136.831776,35.161332],[136.831781,35.16115],[136.831785,35.160699],[136.83183,35.160465],[136.831861,35.160357],[136.831888,35.160261],[136.832003,35.160056],[136.831962,35.160027],[136.831804,35.159904],[136.831702,35.159815],[136.831511,35.159673],[136.831465,35.15964],[136.831358,35.159552],[136.83109,35.159366],[136.830892,35.159243],[136.830624,35.159112]]]}},{"type":"Feature","id":"234240080","properties":{"KEY_CODE":"234240080","PREF":"23","CITY":"424","S_AREA":"008000","PREF_NAME":"愛知県","CITY_NAME":"大治町","S_NAME":"大字八ツ屋","HCODE":8101,"AREA":622422.142,"KIGO_E":"","JINKO":717,"SETAI":359,"X_CODE":136.834252,"Y_CODE":35.170985},"geometry":{"type":"Polygon","coordinates":[[[136.837887,35.176106],[136.83821,35.175999],[136.838344,35.176005],[136.838405,35.175952],[136.838919,35.175803],[136.839012,35.175797],[136.839577,35.175416],[136.840856,35.174429],[136.841156,35.174205],[136.840879,35.173974],[136.840608,35.173733],[136.836706,35.170431],[136.836393,35.170162],[136.836176,35.169975],[136.835955,35.169785],[136.835896,35.169734],[136.835483,35.16931],[136.834643,35.168446],[136.834337,35.167973],[136.833961,35.167392],[136.83382,35.167016],[136.833496,35.166156],[136.833485,35.166127],[136.833248,35.165102],[136.833009,35.16512],[136.8328,35.165148],[136.832503,35.16518],[136.832279,35.165205],[136.832256,35.164966],[136.832254,35.164943],[136.832301,35.164816],[136.832045,35.164902],[136.832035,35.164981],[136.831942,35.16507],[136.831852,35.165116],[136.831801,35.165144],[136.831663,35.165181],[136.831531,35.165159],[136.831422,35.165099],[136.831369,35.165047],[136.831316,35.164996],[136.831311,35.164988],[136.830922,35.165168],[136.830877,35.165254],[136.830858,35.165398],[136.830841,35.165482],[136.830686,35.16578],[136.830234,35.166531],[136.830116,35.166727],[136.829899,35.167035],[136.829748,35.167243],[136.829545,35.167782],[136.82962,35.168121],[136.829623,35.168132],[136.829358,35.168176],[136.829386,35.168296],[136.829148,35.168334],[136.829271,35.168816],[136.828991,35.168994],[136.828988,35.169137],[136.828965,35.169225],[136.828918,35.169283],[136.828461,35.169611],[136.827995,35.169077],[136.82775,35.169227],[136.827302,35.169448],[136.827429,35.169605],[136.827558,35.169766],[136.827499,35.169788],[136.827486,35.16986],[136.827768,35.17008],[136.827893,35.170106],[136.827941,35.170152],[136.828111,35.170318],[136.828677,35.169868],[136.829611,35.170656],[136.831364,35.171964],[136.832279,35.172591],[136.833319,35.173247],[136.833524,35.173374],[136.833709,35.173488],[136.834467,35.173987],[136.834927,35.174307],[136.835131,35.17445],[136.835834,35.174943],[136.835433,35.175353],[136.835512,35.175413],[136.835847,35.175668],[136.835806,35.175714],[136.835883,35.17578],[136.835955,35.176012],[136.836041,35.176151],[136.836196,35.176562],[136.836259,35.176655],[136.836296,35.176698],[136.83635,35.176711],[136.836495,35.176714],[136.836772,35.176724],[136.836823,35.176744],[136.837269,35.176302],[136.837887,35.176106]]]}},{"type":"Feature","id":"234240090","properties":{"KEY_CODE":"234240090","PREF":"23","CITY":"424","S_AREA":"009000","PREF_NAME":"愛知県","CITY_NAME":"大治町","S_NAME":"大字長牧","HCODE":8101,"AREA":369080.397,"KIGO_E":"","JINKO":2028,"SETAI":788,"X_CODE":136.834929,"Y_CODE":35.180067},"geometry":{"type":"Polygon","coordinates":[[[136.834981,35.185363],[136.835016,35.184592],[136.835172,35.184597],[136.835217,35.183808],[136.835772,35.183821],[136.835778,35.183338],[136.836364,35.183342],[136.836399,35.182711],[136.836401,35.182685],[136.836911,35.182702],[136.836932,35.182514],[136.836951,35.182189],[136.837184,35.182183],[136.83721,35.181648],[136.837371,35.181659],[136.837445,35.180587],[136.83752,35.179509],[136.83763,35.179511],[136.837746,35.177979],[136.837766,35.177764],[136.837686,35.177712],[136.837637,35.177682],[136.837482,35.177586],[136.837381,35.177488],[136.837296,35.177373],[136.837128,35.17699],[136.836931,35.176821],[136.836823,35.176744],[136.836772,35.176724],[136.836495,35.176714],[136.83635,35.176711],[136.836296,35.176698],[136.836259,35.176655],[136.836196,35.176562],[136.836041,35.176151],[136.835955,35.176012],[136.835883,35.17578],[136.835806,35.175714],[136.835847,35.175668],[136.835512,35.175413],[136.835433,35.175353],[136.83533,35.175446],[136.835127,35.175508],[136.83518,35.175632],[136.834698,35.175772],[136.83474,35.17588],[136.83433,35.175916],[136.83434,35.176015],[136.833739,35.176354],[136.833418,35.176417],[136.833492,35.176781],[136.833078,35.176792],[136.833117,35.176919],[136.832947,35.176936],[136.832831,35.176947],[136.832849,35.177271],[136.832386,35.177299],[136.832418,35.177519],[136.831803,35.177765],[136.831801,35.177914],[136.831323,35.177935],[136.831439,35.178633],[136.831587,35.178624],[136.831617,35.178857],[136.8317,35.178835],[136.832288,35.17873],[136.832623,35.178623],[136.832693,35.178767],[136.832781,35.178947],[136.83285,35.179206],[136.832861,35.179279],[136.832917,35.17966],[136.832963,35.179856],[136.832973,35.180039],[136.833066,35.180392],[136.833027,35.180643],[136.833175,35.181448],[136.833176,35.181454],[136.833216,35.181708],[136.833228,35.181858],[136.833215,35.182252],[136.833218,35.182367],[136.833221,35.182486],[136.833215,35.182617],[136.83318,35.182881],[136.833151,35.183176],[136.833121,35.183418],[136.833064,35.18364],[136.833221,35.183728],[136.833251,35.183744],[136.833364,35.183806],[136.833238,35.184313],[136.833058,35.18492],[136.832983,35.184949],[136.832955,35.18495],[136.832945,35.184962],[136.833051,35.185219],[136.833385,35.185206],[136.83346,35.185281],[136.834236,35.185327],[136.834981,35.185363]]]}},{"type":"Feature","id":"234240100","properties":{"KEY_CODE":"234240100","PREF":"23","CITY":"424","S_AREA":"010000","PREF_NAME":"愛知県","CITY_NAME":"大治町","S_NAME":"大字東條","HCODE":8101,"AREA":233995.146,"KIGO_E":"","JINKO":1142,"SETAI":491,"X_CODE":136.829033,"Y_CODE":35.172375},"geometry":{"type":"Polygon","coordinates":[[[136.834052,35.174389],[136.834467,35.173987],[136.833709,35.173488],[136.833524,35.173374],[136.833319,35.173247],[136.832279,35.172591],[136.831364,35.171964],[136.829611,35.170656],[136.828677,35.169868],[136.828111,35.170318],[136.827941,35.170152],[136.827893,35.170106],[136.827768,35.17008],[136.827486,35.16986],[136.827458,35.169864],[136.827425,35.169873],[136.827393,35.169883],[136.827363,35.1699],[136.827341,35.169918],[136.82731,35.169956],[136.827234,35.16997],[136.827133,35.169972],[136.827029,35.169972],[136.826906,35.170017],[136.826792,35.170043],[136.826591,35.170081],[136.82654,35.170089],[136.826485,35.170091],[136.826437,35.170092],[136.826395,35.170099],[136.826343,35.170118],[136.826295,35.170135],[136.826244,35.170157],[136.826211,35.170175],[136.82618,35.170196],[136.826133,35.170225],[136.826093,35.170243],[136.826052,35.170258],[136.826016,35.170265],[136.825975,35.170267],[136.825928,35.170265],[136.825926,35.170333],[136.825825,35.170818],[136.825469,35.172516],[136.825336,35.173073],[136.825137,35.173114],[136.825298,35.17388],[136.826198,35.173766],[136.827244,35.173624],[136.828103,35.17351],[136.828136,35.173523],[136.828693,35.173453],[136.828774,35.173858],[136.830401,35.173637],[136.83051,35.17399],[136.830599,35.174262],[136.831348,35.17404],[136.83138,35.174182],[136.83153,35.174169],[136.831555,35.174255],[136.831836,35.174229],[136.832114,35.17419],[136.832148,35.174395],[136.832846,35.174308],[136.832861,35.174402],[136.833337,35.174485],[136.833491,35.174504],[136.833638,35.174503],[136.833752,35.174486],[136.83394,35.174434],[136.834052,35.174389]]]}},{"type":"Feature","id":"234240110","properties":{"KEY_CODE":"234240110","PREF":"23","CITY":"424","S_AREA":"011000","PREF_NAME":"愛知県","CITY_NAME":"大治町","S_NAME":"大字北間島","HCODE":8101,"AREA":324216.662,"KIGO_E":"","JINKO":2126,"SETAI":862,"X_CODE":136.830204,"Y_CODE":35.175832},"geometry":{"type":"Polygon","coordinates":[[[136.831617,35.178857],[136.831587,35.178624],[136.831439,35.178633],[136.831323,35.177935],[136.831801,35.177914],[136.831803,35.177765],[136.832418,35.177519],[136.832386,35.177299],[136.832849,35.177271],[136.832831,35.176947],[136.832947,35.176936],[136.833117,35.176919],[136.833078,35.176792],[136.833492,35.176781],[136.833418,35.176417],[136.833739,35.176354],[136.83434,35.176015],[136.83433,35.175916],[136.83474,35.17588],[136.834698,35.175772],[136.83518,35.175632],[136.835127,35.175508],[136.83533,35.175446],[136.835433,35.175353],[136.835834,35.174943],[136.835131,35.17445],[136.834927,35.174307],[136.834467,35.173987],[136.834052,35.174389],[136.83394,35.174434],[136.833752,35.174486],[136.833638,35.174503],[136.833491,35.174504],[136.833337,35.174485],[136.832861,35.174402],[136.832846,35.174308],[136.832148,35.174395],[136.832114,35.17419],[136.831836,35.174229],[136.831555,35.174255],[136.83153,35.174169],[136.83138,35.174182],[136.831348,35.17404],[136.830599,35.174262],[136.83051,35.17399],[136.830401,35.173637],[136.828774,35.173858],[136.828693,35.173453],[136.828136,35.173523],[136.828103,35.17351],[136.827244,35.173624],[136.826198,35.173766],[136.825298,35.17388],[136.825321,35.173986],[136.825707,35.175046],[136.82578,35.175031],[136.825816,35.17513],[136.826291,35.175017],[136.826412,35.175449],[136.826481,35.175673],[136.826663,35.176128],[136.82676,35.176462],[136.826823,35.176681],[136.826854,35.176857],[136.826949,35.177407],[136.826928,35.177495],[136.828862,35.177108],[136.829217,35.17916],[136.829486,35.17916],[136.829818,35.179128],[136.830357,35.179037],[136.83104,35.178922],[136.831483,35.178892],[136.831617,35.178857]]]}},{"type":"Feature","id":"234240120","properties":{"KEY_CODE":"234240120","PREF":"23","CITY":"424","S_AREA":"012000","PREF_NAME":"愛知県","CITY_NAME":"大治町","S_NAME":"大字堀之内","HCODE":8101,"AREA":484634.489,"KIGO_E":"","JINKO":2001,"SETAI":846,"X_CODE":136.824334,"Y_CODE":35.176336},"geometry":{"type":"Polygon","coordinates":[[[136.828546,35.179179],[136.82921,35.179159],[136.829217,35.17916],[136.828862,35.177108],[136.826928,35.177495],[136.826949,35.177407],[136.826854,35.176857],[136.826823,35.176681],[136.82676,35.176462],[136.826663,35.176128],[136.826481,35.175673],[136.826412,35.175449],[136.826291,35.175017],[136.825816,35.17513],[136.82578,35.175031],[136.825707,35.175046],[136.825321,35.173986],[136.825298,35.17388],[136.825137,35.173114],[136.825336,35.173073],[136.825469,35.172516],[136.825825,35.170818],[136.825926,35.170333],[136.825842,35.170301],[136.8258,35.170287],[136.825757,35.170282],[136.825684,35.17029],[136.825213,35.170354],[136.824786,35.17042],[136.824439,35.170466],[136.824148,35.170512],[136.823932,35.170565],[136.823119,35.170758],[136.822677,35.170839],[136.822451,35.170882],[136.821762,35.171017],[136.821683,35.171049],[136.821792,35.172641],[136.821752,35.172684],[136.821862,35.173402],[136.821964,35.173875],[136.822049,35.174168],[136.822094,35.174295],[136.822156,35.174469],[136.822264,35.174736],[136.822114,35.174801],[136.822088,35.174923],[136.821739,35.175043],[136.822156,35.17591],[136.822382,35.17639],[136.822532,35.176638],[136.822699,35.176914],[136.822777,35.177067],[136.822805,35.177146],[136.822909,35.177456],[136.823009,35.177748],[136.823077,35.177901],[136.8231,35.177982],[136.823188,35.178243],[136.822442,35.178384],[136.821687,35.178529],[136.820794,35.178718],[136.821187,35.179956],[136.821309,35.180342],[136.821546,35.18117],[136.821664,35.181581],[136.821742,35.181864],[136.823789,35.181421],[136.823789,35.181419],[136.823762,35.181103],[136.82364,35.18072],[136.823697,35.180292],[136.82515,35.180295],[136.825418,35.18022],[136.826027,35.180019],[136.827178,35.179695],[136.827166,35.179391],[136.827105,35.17922],[136.828546,35.179179]]]}}]}