{"type":"FeatureCollection","name":"23441_阿久比町","crs":{"type":"name","properties":{"name":"urn:ogc:def:crs:OGC:1.3:CRS84"}},"features":[{"type":"Feature","id":"234410010","properties":{"KEY_CODE":"234410010","PREF":"23","CITY":"441","S_AREA":"001000","PREF_NAME":"愛知県","CITY_NAME":"阿久比町","S_NAME":"大字横松","HCODE":8101,"AREA":484115.516,"KIGO_E":"","JINKO":298,"SETAI":88,"X_CODE":136.931442,"Y_CODE":34.91444},"geometry":{"type":"Polygon","coordinates":[[[136.93379,34.917664],[136.934173,34.917663],[136.934397,34.917681],[136.934374,34.917583],[136.934283,34.917259],[136.934214,34.916941],[136.934125,34.916653],[136.934109,34.916576],[136.934116,34.916483],[136.934116,34.916371],[136.934029,34.916016],[136.934009,34.915955],[136.933876,34.915793],[136.933507,34.915587],[136.933358,34.915504],[136.933316,34.915464],[136.933298,34.915428],[136.933278,34.915383],[136.933255,34.915312],[136.93325,34.915235],[136.933257,34.915184],[136.933282,34.91513],[136.933329,34.915087],[136.93338,34.915079],[136.933522,34.915072],[136.933607,34.915071],[136.933647,34.915071],[136.933757,34.915055],[136.933893,34.915023],[136.934061,34.914958],[136.934303,34.914877],[136.934412,34.914833],[136.934518,34.914782],[136.934598,34.91474],[136.93469,34.914681],[136.934779,34.914619],[136.934885,34.914555],[136.93498,34.914513],[136.935049,34.914488],[136.93518,34.914451],[136.935316,34.914405],[136.935421,34.914371],[136.935518,34.914329],[136.935626,34.914293],[136.935706,34.914253],[136.936172,34.913895],[136.936306,34.913778],[136.936942,34.913171],[136.937041,34.913058],[136.937145,34.912945],[136.937219,34.912868],[136.937271,34.912802],[136.937373,34.912691],[136.937525,34.912525],[136.937849,34.912234],[136.937578,34.911905],[136.937616,34.911877],[136.937587,34.911848],[136.937581,34.911841],[136.936531,34.910743],[136.936196,34.910968],[136.934952,34.911809],[136.933925,34.912503],[136.932565,34.913442],[136.931354,34.912252],[136.930921,34.911793],[136.930864,34.912],[136.930818,34.911955],[136.929732,34.910863],[136.929397,34.910893],[136.929283,34.91092],[136.929291,34.910961],[136.929079,34.911023],[136.929048,34.911028],[136.928981,34.910979],[136.928503,34.911089],[136.928311,34.911121],[136.928101,34.911157],[136.927884,34.911203],[136.927858,34.911212],[136.927857,34.91129],[136.927849,34.911637],[136.927336,34.911652],[136.927331,34.911968],[136.926985,34.91196],[136.927046,34.912214],[136.927156,34.912514],[136.92723,34.912456],[136.92728,34.912505],[136.927179,34.912575],[136.927187,34.912597],[136.927439,34.913056],[136.927353,34.913158],[136.927359,34.913198],[136.927358,34.913516],[136.927339,34.913679],[136.927353,34.913932],[136.927392,34.914089],[136.927425,34.914315],[136.927497,34.914692],[136.92739,34.915246],[136.927192,34.91587],[136.927018,34.916317],[136.926947,34.916546],[136.926881,34.916882],[136.929772,34.917734],[136.929912,34.917776],[136.930007,34.917787],[136.930335,34.917875],[136.931983,34.918298],[136.932462,34.918031],[136.932746,34.917937],[136.933063,34.917808],[136.933517,34.917674],[136.93379,34.917664]]]}},{"type":"Feature","id":"234410020","properties":{"KEY_CODE":"234410020","PREF":"23","CITY":"441","S_AREA":"002000","PREF_NAME":"愛知県","CITY_NAME":"阿久比町","S_NAME":"大字萩","HCODE":8101,"AREA":495940.476,"KIGO_E":"","JINKO":374,"SETAI":124,"X_CODE":136.930003,"Y_CODE":34.920793},"geometry":{"type":"Polygon","coordinates":[[[136.932919,34.923282],[136.93311,34.923201],[136.933441,34.923296],[136.933642,34.923348],[136.933765,34.923383],[136.933986,34.923531],[136.933941,34.923478],[136.933845,34.92328],[136.933706,34.923025],[136.933674,34.922941],[136.933668,34.922904],[136.933672,34.922791],[136.933661,34.922736],[136.933654,34.92267],[136.933637,34.922602],[136.933629,34.922488],[136.93363,34.922421],[136.933646,34.922314],[136.933665,34.922194],[136.933671,34.922104],[136.933661,34.922066],[136.933589,34.921784],[136.933415,34.921109],[136.933297,34.921147],[136.93317,34.920914],[136.933763,34.920403],[136.933993,34.920223],[136.934134,34.920137],[136.934154,34.920118],[136.934418,34.91992],[136.934598,34.919688],[136.934671,34.919542],[136.934721,34.918873],[136.934644,34.918574],[136.934599,34.918432],[136.93457,34.918297],[136.934501,34.918133],[136.934465,34.918028],[136.934439,34.917932],[136.934432,34.917833],[136.934402,34.917704],[136.934397,34.917681],[136.934173,34.917663],[136.93379,34.917664],[136.933517,34.917674],[136.933063,34.917808],[136.932746,34.917937],[136.932462,34.918031],[136.931983,34.918298],[136.930335,34.917875],[136.930007,34.917787],[136.929912,34.917776],[136.929772,34.917734],[136.926881,34.916882],[136.926848,34.917273],[136.926869,34.917487],[136.926877,34.91778],[136.926881,34.918027],[136.926839,34.918298],[136.926774,34.918484],[136.926695,34.918769],[136.926495,34.919361],[136.92634,34.91977],[136.926173,34.920071],[136.925932,34.920428],[136.925728,34.920711],[136.925553,34.920993],[136.925467,34.921157],[136.925321,34.92145],[136.92509,34.922049],[136.924993,34.922365],[136.92498,34.922568],[136.925028,34.922888],[136.925219,34.922839],[136.925305,34.923189],[136.925323,34.923241],[136.925553,34.922874],[136.926296,34.923166],[136.926687,34.922528],[136.927487,34.922843],[136.927866,34.923],[136.928147,34.923184],[136.928101,34.92337],[136.928559,34.923448],[136.928878,34.923745],[136.928948,34.923809],[136.930086,34.924805],[136.930275,34.924936],[136.930333,34.924991],[136.930565,34.925154],[136.930816,34.925219],[136.931173,34.924861],[136.931846,34.924174],[136.932126,34.924035],[136.932301,34.92386],[136.932416,34.923735],[136.932609,34.923555],[136.932919,34.923282]]]}},{"type":"Feature","id":"234410030","properties":{"KEY_CODE":"234410030","PREF":"23","CITY":"441","S_AREA":"003000","PREF_NAME":"愛知県","CITY_NAME":"阿久比町","S_NAME":"大字宮津","HCODE":8101,"AREA":1628018.609,"KIGO_E":"","JINKO":4039,"SETAI":1547,"X_CODE":136.928889,"Y_CODE":34.93002},"geometry":{"type":"Polygon","coordinates":[[[136.925226,34.938081],[136.925303,34.937939],[136.925434,34.937991],[136.925723,34.937986],[136.925986,34.937973],[136.927207,34.937775],[136.927465,34.937774],[136.927561,34.937787],[136.927663,34.937809],[136.927729,34.937474],[136.927714,34.937316],[136.927655,34.937171],[136.927719,34.936941],[136.92779,34.936629],[136.927863,34.936317],[136.928115,34.936096],[136.928257,34.936192],[136.928431,34.936311],[136.928683,34.936137],[136.928727,34.935821],[136.929083,34.935916],[136.929194,34.935897],[136.929244,34.935867],[136.929399,34.935805],[136.929746,34.935838],[136.929961,34.93579],[136.930021,34.935767],[136.930091,34.935795],[136.93019,34.935804],[136.930324,34.935817],[136.930467,34.935793],[136.930575,34.93578],[136.930714,34.93578],[136.930888,34.935748],[136.930978,34.935669],[136.931089,34.935639],[136.931346,34.935652],[136.931374,34.935671],[136.931628,34.935797],[136.931741,34.935853],[136.932269,34.935953],[136.932366,34.935712],[136.932303,34.935615],[136.93212,34.935545],[136.932094,34.935568],[136.93205,34.935542],[136.931972,34.935526],[136.931881,34.935405],[136.931935,34.935227],[136.932186,34.934985],[136.932073,34.934872],[136.932224,34.934765],[136.932193,34.934656],[136.932136,34.934572],[136.932039,34.934462],[136.932251,34.934309],[136.932342,34.934243],[136.932493,34.934142],[136.932556,34.934143],[136.932562,34.934097],[136.932579,34.933968],[136.932105,34.933538],[136.931941,34.933465],[136.931784,34.933416],[136.9317,34.933228],[136.931646,34.933105],[136.931658,34.932998],[136.9322,34.932773],[136.932441,34.933106],[136.932705,34.933251],[136.933011,34.933454],[136.933326,34.933276],[136.933421,34.933401],[136.933645,34.93333],[136.933819,34.933465],[136.933897,34.93351],[136.933938,34.933505],[136.934049,34.933452],[136.934181,34.933343],[136.934176,34.933456],[136.934144,34.933536],[136.934054,34.933528],[136.933794,34.933932],[136.9339,34.93399],[136.934037,34.933914],[136.934135,34.933837],[136.934264,34.933904],[136.934333,34.933822],[136.934379,34.933694],[136.934632,34.933738],[136.934694,34.933757],[136.934763,34.933827],[136.934802,34.933914],[136.934777,34.933945],[136.934847,34.933967],[136.935245,34.933651],[136.93504,34.933456],[136.935076,34.933408],[136.935002,34.933317],[136.935261,34.93319],[136.93546,34.933195],[136.935661,34.933177],[136.935806,34.933143],[136.935964,34.933068],[136.936139,34.933133],[136.936231,34.933186],[136.936385,34.933225],[136.936516,34.933316],[136.93675,34.933413],[136.936969,34.933461],[136.937095,34.933377],[136.937236,34.933353],[136.937626,34.93333],[136.937688,34.933293],[136.937751,34.933246],[136.937898,34.933169],[136.937962,34.933086],[136.937951,34.933013],[136.937985,34.932963],[136.938068,34.932988],[136.938128,34.93294],[136.938227,34.932925],[136.938293,34.932983],[136.938338,34.932989],[136.938588,34.93273],[136.938549,34.932666],[136.938503,34.932624],[136.938398,34.932575],[136.93831,34.932553],[136.938252,34.932547],[136.938065,34.932545],[136.937843,34.93253],[136.93767,34.932502],[136.937478,34.932451],[136.937334,34.932401],[136.937017,34.932286],[136.937009,34.932281],[136.936827,34.931777],[136.936838,34.931723],[136.936904,34.93151],[136.936905,34.931419],[136.936858,34.931335],[136.936785,34.931252],[136.936583,34.931089],[136.936318,34.930913],[136.935918,34.930677],[136.935866,34.930605],[136.935731,34.930209],[136.935652,34.929888],[136.935648,34.929872],[136.935596,34.929635],[136.935423,34.929033],[136.935395,34.928835],[136.935409,34.928705],[136.93543,34.928617],[136.935503,34.928498],[136.935567,34.928396],[136.935628,34.928308],[136.935649,34.928263],[136.935685,34.928188],[136.935761,34.928061],[136.935812,34.927975],[136.935845,34.927915],[136.935911,34.927789],[136.935965,34.927618],[136.936346,34.927336],[136.936921,34.926987],[136.936909,34.926895],[136.936903,34.926755],[136.936911,34.926714],[136.936939,34.926653],[136.936985,34.926549],[136.937013,34.926505],[136.93703,34.926448],[136.937034,34.926368],[136.93703,34.926304],[136.936992,34.926156],[136.936863,34.925987],[136.936663,34.925767],[136.936446,34.925619],[136.936057,34.925447],[136.935869,34.925317],[136.935799,34.925246],[136.935758,34.925205],[136.935719,34.925166],[136.935613,34.925057],[136.935507,34.92493],[136.934694,34.924067],[136.934602,34.923962],[136.934494,34.923856],[136.934402,34.923789],[136.934285,34.923747],[136.934223,34.923718],[136.934168,34.923723],[136.934077,34.923744],[136.934018,34.923644],[136.934003,34.923621],[136.93403,34.923584],[136.933986,34.923531],[136.933765,34.923383],[136.933642,34.923348],[136.933441,34.923296],[136.93311,34.923201],[136.932919,34.923282],[136.932609,34.923555],[136.932416,34.923735],[136.932301,34.92386],[136.932126,34.924035],[136.931846,34.924174],[136.931173,34.924861],[136.930816,34.925219],[136.930565,34.925154],[136.930333,34.924991],[136.930275,34.924936],[136.930086,34.924805],[136.928948,34.923809],[136.928878,34.923745],[136.928559,34.923448],[136.928101,34.92337],[136.928147,34.923184],[136.927866,34.923],[136.927487,34.922843],[136.926687,34.922528],[136.926296,34.923166],[136.925553,34.922874],[136.925323,34.923241],[136.925305,34.923189],[136.925219,34.922839],[136.925028,34.922888],[136.925056,34.922972],[136.925104,34.923126],[136.925156,34.923356],[136.925238,34.923711],[136.925243,34.923988],[136.925237,34.924172],[136.925197,34.924453],[136.925192,34.924591],[136.925143,34.924782],[136.925077,34.925168],[136.925054,34.925372],[136.92502,34.925697],[136.92491,34.925969],[136.924628,34.926181],[136.924546,34.926397],[136.924457,34.92652],[136.924164,34.92672],[136.923926,34.92685],[136.923699,34.926974],[136.923451,34.927146],[136.923278,34.927266],[136.923126,34.927434],[136.923026,34.927548],[136.922868,34.927717],[136.922698,34.927869],[136.922522,34.927973],[136.922288,34.928061],[136.92207,34.928143],[136.921887,34.928225],[136.921654,34.928314],[136.921365,34.928458],[136.921058,34.928668],[136.92085,34.928884],[136.920699,34.929067],[136.920507,34.929387],[136.920294,34.929702],[136.920072,34.930095],[136.919931,34.930393],[136.919781,34.930718],[136.919645,34.931028],[136.919474,34.931278],[136.919367,34.931452],[136.919164,34.93182],[136.919085,34.932028],[136.919054,34.932246],[136.919045,34.932416],[136.919013,34.932654],[136.918992,34.932798],[136.919057,34.932781],[136.919399,34.932682],[136.919437,34.932216],[136.919614,34.931818],[136.91964,34.931754],[136.919667,34.931739],[136.919905,34.931843],[136.920413,34.931108],[136.921213,34.93146],[136.921482,34.931582],[136.92105,34.932262],[136.921653,34.932514],[136.921881,34.932388],[136.922029,34.932393],[136.922179,34.932446],[136.922329,34.932539],[136.922385,34.932629],[136.922894,34.93236],[136.923057,34.932262],[136.923368,34.932369],[136.923684,34.932422],[136.923676,34.932568],[136.923647,34.932606],[136.923631,34.932618],[136.923616,34.932622],[136.923432,34.93267],[136.92342,34.932683],[136.923425,34.932682],[136.923519,34.932746],[136.923578,34.932785],[136.923661,34.932858],[136.923698,34.932918],[136.923715,34.932956],[136.923732,34.933019],[136.923723,34.933095],[136.923672,34.933406],[136.923533,34.933739],[136.923419,34.933986],[136.923419,34.934054],[136.923424,34.93419],[136.923403,34.934465],[136.923373,34.934661],[136.923354,34.934877],[136.923287,34.935349],[136.923273,34.935429],[136.923279,34.935614],[136.923292,34.935983],[136.924592,34.936315],[136.924615,34.93674],[136.924793,34.936887],[136.924806,34.937056],[136.924818,34.937112],[136.924762,34.93717],[136.924775,34.93731],[136.924817,34.937472],[136.924824,34.937665],[136.92492,34.937741],[136.924985,34.937805],[136.925016,34.937851],[136.925039,34.937899],[136.925071,34.937926],[136.925226,34.938081]]]}},{"type":"Feature","id":"234410040","properties":{"KEY_CODE":"234410040","PREF":"23","CITY":"441","S_AREA":"004000","PREF_NAME":"愛知県","CITY_NAME":"阿久比町","S_NAME":"大字板山","HCODE":8101,"AREA":4906.32,"KIGO_E":"E2","JINKO":0,"SETAI":0,"X_CODE":136.932542,"Y_CODE":34.934479},"geometry":{"type":"Polygon","coordinates":[[[136.932556,34.934143],[136.932493,34.934142],[136.932342,34.934243],[136.932251,34.934309],[136.932039,34.934462],[136.932136,34.934572],[136.932193,34.934656],[136.932224,34.934765],[136.932073,34.934872],[136.932186,34.934985],[136.932587,34.934716],[136.932804,34.934597],[136.932976,34.934595],[136.933014,34.934529],[136.933027,34.93416],[136.932556,34.934143]]]}},{"type":"Feature","id":"234410040","properties":{"KEY_CODE":"234410040","PREF":"23","CITY":"441","S_AREA":"004000","PREF_NAME":"愛知県","CITY_NAME":"阿久比町","S_NAME":"大字板山","HCODE":8101,"AREA":2806.464,"KIGO_E":"E3","JINKO":0,"SETAI":0,"X_CODE":136.92942,"Y_CODE":34.936211},"geometry":{"type":"Polygon","coordinates":[[[136.929756,34.936446],[136.929399,34.935805],[136.929244,34.935867],[136.929194,34.935897],[136.929083,34.935916],[136.929096,34.935959],[136.929119,34.935997],[136.92915,34.936028],[136.92915,34.936076],[136.929154,34.936136],[136.929275,34.936355],[136.929372,34.936506],[136.929511,34.936565],[136.929621,34.936602],[136.929756,34.936446]]]}},{"type":"Feature","id":"234410040","properties":{"KEY_CODE":"234410040","PREF":"23","CITY":"441","S_AREA":"004000","PREF_NAME":"愛知県","CITY_NAME":"阿久比町","S_NAME":"大字板山","HCODE":8101,"AREA":2203812.437,"KIGO_E":"E1","JINKO":1108,"SETAI":401,"X_CODE":136.933941,"Y_CODE":34.944564},"geometry":{"type":"Polygon","coordinates":[[[136.933752,34.95154],[136.934073,34.951151],[136.934372,34.951306],[136.934452,34.951243],[136.934905,34.950628],[136.936009,34.95131],[136.936058,34.951315],[136.936249,34.951173],[136.936562,34.951533],[136.936758,34.951692],[136.936889,34.951774],[136.936939,34.951706],[136.936939,34.951614],[136.93693,34.95157],[136.936869,34.951373],[136.93681,34.951236],[136.936775,34.95113],[136.936617,34.950788],[136.936554,34.950681],[136.93653,34.950634],[136.936866,34.95058],[136.937764,34.950551],[136.938483,34.950488],[136.938922,34.950322],[136.939057,34.950252],[136.939178,34.950195],[136.939271,34.950114],[136.939348,34.949997],[136.939376,34.949779],[136.939349,34.949544],[136.939124,34.948819],[136.939307,34.948737],[136.940486,34.94845],[136.939976,34.94716],[136.939972,34.947142],[136.939941,34.947026],[136.939895,34.946864],[136.939855,34.946548],[136.939843,34.946342],[136.939848,34.946277],[136.939857,34.946218],[136.939881,34.946216],[136.940074,34.946205],[136.940529,34.946114],[136.940543,34.946111],[136.940827,34.946056],[136.941304,34.945817],[136.941422,34.945871],[136.941552,34.946049],[136.941618,34.946066],[136.941644,34.946046],[136.942109,34.945679],[136.94233,34.945489],[136.942486,34.945423],[136.942621,34.945277],[136.942677,34.945134],[136.942697,34.944831],[136.942686,34.944583],[136.94267,34.944451],[136.942893,34.944243],[136.943008,34.944122],[136.943111,34.943914],[136.943218,34.943901],[136.94345,34.943955],[136.943536,34.943975],[136.943758,34.943774],[136.943926,34.943593],[136.944122,34.94338],[136.944164,34.943322],[136.944209,34.943175],[136.944148,34.943098],[136.944114,34.943042],[136.944078,34.94301],[136.944048,34.942976],[136.943979,34.942834],[136.943956,34.942719],[136.943997,34.942599],[136.94405,34.942518],[136.944143,34.942337],[136.944161,34.942217],[136.944136,34.94207],[136.944012,34.941853],[136.943932,34.941712],[136.943812,34.941541],[136.943767,34.941477],[136.943624,34.941346],[136.943509,34.941251],[136.943231,34.941062],[136.941603,34.939694],[136.941371,34.939445],[136.941143,34.939263],[136.94084,34.938681],[136.940795,34.938322],[136.940786,34.938252],[136.940811,34.938165],[136.940854,34.938055],[136.940853,34.937844],[136.940814,34.937595],[136.940777,34.937498],[136.940705,34.937442],[136.940579,34.937373],[136.940156,34.937302],[136.939738,34.937286],[136.939463,34.937323],[136.93895,34.937425],[136.938862,34.937412],[136.938812,34.937379],[136.938774,34.937115],[136.938691,34.936859],[136.938421,34.936474],[136.938243,34.936371],[136.938138,34.936285],[136.938097,34.936229],[136.938033,34.936187],[136.937994,34.936207],[136.937575,34.936285],[136.937397,34.936392],[136.937272,34.93642],[136.937173,34.936452],[136.937063,34.936517],[136.936305,34.936737],[136.936291,34.936741],[136.936287,34.936734],[136.935899,34.936659],[136.935726,34.936666],[136.935488,34.936792],[136.935244,34.936963],[136.935029,34.93706],[136.934878,34.937055],[136.934732,34.936981],[136.934571,34.936904],[136.934184,34.936742],[136.933888,34.936619],[136.93372,34.936584],[136.933721,34.936586],[136.933211,34.936613],[136.932672,34.936676],[136.932502,34.936712],[136.932041,34.93702],[136.932141,34.937148],[136.932288,34.937205],[136.932278,34.937278],[136.93222,34.937399],[136.931807,34.938262],[136.931745,34.938392],[136.93162,34.938524],[136.931526,34.938623],[136.931489,34.938662],[136.931014,34.938674],[136.930876,34.938594],[136.930755,34.938523],[136.930485,34.938475],[136.930357,34.938488],[136.930325,34.938143],[136.930197,34.938151],[136.929644,34.93814],[136.92949,34.938145],[136.929527,34.938268],[136.929386,34.938277],[136.929374,34.938153],[136.929195,34.938152],[136.929197,34.938289],[136.928861,34.938288],[136.928851,34.938288],[136.928746,34.938678],[136.928831,34.938706],[136.928337,34.939196],[136.92815,34.939367],[136.927929,34.939555],[136.927742,34.939735],[136.927561,34.939973],[136.927549,34.94014],[136.927494,34.940549],[136.927487,34.940607],[136.927573,34.940778],[136.927599,34.940883],[136.927573,34.940964],[136.927473,34.941113],[136.927387,34.941227],[136.927297,34.941366],[136.927246,34.941445],[136.927097,34.941611],[136.926976,34.941743],[136.926804,34.94186],[136.926651,34.941974],[136.926575,34.942089],[136.926344,34.942234],[136.926348,34.942407],[136.926097,34.942402],[136.92609,34.942574],[136.925583,34.942553],[136.92558,34.942723],[136.925376,34.942715],[136.925364,34.94286],[136.925363,34.943159],[136.925363,34.943172],[136.924386,34.943133],[136.924309,34.943343],[136.924396,34.943618],[136.924537,34.944071],[136.924789,34.94409],[136.924837,34.944018],[136.924954,34.944017],[136.925046,34.944035],[136.925109,34.944264],[136.925144,34.94432],[136.925199,34.944336],[136.925311,34.944349],[136.925334,34.944389],[136.925369,34.944409],[136.925418,34.944415],[136.925483,34.944408],[136.925714,34.944363],[136.925727,34.944904],[136.925726,34.945168],[136.925732,34.945483],[136.925767,34.945791],[136.925778,34.945999],[136.925799,34.946146],[136.925857,34.946355],[136.926029,34.946588],[136.926301,34.946849],[136.926469,34.94697],[136.926516,34.947041],[136.9265,34.94712],[136.926507,34.947233],[136.926472,34.947749],[136.926508,34.948004],[136.926609,34.94818],[136.926785,34.948347],[136.926913,34.948475],[136.926932,34.94858],[136.926906,34.948651],[136.92683,34.948722],[136.926457,34.948886],[136.926262,34.949352],[136.926583,34.949496],[136.926648,34.949527],[136.926665,34.949581],[136.926596,34.949659],[136.926477,34.949734],[136.926332,34.949827],[136.92625,34.949936],[136.926183,34.95003],[136.926175,34.950115],[136.92618,34.950206],[136.926199,34.950275],[136.926225,34.950332],[136.926319,34.95046],[136.92647,34.950681],[136.926546,34.950861],[136.92662,34.95095],[136.926765,34.951101],[136.926836,34.951166],[136.926958,34.951303],[136.927061,34.9514],[136.927267,34.951415],[136.927357,34.951452],[136.92752,34.951536],[136.927527,34.951638],[136.927526,34.951745],[136.92755,34.951796],[136.927644,34.951957],[136.927706,34.952197],[136.927746,34.95277],[136.927745,34.952883],[136.927548,34.953051],[136.927528,34.953179],[136.927679,34.953321],[136.927887,34.953466],[136.928191,34.953549],[136.928343,34.953584],[136.928403,34.953766],[136.928448,34.9539],[136.928507,34.95411],[136.928657,34.954146],[136.929547,34.954248],[136.929649,34.95426],[136.929878,34.954291],[136.929952,34.954306],[136.929972,34.95431],[136.930065,34.95425],[136.930312,34.954147],[136.93044,34.954073],[136.930484,34.954027],[136.930535,34.953983],[136.9306,34.953939],[136.930768,34.953824],[136.930878,34.9537],[136.93092,34.95349],[136.930945,34.953359],[136.931046,34.953151],[136.93112,34.953055],[136.931212,34.952998],[136.931455,34.952843],[136.931576,34.952762],[136.931597,34.952753],[136.931995,34.952623],[136.932171,34.952613],[136.932332,34.952605],[136.932427,34.952447],[136.932545,34.952334],[136.932999,34.952153],[136.933204,34.951842],[136.933345,34.95176],[136.933752,34.95154]]]}},{"type":"Feature","id":"234410050","properties":{"KEY_CODE":"234410050","PREF":"23","CITY":"441","S_AREA":"005000","PREF_NAME":"愛知県","CITY_NAME":"阿久比町","S_NAME":"大字福住","HCODE":8101,"AREA":1290673.499,"KIGO_E":"","JINKO":2803,"SETAI":1070,"X_CODE":136.923342,"Y_CODE":34.948287},"geometry":{"type":"Polygon","coordinates":[[[136.923571,34.958465],[136.9236,34.958459],[136.92365,34.958469],[136.923717,34.958477],[136.923794,34.958475],[136.923895,34.958452],[136.924111,34.958413],[136.924185,34.958346],[136.924236,34.958296],[136.924308,34.958218],[136.924373,34.958128],[136.924609,34.958276],[136.924959,34.958453],[136.924989,34.958469],[136.925305,34.958071],[136.925514,34.957812],[136.92578,34.957522],[136.92579,34.95751],[136.926211,34.95703],[136.926238,34.956997],[136.926267,34.956961],[136.926481,34.956706],[136.926649,34.956504],[136.926705,34.956339],[136.926706,34.956337],[136.926732,34.956267],[136.926743,34.956207],[136.926757,34.956137],[136.92676,34.956052],[136.926754,34.955945],[136.926718,34.955833],[136.926681,34.955748],[136.926626,34.955672],[136.926559,34.955585],[136.926475,34.955485],[136.926206,34.955296],[136.926268,34.955227],[136.926594,34.954834],[136.926601,34.954826],[136.927015,34.95434],[136.927158,34.954222],[136.92742,34.954089],[136.927632,34.954041],[136.92791,34.954031],[136.928085,34.954046],[136.928412,34.954095],[136.928507,34.95411],[136.928448,34.9539],[136.928403,34.953766],[136.928343,34.953584],[136.928191,34.953549],[136.927887,34.953466],[136.927679,34.953321],[136.927528,34.953179],[136.927548,34.953051],[136.927745,34.952883],[136.927746,34.95277],[136.927706,34.952197],[136.927644,34.951957],[136.92755,34.951796],[136.927526,34.951745],[136.927527,34.951638],[136.92752,34.951536],[136.927357,34.951452],[136.927267,34.951415],[136.927061,34.9514],[136.926958,34.951303],[136.926836,34.951166],[136.926765,34.951101],[136.92662,34.95095],[136.926546,34.950861],[136.92647,34.950681],[136.926319,34.95046],[136.926225,34.950332],[136.926199,34.950275],[136.92618,34.950206],[136.926175,34.950115],[136.926183,34.95003],[136.92625,34.949936],[136.926332,34.949827],[136.926477,34.949734],[136.926596,34.949659],[136.926665,34.949581],[136.926648,34.949527],[136.926583,34.949496],[136.926262,34.949352],[136.926457,34.948886],[136.92683,34.948722],[136.926906,34.948651],[136.926932,34.94858],[136.926913,34.948475],[136.926785,34.948347],[136.926609,34.94818],[136.926508,34.948004],[136.926472,34.947749],[136.926507,34.947233],[136.9265,34.94712],[136.926516,34.947041],[136.926469,34.94697],[136.926301,34.946849],[136.926029,34.946588],[136.925857,34.946355],[136.925799,34.946146],[136.925778,34.945999],[136.925767,34.945791],[136.925732,34.945483],[136.925726,34.945168],[136.925727,34.944904],[136.925714,34.944363],[136.925483,34.944408],[136.925418,34.944415],[136.925369,34.944409],[136.925334,34.944389],[136.925311,34.944349],[136.925199,34.944336],[136.925144,34.94432],[136.925109,34.944264],[136.925046,34.944035],[136.924954,34.944017],[136.924837,34.944018],[136.924789,34.94409],[136.924537,34.944071],[136.924396,34.943618],[136.924309,34.943343],[136.924386,34.943133],[136.925363,34.943172],[136.925363,34.943159],[136.925364,34.94286],[136.925376,34.942715],[136.92558,34.942723],[136.925583,34.942553],[136.92609,34.942574],[136.926097,34.942402],[136.926348,34.942407],[136.926344,34.942234],[136.926575,34.942089],[136.926651,34.941974],[136.926804,34.94186],[136.926976,34.941743],[136.927097,34.941611],[136.927246,34.941445],[136.927297,34.941366],[136.927387,34.941227],[136.927473,34.941113],[136.927573,34.940964],[136.927599,34.940883],[136.927573,34.940778],[136.927487,34.940607],[136.927494,34.940549],[136.927549,34.94014],[136.927561,34.939973],[136.927742,34.939735],[136.927929,34.939555],[136.92815,34.939367],[136.928337,34.939196],[136.928831,34.938706],[136.928746,34.938678],[136.928159,34.938535],[136.928152,34.938374],[136.928082,34.938302],[136.927925,34.938118],[136.927874,34.938029],[136.927819,34.937941],[136.927756,34.93787],[136.927663,34.937809],[136.927561,34.937787],[136.927465,34.937774],[136.927207,34.937775],[136.925986,34.937973],[136.925723,34.937986],[136.925434,34.937991],[136.925303,34.937939],[136.925226,34.938081],[136.925095,34.938421],[136.925129,34.938713],[136.925115,34.938927],[136.925087,34.939028],[136.925005,34.939141],[136.924898,34.939235],[136.924667,34.939358],[136.923763,34.939837],[136.923741,34.939849],[136.923675,34.93986],[136.923554,34.939861],[136.923249,34.939755],[136.923092,34.939721],[136.92295,34.939739],[136.922863,34.939777],[136.922693,34.939878],[136.922589,34.93997],[136.922553,34.940035],[136.922486,34.940152],[136.922212,34.940214],[136.921842,34.940313],[136.921679,34.940334],[136.92154,34.940349],[136.921417,34.940365],[136.921417,34.940771],[136.92003,34.940763],[136.919965,34.942421],[136.919967,34.942972],[136.919091,34.942828],[136.919208,34.943002],[136.919149,34.943142],[136.91928,34.943287],[136.919488,34.943378],[136.919542,34.943492],[136.919595,34.943639],[136.919408,34.944248],[136.9185,34.94409],[136.918539,34.944193],[136.918601,34.944361],[136.918958,34.945816],[136.918995,34.946204],[136.919033,34.946463],[136.919031,34.946566],[136.918995,34.946661],[136.918958,34.946739],[136.918925,34.946787],[136.918903,34.946824],[136.91887,34.946882],[136.918826,34.946939],[136.91804,34.947984],[136.918124,34.948166],[136.918192,34.948254],[136.918328,34.948429],[136.918414,34.948511],[136.918522,34.948667],[136.918585,34.948811],[136.91861,34.948943],[136.918627,34.949283],[136.91861,34.949496],[136.918587,34.949703],[136.918588,34.949768],[136.918565,34.949896],[136.918542,34.950047],[136.918567,34.950118],[136.918604,34.95017],[136.918632,34.95023],[136.918706,34.950351],[136.918752,34.950429],[136.918595,34.950557],[136.918836,34.950791],[136.91905,34.950989],[136.91912,34.951053],[136.92009,34.950598],[136.92034,34.951051],[136.920072,34.951286],[136.919861,34.951353],[136.91969,34.951437],[136.919952,34.951796],[136.919896,34.951838],[136.919843,34.951864],[136.919262,34.952193],[136.91894,34.95238],[136.918933,34.952409],[136.919072,34.952551],[136.91922,34.952685],[136.919475,34.952885],[136.919759,34.953008],[136.920013,34.953122],[136.920085,34.953172],[136.920171,34.953204],[136.920302,34.953254],[136.920522,34.953221],[136.92073,34.953259],[136.920959,34.953343],[136.921142,34.953508],[136.921173,34.953643],[136.922438,34.954704],[136.922512,34.954761],[136.922388,34.954893],[136.922328,34.954955],[136.922324,34.954963],[136.922324,34.954964],[136.922318,34.954977],[136.922313,34.954987],[136.922055,34.955557],[136.921946,34.955725],[136.921938,34.955771],[136.921927,34.955831],[136.922005,34.955909],[136.922101,34.956005],[136.922093,34.956095],[136.92209,34.956132],[136.922099,34.956149],[136.922064,34.956221],[136.922049,34.956249],[136.922003,34.956304],[136.921965,34.956357],[136.92181,34.956574],[136.921821,34.956654],[136.921843,34.956682],[136.921845,34.956737],[136.921813,34.956852],[136.921781,34.956884],[136.921791,34.956962],[136.921768,34.957054],[136.921606,34.957666],[136.921558,34.957964],[136.92159,34.958221],[136.921601,34.958407],[136.921599,34.958508],[136.921599,34.958632],[136.921601,34.958724],[136.921622,34.958803],[136.921652,34.958884],[136.921707,34.958991],[136.921754,34.959016],[136.922022,34.959152],[136.922073,34.959217],[136.922099,34.95934],[136.922243,34.959179],[136.922308,34.959123],[136.92233,34.959098],[136.922356,34.959088],[136.922433,34.959057],[136.922527,34.959039],[136.922671,34.95901],[136.922775,34.958964],[136.92283,34.958928],[136.922878,34.958908],[136.923001,34.958826],[136.923545,34.958473],[136.923571,34.958465]]]}},{"type":"Feature","id":"234410060","properties":{"KEY_CODE":"234410060","PREF":"23","CITY":"441","S_AREA":"006000","PREF_NAME":"愛知県","CITY_NAME":"阿久比町","S_NAME":"大字白沢","HCODE":8101,"AREA":1377590.831,"KIGO_E":"","JINKO":2663,"SETAI":1039,"X_CODE":136.915411,"Y_CODE":34.95512},"geometry":{"type":"Polygon","coordinates":[[[136.918243,34.962984],[136.918236,34.962814],[136.91823,34.962701],[136.918167,34.962384],[136.918148,34.962161],[136.91894,34.961992],[136.919238,34.961899],[136.919316,34.961905],[136.919393,34.961904],[136.919531,34.961923],[136.919609,34.961828],[136.919843,34.961569],[136.919954,34.961387],[136.920066,34.961218],[136.920223,34.961054],[136.920331,34.960816],[136.920421,34.960709],[136.920594,34.960543],[136.92064,34.96051],[136.920674,34.960452],[136.920866,34.96012],[136.920942,34.959976],[136.921028,34.959854],[136.921245,34.959647],[136.921381,34.959577],[136.921592,34.95953],[136.921857,34.959526],[136.922047,34.959533],[136.922099,34.959507],[136.922106,34.959463],[136.922111,34.959394],[136.922099,34.95934],[136.922073,34.959217],[136.922022,34.959152],[136.921754,34.959016],[136.921707,34.958991],[136.921652,34.958884],[136.921622,34.958803],[136.921601,34.958724],[136.921599,34.958632],[136.921599,34.958508],[136.921601,34.958407],[136.92159,34.958221],[136.921558,34.957964],[136.921606,34.957666],[136.921768,34.957054],[136.921791,34.956962],[136.921781,34.956884],[136.921813,34.956852],[136.921845,34.956737],[136.921843,34.956682],[136.921821,34.956654],[136.92181,34.956574],[136.921965,34.956357],[136.922003,34.956304],[136.922049,34.956249],[136.922064,34.956221],[136.922099,34.956149],[136.92209,34.956132],[136.922093,34.956095],[136.922101,34.956005],[136.922005,34.955909],[136.921927,34.955831],[136.921938,34.955771],[136.921946,34.955725],[136.922055,34.955557],[136.922313,34.954987],[136.922318,34.954977],[136.922324,34.954964],[136.922324,34.954963],[136.922328,34.954955],[136.922388,34.954893],[136.922512,34.954761],[136.922438,34.954704],[136.921173,34.953643],[136.921142,34.953508],[136.920959,34.953343],[136.92073,34.953259],[136.920522,34.953221],[136.920302,34.953254],[136.920171,34.953204],[136.920085,34.953172],[136.920013,34.953122],[136.919759,34.953008],[136.919475,34.952885],[136.91922,34.952685],[136.919072,34.952551],[136.918933,34.952409],[136.91894,34.95238],[136.919262,34.952193],[136.919843,34.951864],[136.919896,34.951838],[136.919952,34.951796],[136.91969,34.951437],[136.919861,34.951353],[136.920072,34.951286],[136.92034,34.951051],[136.92009,34.950598],[136.91912,34.951053],[136.91905,34.950989],[136.918836,34.950791],[136.918595,34.950557],[136.918752,34.950429],[136.918706,34.950351],[136.918632,34.95023],[136.918604,34.95017],[136.918567,34.950118],[136.918542,34.950047],[136.918565,34.949896],[136.918588,34.949768],[136.918587,34.949703],[136.91861,34.949496],[136.918627,34.949283],[136.91861,34.948943],[136.918585,34.948811],[136.918522,34.948667],[136.918414,34.948511],[136.918328,34.948429],[136.918192,34.948254],[136.918124,34.948166],[136.91804,34.947984],[136.917983,34.948062],[136.917813,34.948257],[136.91759,34.948539],[136.917353,34.948857],[136.917226,34.949019],[136.917059,34.949209],[136.916869,34.949329],[136.916547,34.949396],[136.916263,34.949421],[136.915969,34.949446],[136.915785,34.949471],[136.915586,34.949574],[136.915314,34.949706],[136.914865,34.9499],[136.914304,34.950097],[136.914063,34.950179],[136.913927,34.950209],[136.913544,34.950127],[136.913259,34.950021],[136.913062,34.949883],[136.912487,34.948643],[136.912402,34.948514],[136.912219,34.948283],[136.912165,34.948221],[136.912129,34.948176],[136.911842,34.948003],[136.911643,34.947944],[136.910709,34.948022],[136.909796,34.948162],[136.908906,34.948361],[136.908692,34.948457],[136.908725,34.948535],[136.908865,34.948807],[136.909067,34.949155],[136.908982,34.949212],[136.908905,34.949358],[136.90887,34.949385],[136.908869,34.949406],[136.908861,34.949621],[136.908824,34.949684],[136.908756,34.949791],[136.908731,34.949808],[136.908639,34.949868],[136.908661,34.949904],[136.908692,34.949957],[136.908848,34.949948],[136.908961,34.949966],[136.909085,34.949993],[136.909172,34.950016],[136.909201,34.950021],[136.908765,34.950209],[136.908453,34.950434],[136.907996,34.950758],[136.907679,34.951005],[136.907466,34.951181],[136.907172,34.951556],[136.907048,34.95186],[136.906881,34.952265],[136.906808,34.952346],[136.906655,34.952453],[136.906477,34.952527],[136.906673,34.952533],[136.907244,34.952559],[136.90767,34.952512],[136.908405,34.952649],[136.908811,34.952777],[136.909179,34.952881],[136.909401,34.953001],[136.909623,34.953177],[136.910029,34.953353],[136.91029,34.95345],[136.910522,34.95357],[136.910677,34.95365],[136.910855,34.95375],[136.910846,34.954068],[136.910875,34.954201],[136.911041,34.954212],[136.911104,34.954201],[136.911363,34.954113],[136.911534,34.954074],[136.911663,34.954404],[136.911213,34.954527],[136.910913,34.954551],[136.910925,34.954614],[136.910412,34.954686],[136.909984,34.954713],[136.90987,34.954725],[136.909673,34.954745],[136.909343,34.9547],[136.909327,34.95485],[136.909346,34.95501],[136.909027,34.955009],[136.909033,34.954723],[136.908742,34.954755],[136.908463,34.955757],[136.909855,34.956405],[136.910003,34.956258],[136.910062,34.956237],[136.910305,34.956169],[136.910491,34.956178],[136.9109,34.956183],[136.910998,34.956268],[136.911102,34.95637],[136.911195,34.956475],[136.911258,34.956593],[136.911302,34.956727],[136.911415,34.956934],[136.911556,34.957628],[136.911609,34.957878],[136.911869,34.957822],[136.911878,34.95782],[136.911906,34.957965],[136.911944,34.958059],[136.911919,34.958219],[136.911927,34.958267],[136.911994,34.958351],[136.912033,34.958578],[136.912061,34.958667],[136.912141,34.958737],[136.91223,34.958787],[136.912234,34.95879],[136.912318,34.958814],[136.91236,34.958824],[136.912387,34.958831],[136.912416,34.95899],[136.912446,34.959155],[136.912447,34.959201],[136.912446,34.959201],[136.91244,34.959398],[136.912914,34.959577],[136.912948,34.959591],[136.913014,34.959636],[136.913063,34.959673],[136.91303,34.960133],[136.913176,34.960225],[136.913253,34.960278],[136.913321,34.960342],[136.913424,34.96042],[136.913471,34.960466],[136.913777,34.960597],[136.91393,34.960635],[136.914051,34.960692],[136.914155,34.960741],[136.914263,34.96088],[136.914436,34.960977],[136.914502,34.961082],[136.914624,34.961291],[136.914634,34.96131],[136.91476,34.961226],[136.914844,34.961164],[136.914889,34.961132],[136.914977,34.961216],[136.914985,34.961245],[136.915115,34.961235],[136.915136,34.961421],[136.915064,34.961424],[136.915015,34.961426],[136.914986,34.961437],[136.914676,34.961593],[136.914714,34.961652],[136.914767,34.961713],[136.914824,34.96177],[136.91494,34.961858],[136.914939,34.961873],[136.914987,34.962203],[136.914938,34.962229],[136.914984,34.962317],[136.914998,34.962461],[136.915284,34.962432],[136.915368,34.962428],[136.915459,34.962425],[136.915504,34.962423],[136.915518,34.962423],[136.915665,34.962417],[136.915667,34.962546],[136.91569,34.962923],[136.915747,34.962919],[136.915941,34.962909],[136.91608,34.962886],[136.916487,34.962834],[136.916537,34.962851],[136.916571,34.962862],[136.916626,34.962841],[136.916647,34.962823],[136.916964,34.962882],[136.917032,34.962894],[136.917116,34.963053],[136.917216,34.963112],[136.917311,34.963168],[136.917352,34.963199],[136.917387,34.963225],[136.917458,34.963279],[136.917512,34.963325],[136.917513,34.963326],[136.91754,34.963349],[136.917585,34.963387],[136.917595,34.963396],[136.917605,34.963405],[136.917605,34.963405],[136.917615,34.963413],[136.917617,34.963415],[136.917722,34.963558],[136.917676,34.963696],[136.917746,34.963788],[136.917937,34.963818],[136.918195,34.963859],[136.918339,34.963869],[136.918477,34.963842],[136.918586,34.963782],[136.918753,34.963622],[136.918755,34.96357],[136.91875,34.963552],[136.918737,34.963515],[136.918705,34.963472],[136.918576,34.963418],[136.918482,34.96333],[136.918334,34.963208],[136.918243,34.962984]]]}},{"type":"Feature","id":"234410070","properties":{"KEY_CODE":"234410070","PREF":"23","CITY":"441","S_AREA":"007000","PREF_NAME":"愛知県","CITY_NAME":"阿久比町","S_NAME":"大字草木","HCODE":8101,"AREA":3966687.154,"KIGO_E":"","JINKO":3821,"SETAI":1305,"X_CODE":136.893532,"Y_CODE":34.948601},"geometry":{"type":"Polygon","coordinates":[[[136.895544,34.95633],[136.895573,34.956131],[136.89627,34.956332],[136.896407,34.956388],[136.896577,34.956458],[136.897086,34.956628],[136.89743,34.956728],[136.897734,34.956789],[136.897871,34.956842],[136.898029,34.95696],[136.898116,34.957157],[136.898173,34.957523],[136.898291,34.957725],[136.898714,34.957604],[136.899044,34.957531],[136.899206,34.957478],[136.899262,34.957423],[136.899308,34.957295],[136.899353,34.957112],[136.899355,34.956923],[136.899341,34.956617],[136.899318,34.956258],[136.899305,34.956053],[136.899347,34.955858],[136.899399,34.955761],[136.899475,34.955628],[136.899622,34.955452],[136.899956,34.955105],[136.90002,34.955056],[136.900727,34.954915],[136.90122,34.954858],[136.901357,34.95489],[136.901666,34.954965],[136.902256,34.954871],[136.902663,34.95488],[136.902827,34.954904],[136.903225,34.954785],[136.903409,34.95469],[136.903516,34.954547],[136.90373,34.954189],[136.904041,34.954008],[136.90454,34.953772],[136.904948,34.953642],[136.905053,34.953566],[136.905173,34.953437],[136.90539,34.953017],[136.905549,34.952754],[136.905766,34.95256],[136.905867,34.95252],[136.905957,34.952489],[136.906392,34.952525],[136.906477,34.952527],[136.906655,34.952453],[136.906808,34.952346],[136.906881,34.952265],[136.907048,34.95186],[136.907172,34.951556],[136.907466,34.951181],[136.907679,34.951005],[136.907996,34.950758],[136.908453,34.950434],[136.908765,34.950209],[136.909201,34.950021],[136.909172,34.950016],[136.909085,34.949993],[136.908961,34.949966],[136.908848,34.949948],[136.908692,34.949957],[136.908661,34.949904],[136.908639,34.949868],[136.908731,34.949808],[136.908756,34.949791],[136.908824,34.949684],[136.908861,34.949621],[136.908869,34.949406],[136.90887,34.949385],[136.908905,34.949358],[136.908982,34.949212],[136.909067,34.949155],[136.908865,34.948807],[136.908725,34.948535],[136.908692,34.948457],[136.908906,34.948361],[136.908552,34.947491],[136.908379,34.946997],[136.908643,34.946701],[136.908185,34.946826],[136.907726,34.945613],[136.907297,34.944599],[136.906562,34.944787],[136.906396,34.944339],[136.906318,34.94393],[136.906213,34.943415],[136.905893,34.943237],[136.905666,34.943133],[136.905441,34.943076],[136.905185,34.943038],[136.904521,34.942904],[136.90459,34.942457],[136.904177,34.942418],[136.903744,34.942368],[136.903324,34.942323],[136.902514,34.942239],[136.902644,34.941616],[136.901655,34.941591],[136.90115,34.941599],[136.900294,34.94157],[136.900288,34.941456],[136.899474,34.94141],[136.899309,34.941393],[136.899149,34.941399],[136.898975,34.941406],[136.898846,34.941421],[136.898618,34.941444],[136.898383,34.941466],[136.898217,34.941483],[136.898112,34.941501],[136.897989,34.941525],[136.897846,34.941554],[136.897661,34.941596],[136.897505,34.941617],[136.897259,34.941597],[136.897051,34.941567],[136.896888,34.941534],[136.896754,34.941501],[136.896574,34.941458],[136.896262,34.941389],[136.895909,34.941319],[136.895522,34.94123],[136.894895,34.941044],[136.894443,34.940922],[136.894163,34.940854],[136.893906,34.94078],[136.893731,34.940722],[136.893589,34.940675],[136.893491,34.940631],[136.893389,34.940568],[136.893186,34.940412],[136.892899,34.940156],[136.892823,34.940059],[136.892775,34.940003],[136.89272,34.939936],[136.892651,34.939881],[136.892481,34.939798],[136.892352,34.93973],[136.892221,34.939663],[136.892114,34.939571],[136.891951,34.939259],[136.891849,34.938852],[136.891695,34.938683],[136.891701,34.938256],[136.891672,34.938022],[136.891603,34.93791],[136.891573,34.937932],[136.89144,34.938014],[136.89065,34.938743],[136.891397,34.9393],[136.891412,34.939364],[136.891388,34.939434],[136.891125,34.939743],[136.891145,34.939884],[136.89112,34.940039],[136.890995,34.94005],[136.890822,34.940065],[136.890519,34.940043],[136.889987,34.940042],[136.888625,34.940822],[136.887878,34.940788],[136.887863,34.940881],[136.887865,34.941022],[136.887878,34.941108],[136.886063,34.941115],[136.886075,34.941513],[136.88569,34.941567],[136.884976,34.941671],[136.88475,34.941736],[136.884534,34.941764],[136.88442,34.941779],[136.884135,34.941826],[136.883903,34.941848],[136.883441,34.941705],[136.883298,34.941379],[136.883153,34.941313],[136.882981,34.941297],[136.882839,34.941314],[136.881813,34.941728],[136.881504,34.94167],[136.881291,34.941718],[136.881196,34.94177],[136.881138,34.941836],[136.881036,34.942019],[136.880859,34.942122],[136.880692,34.942166],[136.880752,34.94299],[136.880783,34.943489],[136.880838,34.944208],[136.880561,34.945035],[136.880133,34.945279],[136.880589,34.945384],[136.88012,34.945495],[136.880051,34.946883],[136.880218,34.946876],[136.880355,34.946885],[136.880324,34.948276],[136.879849,34.948281],[136.879744,34.94825],[136.879623,34.948393],[136.879294,34.948823],[136.878961,34.949268],[136.879424,34.949273],[136.879434,34.94961],[136.879584,34.949889],[136.879751,34.94999],[136.879486,34.950205],[136.879473,34.95023],[136.879473,34.950253],[136.879481,34.950273],[136.879632,34.950522],[136.879435,34.950621],[136.87942,34.950629],[136.879428,34.950714],[136.879518,34.95095],[136.879554,34.951129],[136.879543,34.951267],[136.879541,34.951839],[136.879451,34.952035],[136.87928,34.952063],[136.878695,34.952035],[136.878265,34.952089],[136.877869,34.952099],[136.877669,34.95213],[136.877429,34.952191],[136.87743,34.95222],[136.877423,34.952448],[136.877477,34.952445],[136.877701,34.952521],[136.878216,34.952613],[136.878669,34.952662],[136.879193,34.952842],[136.87922,34.953111],[136.879233,34.95336],[136.879253,34.953362],[136.879622,34.953408],[136.879687,34.953413],[136.880145,34.952673],[136.88026,34.952766],[136.880415,34.95264],[136.880618,34.95249],[136.88091,34.952253],[136.882173,34.953084],[136.881872,34.953398],[136.882143,34.953484],[136.882284,34.953569],[136.882449,34.953634],[136.88285,34.953729],[136.883105,34.953859],[136.883082,34.953943],[136.883221,34.953985],[136.883227,34.954166],[136.88342,34.954202],[136.883527,34.954246],[136.88366,34.95435],[136.883752,34.954504],[136.88412,34.955077],[136.88437,34.95552],[136.884466,34.955477],[136.884539,34.955723],[136.884668,34.955902],[136.885203,34.956681],[136.886386,34.956171],[136.886721,34.956027],[136.887439,34.955678],[136.888621,34.955207],[136.888754,34.955207],[136.889,34.955249],[136.889182,34.95535],[136.889295,34.955436],[136.889378,34.955558],[136.889434,34.955811],[136.889495,34.955898],[136.889592,34.955974],[136.889891,34.956124],[136.890009,34.956218],[136.890151,34.956352],[136.890259,34.956462],[136.890348,34.956592],[136.890557,34.956932],[136.890866,34.957164],[136.891175,34.957404],[136.89146,34.957621],[136.891626,34.957709],[136.891796,34.957768],[136.892224,34.957856],[136.892674,34.957945],[136.892809,34.958006],[136.89291,34.958108],[136.893045,34.958243],[136.893813,34.958638],[136.893904,34.958719],[136.893967,34.958809],[136.894013,34.958874],[136.894122,34.959229],[136.894174,34.959335],[136.894279,34.959495],[136.894384,34.959594],[136.894496,34.959631],[136.894694,34.959648],[136.894376,34.95923],[136.894363,34.959163],[136.894363,34.958963],[136.894397,34.9586],[136.894424,34.958508],[136.894741,34.957796],[136.894843,34.957715],[136.89497,34.957655],[136.895384,34.957525],[136.895462,34.957486],[136.89553,34.957422],[136.89556,34.957255],[136.895495,34.956481],[136.895544,34.95633]]]}},{"type":"Feature","id":"234410080","properties":{"KEY_CODE":"234410080","PREF":"23","CITY":"441","S_AREA":"008000","PREF_NAME":"愛知県","CITY_NAME":"阿久比町","S_NAME":"大字卯坂","HCODE":8101,"AREA":3471495.016,"KIGO_E":"","JINKO":3684,"SETAI":1278,"X_CODE":136.910457,"Y_CODE":34.939182},"geometry":{"type":"Polygon","coordinates":[[[136.91804,34.947984],[136.918826,34.946939],[136.91887,34.946882],[136.918903,34.946824],[136.918925,34.946787],[136.918958,34.946739],[136.918995,34.946661],[136.919031,34.946566],[136.919033,34.946463],[136.918995,34.946204],[136.918958,34.945816],[136.918601,34.944361],[136.918539,34.944193],[136.9185,34.94409],[136.919408,34.944248],[136.919595,34.943639],[136.919542,34.943492],[136.919488,34.943378],[136.91928,34.943287],[136.919149,34.943142],[136.919208,34.943002],[136.919091,34.942828],[136.919967,34.942972],[136.919965,34.942421],[136.92003,34.940763],[136.921417,34.940771],[136.921417,34.940365],[136.92154,34.940349],[136.921679,34.940334],[136.921842,34.940313],[136.922212,34.940214],[136.922486,34.940152],[136.922553,34.940035],[136.922589,34.93997],[136.922693,34.939878],[136.922863,34.939777],[136.92295,34.939739],[136.923092,34.939721],[136.923249,34.939755],[136.923554,34.939861],[136.923675,34.93986],[136.923741,34.939849],[136.923763,34.939837],[136.924667,34.939358],[136.924898,34.939235],[136.925005,34.939141],[136.925087,34.939028],[136.925115,34.938927],[136.925129,34.938713],[136.925095,34.938421],[136.925226,34.938081],[136.925071,34.937926],[136.925039,34.937899],[136.925016,34.937851],[136.924985,34.937805],[136.92492,34.937741],[136.924824,34.937665],[136.924817,34.937472],[136.924775,34.93731],[136.924762,34.93717],[136.924818,34.937112],[136.924806,34.937056],[136.924793,34.936887],[136.924615,34.93674],[136.924592,34.936315],[136.923292,34.935983],[136.923279,34.935614],[136.923273,34.935429],[136.923287,34.935349],[136.923354,34.934877],[136.923373,34.934661],[136.923403,34.934465],[136.923424,34.93419],[136.923419,34.934054],[136.923419,34.933986],[136.923533,34.933739],[136.923672,34.933406],[136.923723,34.933095],[136.923732,34.933019],[136.923715,34.932956],[136.923698,34.932918],[136.923661,34.932858],[136.923578,34.932785],[136.923519,34.932746],[136.923425,34.932682],[136.92342,34.932683],[136.923432,34.93267],[136.923616,34.932622],[136.923631,34.932618],[136.923647,34.932606],[136.923676,34.932568],[136.923684,34.932422],[136.923368,34.932369],[136.923057,34.932262],[136.922894,34.93236],[136.922385,34.932629],[136.922329,34.932539],[136.922179,34.932446],[136.922029,34.932393],[136.921881,34.932388],[136.921653,34.932514],[136.92105,34.932262],[136.921482,34.931582],[136.921213,34.93146],[136.920413,34.931108],[136.919905,34.931843],[136.919667,34.931739],[136.91964,34.931754],[136.919614,34.931818],[136.919437,34.932216],[136.919399,34.932682],[136.919057,34.932781],[136.918992,34.932798],[136.918972,34.933204],[136.918441,34.933223],[136.917579,34.933086],[136.916869,34.932825],[136.916295,34.932576],[136.915971,34.932408],[136.915503,34.932045],[136.915412,34.932056],[136.91538,34.932079],[136.915263,34.932196],[136.915156,34.932304],[136.915155,34.932343],[136.915148,34.932356],[136.915111,34.932382],[136.91506,34.932407],[136.914814,34.932409],[136.914794,34.932351],[136.914785,34.932352],[136.914207,34.932389],[136.914207,34.932297],[136.914182,34.932302],[136.913599,34.932571],[136.912325,34.931903],[136.912011,34.931877],[136.911282,34.931777],[136.910893,34.931712],[136.910593,34.93166],[136.910332,34.931617],[136.910018,34.931526],[136.909873,34.93149],[136.909783,34.931442],[136.909715,34.931389],[136.909673,34.931339],[136.909653,34.93123],[136.909637,34.931094],[136.909579,34.930952],[136.909381,34.930839],[136.909207,34.930642],[136.909022,34.93073],[136.908495,34.930835],[136.908394,34.930867],[136.908279,34.931025],[136.908188,34.931152],[136.907939,34.931299],[136.90772,34.931627],[136.907551,34.931678],[136.907302,34.931756],[136.907189,34.931836],[136.907076,34.931941],[136.906952,34.93201],[136.906851,34.93204],[136.906695,34.932272],[136.906431,34.932447],[136.906041,34.93254],[136.905657,34.932623],[136.905394,34.932661],[136.905131,34.932214],[136.904705,34.932344],[136.904439,34.932441],[136.904227,34.932553],[136.904133,34.932678],[136.903953,34.933103],[136.903821,34.933215],[136.903658,34.933277],[136.903524,34.933352],[136.903464,34.933406],[136.903342,34.933499],[136.903274,34.933622],[136.903161,34.933785],[136.903046,34.933952],[136.902661,34.934323],[136.901614,34.934653],[136.90138,34.934739],[136.900798,34.935034],[136.900428,34.935202],[136.897151,34.936206],[136.896997,34.936076],[136.896493,34.936595],[136.896257,34.936966],[136.896202,34.937134],[136.896101,34.937552],[136.895977,34.938352],[136.895226,34.93827],[136.894818,34.938322],[136.894158,34.938379],[136.893642,34.937363],[136.893448,34.936996],[136.892642,34.935297],[136.892178,34.934282],[136.89213,34.934308],[136.892049,34.934307],[136.89191,34.934271],[136.891782,34.93423],[136.89173,34.934254],[136.891473,34.934417],[136.891323,34.934478],[136.891171,34.93449],[136.89104,34.934474],[136.890646,34.934358],[136.890462,34.934335],[136.890331,34.93434],[136.89023,34.934363],[136.890095,34.934437],[136.889938,34.93453],[136.889965,34.934581],[136.890014,34.934747],[136.890077,34.934906],[136.890168,34.935169],[136.890266,34.935442],[136.890364,34.935745],[136.890486,34.935787],[136.890691,34.935852],[136.89071,34.93586],[136.890866,34.935918],[136.890882,34.935923],[136.890971,34.936012],[136.890991,34.936081],[136.890943,34.936211],[136.890954,34.936273],[136.891033,34.936318],[136.891256,34.936403],[136.891327,34.936446],[136.891359,34.936495],[136.891393,34.936559],[136.891462,34.936694],[136.891519,34.936838],[136.891627,34.936972],[136.891742,34.937117],[136.891867,34.937282],[136.891691,34.937364],[136.891602,34.937438],[136.891563,34.937513],[136.891546,34.937587],[136.891546,34.937686],[136.891573,34.937932],[136.891603,34.93791],[136.891672,34.938022],[136.891701,34.938256],[136.891695,34.938683],[136.891849,34.938852],[136.891951,34.939259],[136.892114,34.939571],[136.892221,34.939663],[136.892352,34.93973],[136.892481,34.939798],[136.892651,34.939881],[136.89272,34.939936],[136.892775,34.940003],[136.892823,34.940059],[136.892899,34.940156],[136.893186,34.940412],[136.893389,34.940568],[136.893491,34.940631],[136.893589,34.940675],[136.893731,34.940722],[136.893906,34.94078],[136.894163,34.940854],[136.894443,34.940922],[136.894895,34.941044],[136.895522,34.94123],[136.895909,34.941319],[136.896262,34.941389],[136.896574,34.941458],[136.896754,34.941501],[136.896888,34.941534],[136.897051,34.941567],[136.897259,34.941597],[136.897505,34.941617],[136.897661,34.941596],[136.897846,34.941554],[136.897989,34.941525],[136.898112,34.941501],[136.898217,34.941483],[136.898383,34.941466],[136.898618,34.941444],[136.898846,34.941421],[136.898975,34.941406],[136.899149,34.941399],[136.899309,34.941393],[136.899474,34.94141],[136.900288,34.941456],[136.900294,34.94157],[136.90115,34.941599],[136.901655,34.941591],[136.902644,34.941616],[136.902514,34.942239],[136.903324,34.942323],[136.903744,34.942368],[136.904177,34.942418],[136.90459,34.942457],[136.904521,34.942904],[136.905185,34.943038],[136.905441,34.943076],[136.905666,34.943133],[136.905893,34.943237],[136.906213,34.943415],[136.906318,34.94393],[136.906396,34.944339],[136.906562,34.944787],[136.907297,34.944599],[136.907726,34.945613],[136.908185,34.946826],[136.908643,34.946701],[136.908379,34.946997],[136.908552,34.947491],[136.908906,34.948361],[136.909796,34.948162],[136.910709,34.948022],[136.911643,34.947944],[136.911842,34.948003],[136.912129,34.948176],[136.912165,34.948221],[136.912219,34.948283],[136.912402,34.948514],[136.912487,34.948643],[136.913062,34.949883],[136.913259,34.950021],[136.913544,34.950127],[136.913927,34.950209],[136.914063,34.950179],[136.914304,34.950097],[136.914865,34.9499],[136.915314,34.949706],[136.915586,34.949574],[136.915785,34.949471],[136.915969,34.949446],[136.916263,34.949421],[136.916547,34.949396],[136.916869,34.949329],[136.917059,34.949209],[136.917226,34.949019],[136.917353,34.948857],[136.91759,34.948539],[136.917813,34.948257],[136.917983,34.948062],[136.91804,34.947984]]]}},{"type":"Feature","id":"234410090","properties":{"KEY_CODE":"234410090","PREF":"23","CITY":"441","S_AREA":"009000","PREF_NAME":"愛知県","CITY_NAME":"阿久比町","S_NAME":"大字阿久比","HCODE":8101,"AREA":1339021.667,"KIGO_E":"","JINKO":1111,"SETAI":411,"X_CODE":136.906808,"Y_CODE":34.931207},"geometry":{"type":"Polygon","coordinates":[[[136.894818,34.938322],[136.895226,34.93827],[136.895977,34.938352],[136.896101,34.937552],[136.896202,34.937134],[136.896257,34.936966],[136.896493,34.936595],[136.896997,34.936076],[136.897151,34.936206],[136.900428,34.935202],[136.900798,34.935034],[136.90138,34.934739],[136.901614,34.934653],[136.902661,34.934323],[136.903046,34.933952],[136.903161,34.933785],[136.903274,34.933622],[136.903342,34.933499],[136.903464,34.933406],[136.903524,34.933352],[136.903658,34.933277],[136.903821,34.933215],[136.903953,34.933103],[136.904133,34.932678],[136.904227,34.932553],[136.904439,34.932441],[136.904705,34.932344],[136.905131,34.932214],[136.905394,34.932661],[136.905657,34.932623],[136.906041,34.93254],[136.906431,34.932447],[136.906695,34.932272],[136.906851,34.93204],[136.906952,34.93201],[136.907076,34.931941],[136.907189,34.931836],[136.907302,34.931756],[136.907551,34.931678],[136.90772,34.931627],[136.907939,34.931299],[136.908188,34.931152],[136.908279,34.931025],[136.908394,34.930867],[136.908495,34.930835],[136.909022,34.93073],[136.909207,34.930642],[136.909381,34.930839],[136.909579,34.930952],[136.909637,34.931094],[136.909653,34.93123],[136.909673,34.931339],[136.909715,34.931389],[136.909783,34.931442],[136.909873,34.93149],[136.910018,34.931526],[136.910332,34.931617],[136.910593,34.93166],[136.910893,34.931712],[136.911282,34.931777],[136.912011,34.931877],[136.912325,34.931903],[136.913599,34.932571],[136.914182,34.932302],[136.914207,34.932297],[136.914207,34.932389],[136.914785,34.932352],[136.914794,34.932351],[136.914814,34.932409],[136.91506,34.932407],[136.915111,34.932382],[136.915148,34.932356],[136.915155,34.932343],[136.915156,34.932304],[136.915263,34.932196],[136.91538,34.932079],[136.915412,34.932056],[136.915503,34.932045],[136.915971,34.932408],[136.916295,34.932576],[136.916869,34.932825],[136.917579,34.933086],[136.918441,34.933223],[136.918972,34.933204],[136.918992,34.932798],[136.919013,34.932654],[136.919045,34.932416],[136.919054,34.932246],[136.919085,34.932028],[136.919164,34.93182],[136.919367,34.931452],[136.919474,34.931278],[136.919645,34.931028],[136.919781,34.930718],[136.919931,34.930393],[136.920072,34.930095],[136.920294,34.929702],[136.920507,34.929387],[136.920699,34.929067],[136.920438,34.928964],[136.920361,34.928929],[136.919798,34.928694],[136.920045,34.928245],[136.920363,34.927664],[136.919952,34.927681],[136.919556,34.927685],[136.919136,34.927592],[136.918992,34.927544],[136.919093,34.927377],[136.918976,34.927363],[136.918849,34.927339],[136.918673,34.927362],[136.918575,34.927383],[136.918472,34.927334],[136.918355,34.927215],[136.918278,34.927076],[136.918257,34.926911],[136.918255,34.92674],[136.918254,34.926552],[136.918094,34.926534],[136.917796,34.926479],[136.917276,34.926389],[136.917002,34.926375],[136.916683,34.926394],[136.916375,34.926427],[136.916257,34.92644],[136.916239,34.926217],[136.916245,34.925974],[136.91633,34.925744],[136.916441,34.925537],[136.916219,34.925527],[136.916061,34.925533],[136.915819,34.925704],[136.915597,34.925769],[136.915426,34.925865],[136.915267,34.925962],[136.915144,34.926027],[136.914986,34.926068],[136.914855,34.926095],[136.914638,34.926158],[136.914611,34.926166],[136.914478,34.926248],[136.914365,34.926404],[136.914268,34.926561],[136.914187,34.926705],[136.914114,34.926837],[136.914026,34.927017],[136.913799,34.927247],[136.91345,34.92732],[136.913021,34.927408],[136.91267,34.927472],[136.912567,34.927483],[136.912464,34.927514],[136.912298,34.927606],[136.912176,34.927718],[136.91201,34.92781],[136.911852,34.927846],[136.911591,34.927842],[136.911247,34.927825],[136.911042,34.927806],[136.910878,34.927756],[136.910553,34.92772],[136.910429,34.927726],[136.910373,34.927754],[136.910245,34.927866],[136.910076,34.927989],[136.909873,34.928025],[136.909414,34.928154],[136.90884,34.928561],[136.908549,34.928789],[136.908418,34.928966],[136.908269,34.928922],[136.908038,34.928851],[136.907779,34.92875],[136.907547,34.928645],[136.907372,34.928505],[136.907219,34.928312],[136.906892,34.927912],[136.906579,34.927786],[136.906219,34.927669],[136.906059,34.927599],[136.905901,34.927506],[136.905671,34.927359],[136.90542,34.927167],[136.905282,34.927103],[136.905001,34.927052],[136.904874,34.927066],[136.904734,34.927129],[136.904474,34.927088],[136.904014,34.927072],[136.903372,34.927093],[136.903014,34.927136],[136.90263,34.92723],[136.902168,34.927391],[136.902382,34.927508],[136.902431,34.927629],[136.902467,34.927753],[136.902617,34.928124],[136.90281,34.928459],[136.90211,34.929157],[136.901805,34.929361],[136.901551,34.929524],[136.901377,34.929638],[136.901338,34.929788],[136.901286,34.9299],[136.90115,34.930034],[136.90093,34.930214],[136.900693,34.930314],[136.900543,34.930355],[136.900144,34.930486],[136.89983,34.930556],[136.899475,34.930619],[136.898982,34.930673],[136.89876,34.930752],[136.898329,34.93091],[136.898141,34.931069],[136.897799,34.931411],[136.8977,34.931506],[136.897454,34.931704],[136.897169,34.931872],[136.896817,34.932134],[136.89673,34.932256],[136.896339,34.932486],[136.896175,34.932494],[136.896023,34.932483],[136.895794,34.932367],[136.895654,34.932273],[136.89559,34.932262],[136.895209,34.932544],[136.894805,34.932789],[136.894751,34.932852],[136.894725,34.933018],[136.894701,34.933174],[136.894665,34.933246],[136.894486,34.933462],[136.894251,34.9337],[136.894088,34.933852],[136.893929,34.933989],[136.893812,34.934058],[136.893668,34.934119],[136.893516,34.934159],[136.893369,34.934198],[136.893252,34.934208],[136.893182,34.934205],[136.893088,34.934169],[136.892855,34.934191],[136.892683,34.934209],[136.892225,34.934257],[136.892178,34.934282],[136.892642,34.935297],[136.893448,34.936996],[136.893642,34.937363],[136.894158,34.938379],[136.894818,34.938322]]]}},{"type":"Feature","id":"234410100","properties":{"KEY_CODE":"234410100","PREF":"23","CITY":"441","S_AREA":"010000","PREF_NAME":"愛知県","CITY_NAME":"阿久比町","S_NAME":"大字椋岡","HCODE":8101,"AREA":505081.791,"KIGO_E":"","JINKO":630,"SETAI":219,"X_CODE":136.921415,"Y_CODE":34.924344},"geometry":{"type":"Polygon","coordinates":[[[136.922868,34.927717],[136.923026,34.927548],[136.923126,34.927434],[136.923278,34.927266],[136.923451,34.927146],[136.923699,34.926974],[136.923926,34.92685],[136.924164,34.92672],[136.924457,34.92652],[136.924546,34.926397],[136.924628,34.926181],[136.92491,34.925969],[136.92502,34.925697],[136.925054,34.925372],[136.925077,34.925168],[136.925143,34.924782],[136.925192,34.924591],[136.925197,34.924453],[136.925237,34.924172],[136.925243,34.923988],[136.925238,34.923711],[136.925156,34.923356],[136.925104,34.923126],[136.925056,34.922972],[136.925028,34.922888],[136.92498,34.922568],[136.924993,34.922365],[136.92509,34.922049],[136.925321,34.92145],[136.925467,34.921157],[136.925553,34.920993],[136.925728,34.920711],[136.925261,34.920826],[136.924779,34.920946],[136.924039,34.92112],[136.923653,34.921198],[136.923807,34.92059],[136.922555,34.920371],[136.922667,34.91991],[136.922229,34.920035],[136.921969,34.920125],[136.92175,34.920136],[136.921586,34.920113],[136.921449,34.920079],[136.92134,34.920101],[136.921175,34.920169],[136.920956,34.920281],[136.920805,34.920393],[136.920709,34.920483],[136.920545,34.920618],[136.920353,34.920764],[136.920216,34.92082],[136.920106,34.92082],[136.91997,34.920797],[136.919847,34.920729],[136.919737,34.920707],[136.919559,34.920706],[136.919382,34.920728],[136.919121,34.920784],[136.919182,34.921129],[136.919194,34.921202],[136.919249,34.921667],[136.919278,34.921791],[136.919297,34.921948],[136.91931,34.922127],[136.919354,34.922577],[136.919395,34.92281],[136.919073,34.922948],[136.918843,34.923057],[136.918804,34.923182],[136.918825,34.923271],[136.918878,34.923455],[136.918816,34.923525],[136.918717,34.923616],[136.918541,34.923753],[136.918344,34.923847],[136.91812,34.923897],[136.918007,34.923957],[136.917851,34.924054],[136.917465,34.924247],[136.916982,34.924461],[136.916956,34.924574],[136.916918,34.924714],[136.916879,34.924861],[136.916827,34.924987],[136.916767,34.925071],[136.916626,34.925188],[136.916503,34.925374],[136.916441,34.925537],[136.91633,34.925744],[136.916245,34.925974],[136.916239,34.926217],[136.916257,34.92644],[136.916375,34.926427],[136.916683,34.926394],[136.917002,34.926375],[136.917276,34.926389],[136.917796,34.926479],[136.918094,34.926534],[136.918254,34.926552],[136.918255,34.92674],[136.918257,34.926911],[136.918278,34.927076],[136.918355,34.927215],[136.918472,34.927334],[136.918575,34.927383],[136.918673,34.927362],[136.918849,34.927339],[136.918976,34.927363],[136.919093,34.927377],[136.918992,34.927544],[136.919136,34.927592],[136.919556,34.927685],[136.919952,34.927681],[136.920363,34.927664],[136.920045,34.928245],[136.919798,34.928694],[136.920361,34.928929],[136.920438,34.928964],[136.920699,34.929067],[136.92085,34.928884],[136.921058,34.928668],[136.921365,34.928458],[136.921654,34.928314],[136.921887,34.928225],[136.92207,34.928143],[136.922288,34.928061],[136.922522,34.927973],[136.922698,34.927869],[136.922868,34.927717]]]}},{"type":"Feature","id":"234410110","properties":{"KEY_CODE":"234410110","PREF":"23","CITY":"441","S_AREA":"011000","PREF_NAME":"愛知県","CITY_NAME":"阿久比町","S_NAME":"大字矢高","HCODE":8101,"AREA":3427025.544,"KIGO_E":"","JINKO":932,"SETAI":343,"X_CODE":136.899431,"Y_CODE":34.924728},"geometry":{"type":"Polygon","coordinates":[[[136.890331,34.93434],[136.890462,34.934335],[136.890646,34.934358],[136.89104,34.934474],[136.891171,34.93449],[136.891323,34.934478],[136.891473,34.934417],[136.89173,34.934254],[136.891782,34.93423],[136.89191,34.934271],[136.892049,34.934307],[136.89213,34.934308],[136.892178,34.934282],[136.892225,34.934257],[136.892683,34.934209],[136.892855,34.934191],[136.893088,34.934169],[136.893182,34.934205],[136.893252,34.934208],[136.893369,34.934198],[136.893516,34.934159],[136.893668,34.934119],[136.893812,34.934058],[136.893929,34.933989],[136.894088,34.933852],[136.894251,34.9337],[136.894486,34.933462],[136.894665,34.933246],[136.894701,34.933174],[136.894725,34.933018],[136.894751,34.932852],[136.894805,34.932789],[136.895209,34.932544],[136.89559,34.932262],[136.895654,34.932273],[136.895794,34.932367],[136.896023,34.932483],[136.896175,34.932494],[136.896339,34.932486],[136.89673,34.932256],[136.896817,34.932134],[136.897169,34.931872],[136.897454,34.931704],[136.8977,34.931506],[136.897799,34.931411],[136.898141,34.931069],[136.898329,34.93091],[136.89876,34.930752],[136.898982,34.930673],[136.899475,34.930619],[136.89983,34.930556],[136.900144,34.930486],[136.900543,34.930355],[136.900693,34.930314],[136.90093,34.930214],[136.90115,34.930034],[136.901286,34.9299],[136.901338,34.929788],[136.901377,34.929638],[136.901551,34.929524],[136.901805,34.929361],[136.90211,34.929157],[136.90281,34.928459],[136.902617,34.928124],[136.902467,34.927753],[136.902431,34.927629],[136.902382,34.927508],[136.902168,34.927391],[136.90263,34.92723],[136.903014,34.927136],[136.903372,34.927093],[136.904014,34.927072],[136.904474,34.927088],[136.904734,34.927129],[136.904874,34.927066],[136.905001,34.927052],[136.905282,34.927103],[136.90542,34.927167],[136.905671,34.927359],[136.905901,34.927506],[136.906059,34.927599],[136.906219,34.927669],[136.906579,34.927786],[136.906892,34.927912],[136.907219,34.928312],[136.907372,34.928505],[136.907547,34.928645],[136.907779,34.92875],[136.908038,34.928851],[136.908269,34.928922],[136.908418,34.928966],[136.908549,34.928789],[136.90884,34.928561],[136.909414,34.928154],[136.909873,34.928025],[136.910076,34.927989],[136.910245,34.927866],[136.910373,34.927754],[136.910429,34.927726],[136.910553,34.92772],[136.910878,34.927756],[136.911042,34.927806],[136.911247,34.927825],[136.911591,34.927842],[136.911852,34.927846],[136.91201,34.92781],[136.912176,34.927718],[136.912298,34.927606],[136.912464,34.927514],[136.912567,34.927483],[136.91267,34.927472],[136.913021,34.927408],[136.91345,34.92732],[136.913799,34.927247],[136.914026,34.927017],[136.914114,34.926837],[136.914187,34.926705],[136.914268,34.926561],[136.914365,34.926404],[136.914478,34.926248],[136.914611,34.926166],[136.914638,34.926158],[136.914855,34.926095],[136.914986,34.926068],[136.915144,34.926027],[136.915267,34.925962],[136.915426,34.925865],[136.915597,34.925769],[136.915819,34.925704],[136.916061,34.925533],[136.916219,34.925527],[136.916441,34.925537],[136.916503,34.925374],[136.916626,34.925188],[136.916767,34.925071],[136.916827,34.924987],[136.916879,34.924861],[136.916918,34.924714],[136.916956,34.924574],[136.916982,34.924461],[136.917465,34.924247],[136.917851,34.924054],[136.918007,34.923957],[136.91812,34.923897],[136.918344,34.923847],[136.918541,34.923753],[136.918717,34.923616],[136.918816,34.923525],[136.918878,34.923455],[136.918825,34.923271],[136.918804,34.923182],[136.918843,34.923057],[136.919073,34.922948],[136.919395,34.92281],[136.919354,34.922577],[136.91931,34.922127],[136.919297,34.921948],[136.919278,34.921791],[136.919249,34.921667],[136.919021,34.921595],[136.918871,34.921542],[136.918578,34.92143],[136.918505,34.921402],[136.918372,34.921351],[136.918165,34.921293],[136.917724,34.92121],[136.917407,34.921156],[136.917432,34.920824],[136.916962,34.920789],[136.916982,34.920491],[136.916983,34.920422],[136.916986,34.920337],[136.916995,34.920091],[136.916995,34.919944],[136.916743,34.919962],[136.916658,34.919972],[136.916476,34.920017],[136.9162,34.920121],[136.916186,34.920126],[136.91593,34.920182],[136.915608,34.920239],[136.915477,34.920275],[136.915398,34.920361],[136.915293,34.92053],[136.915176,34.920709],[136.915037,34.920864],[136.914833,34.921016],[136.914662,34.921151],[136.914388,34.921164],[136.914158,34.921219],[136.914005,34.921256],[136.91372,34.921321],[136.913545,34.921385],[136.913314,34.921332],[136.91319,34.921328],[136.913072,34.921324],[136.912811,34.921419],[136.912602,34.921498],[136.912053,34.92151],[136.911559,34.921512],[136.911132,34.92156],[136.910772,34.921588],[136.910717,34.921491],[136.910686,34.921451],[136.910611,34.921395],[136.910432,34.92138],[136.910326,34.921012],[136.910183,34.920903],[136.910105,34.920899],[136.910001,34.920861],[136.909935,34.920749],[136.909917,34.920661],[136.909847,34.920482],[136.909737,34.920167],[136.909685,34.919943],[136.909689,34.919838],[136.909739,34.919622],[136.909932,34.919351],[136.909962,34.919298],[136.909968,34.9192],[136.909969,34.91896],[136.909951,34.918835],[136.90989,34.918771],[136.909782,34.91891],[136.909682,34.919005],[136.909588,34.919037],[136.909229,34.919043],[136.909119,34.919016],[136.908625,34.918965],[136.908186,34.918832],[136.908031,34.918776],[136.907889,34.918725],[136.907493,34.918646],[136.907152,34.91853],[136.906965,34.918386],[136.906812,34.918171],[136.906753,34.918049],[136.906722,34.917908],[136.906559,34.917894],[136.906375,34.917905],[136.906101,34.917943],[136.905913,34.917931],[136.905799,34.917893],[136.905367,34.917684],[136.905067,34.917552],[136.904575,34.917356],[136.904355,34.917314],[136.904101,34.917422],[136.903947,34.917475],[136.90378,34.917524],[136.903219,34.917622],[136.902751,34.917643],[136.902473,34.91767],[136.901914,34.917681],[136.90119,34.91773],[136.900729,34.917769],[136.900412,34.917888],[136.900115,34.917844],[136.899796,34.917629],[136.899685,34.917539],[136.899651,34.917527],[136.899465,34.917459],[136.89918,34.917497],[136.898918,34.917715],[136.898744,34.91795],[136.898614,34.91824],[136.898276,34.918494],[136.89786,34.918712],[136.897642,34.918894],[136.897466,34.918913],[136.897265,34.918763],[136.897202,34.918716],[136.897003,34.918491],[136.89675,34.918393],[136.896465,34.918494],[136.896071,34.918667],[136.895896,34.918758],[136.895556,34.918751],[136.89527,34.918635],[136.894984,34.918564],[136.894524,34.918639],[136.894346,34.918693],[136.894042,34.918786],[136.893692,34.918914],[136.893474,34.919204],[136.893212,34.919476],[136.893104,34.919675],[136.893017,34.919828],[136.892908,34.919946],[136.892623,34.919993],[136.892382,34.920012],[136.89183,34.919946],[136.8918,34.919943],[136.891129,34.919802],[136.890504,34.919724],[136.890032,34.919699],[136.889629,34.919689],[136.889294,34.919683],[136.889135,34.919706],[136.888827,34.919911],[136.888585,34.920036],[136.888431,34.920138],[136.888346,34.920161],[136.888216,34.920146],[136.887927,34.920102],[136.887827,34.920095],[136.887746,34.920117],[136.887318,34.920325],[136.887255,34.920337],[136.886918,34.920219],[136.88643,34.920361],[136.886147,34.920509],[136.88567,34.920818],[136.885707,34.921064],[136.88571,34.921187],[136.885598,34.921273],[136.885413,34.921193],[136.885128,34.921088],[136.884825,34.921036],[136.884561,34.920929],[136.884245,34.920804],[136.883892,34.920708],[136.883344,34.920597],[136.883386,34.920626],[136.883548,34.920739],[136.883708,34.920973],[136.883812,34.921184],[136.883855,34.921269],[136.883859,34.921278],[136.884008,34.921549],[136.884081,34.921989],[136.884128,34.922396],[136.884156,34.922645],[136.884204,34.922851],[136.885191,34.924913],[136.886432,34.927502],[136.886653,34.92796],[136.886741,34.9282],[136.886885,34.928596],[136.886979,34.928782],[136.887087,34.929049],[136.887288,34.929454],[136.88729,34.929456],[136.887498,34.929881],[136.8885,34.931845],[136.88852,34.931883],[136.888737,34.93229],[136.88895,34.932823],[136.889048,34.933011],[136.889114,34.933162],[136.88917,34.933368],[136.889251,34.933541],[136.889373,34.933755],[136.889453,34.933958],[136.889533,34.934131],[136.889641,34.934294],[136.889777,34.934388],[136.889849,34.934434],[136.889854,34.934435],[136.88987,34.934447],[136.889906,34.93447],[136.889912,34.934481],[136.889938,34.93453],[136.890095,34.934437],[136.89023,34.934363],[136.890331,34.93434]]]}},{"type":"Feature","id":"234410120","properties":{"KEY_CODE":"234410120","PREF":"23","CITY":"441","S_AREA":"012000","PREF_NAME":"愛知県","CITY_NAME":"阿久比町","S_NAME":"大字植大","HCODE":8101,"AREA":3403590.615,"KIGO_E":"","JINKO":3892,"SETAI":1489,"X_CODE":136.904596,"Y_CODE":34.916054},"geometry":{"type":"Polygon","coordinates":[[[136.919382,34.920728],[136.919559,34.920706],[136.919737,34.920707],[136.919847,34.920729],[136.91997,34.920797],[136.920106,34.92082],[136.920216,34.92082],[136.920353,34.920764],[136.920545,34.920618],[136.920709,34.920483],[136.920805,34.920393],[136.920956,34.920281],[136.921175,34.920169],[136.92134,34.920101],[136.921449,34.920079],[136.921586,34.920113],[136.92175,34.920136],[136.921969,34.920125],[136.922229,34.920035],[136.922667,34.91991],[136.922555,34.920371],[136.923807,34.92059],[136.923653,34.921198],[136.924039,34.92112],[136.924779,34.920946],[136.925261,34.920826],[136.925728,34.920711],[136.925932,34.920428],[136.926173,34.920071],[136.92634,34.91977],[136.926495,34.919361],[136.926695,34.918769],[136.926774,34.918484],[136.926839,34.918298],[136.926881,34.918027],[136.926877,34.91778],[136.926869,34.917487],[136.926848,34.917273],[136.926881,34.916882],[136.926947,34.916546],[136.927018,34.916317],[136.927192,34.91587],[136.92739,34.915246],[136.927497,34.914692],[136.927425,34.914315],[136.927392,34.914089],[136.927353,34.913932],[136.927339,34.913679],[136.927358,34.913516],[136.927359,34.913198],[136.927353,34.913158],[136.927176,34.913365],[136.927125,34.913451],[136.927098,34.913498],[136.927047,34.913603],[136.92702,34.913674],[136.927019,34.913676],[136.927009,34.91368],[136.926945,34.913702],[136.926902,34.913718],[136.926765,34.913772],[136.926655,34.91381],[136.926486,34.913871],[136.926296,34.913949],[136.926172,34.913986],[136.926058,34.914016],[136.926028,34.914024],[136.926016,34.914025],[136.925871,34.914036],[136.92572,34.914011],[136.925593,34.913994],[136.925491,34.913968],[136.925464,34.913961],[136.925349,34.913917],[136.92522,34.913859],[136.924844,34.913458],[136.924795,34.913424],[136.924775,34.91341],[136.924455,34.913238],[136.924403,34.913216],[136.924095,34.913079],[136.923919,34.912923],[136.923913,34.912918],[136.923893,34.9129],[136.923855,34.912866],[136.923705,34.91271],[136.923579,34.912601],[136.923451,34.912451],[136.923334,34.912288],[136.923323,34.912273],[136.923299,34.912251],[136.923249,34.912206],[136.923053,34.912031],[136.923006,34.911989],[136.922463,34.911809],[136.922361,34.911779],[136.92226,34.911742],[136.922028,34.911734],[136.921953,34.911827],[136.921838,34.911972],[136.921774,34.912048],[136.921697,34.912156],[136.921688,34.912167],[136.921595,34.912332],[136.921548,34.912414],[136.921463,34.912479],[136.921391,34.912517],[136.921311,34.912534],[136.921232,34.912545],[136.920636,34.912564],[136.920107,34.91266],[136.919857,34.912915],[136.919722,34.912953],[136.919434,34.913031],[136.919271,34.913001],[136.919225,34.912982],[136.919172,34.912963],[136.91903,34.912887],[136.918971,34.912857],[136.918923,34.912823],[136.918822,34.912811],[136.918716,34.912798],[136.918591,34.912777],[136.91771,34.912588],[136.917584,34.912557],[136.917493,34.91253],[136.917392,34.912511],[136.917323,34.91248],[136.917224,34.912414],[136.917127,34.912307],[136.917085,34.912228],[136.916943,34.912005],[136.916776,34.911704],[136.916445,34.91113],[136.916327,34.910941],[136.915794,34.910387],[136.915505,34.910243],[136.915223,34.910249],[136.914116,34.910449],[136.913713,34.910521],[136.913672,34.910667],[136.913718,34.910669],[136.913654,34.910793],[136.913739,34.910809],[136.91384,34.910834],[136.913647,34.911354],[136.913633,34.911383],[136.913559,34.911405],[136.912613,34.911681],[136.912719,34.911939],[136.91167,34.912236],[136.911642,34.912162],[136.911578,34.912],[136.911536,34.912013],[136.911426,34.911744],[136.911407,34.91175],[136.910576,34.911987],[136.910023,34.91201],[136.909925,34.912075],[136.909845,34.912109],[136.909772,34.91215],[136.9097,34.912182],[136.909585,34.912234],[136.909454,34.912293],[136.909382,34.912307],[136.90921,34.912313],[136.909042,34.912302],[136.908777,34.912296],[136.908713,34.912323],[136.908573,34.912382],[136.908397,34.912441],[136.908252,34.912481],[136.908137,34.912511],[136.908036,34.912519],[136.907934,34.912527],[136.907839,34.912519],[136.90759,34.912501],[136.90729,34.912501],[136.906984,34.912471],[136.906868,34.912455],[136.906563,34.912454],[136.906385,34.912501],[136.906193,34.912603],[136.905922,34.91276],[136.905503,34.913028],[136.905375,34.913136],[136.905079,34.913314],[136.904946,34.913355],[136.904841,34.913359],[136.904739,34.913364],[136.904651,34.913359],[136.904449,34.913336],[136.903807,34.913187],[136.903719,34.913188],[136.903616,34.913211],[136.903502,34.913257],[136.903356,34.913304],[136.903252,34.91334],[136.903031,34.91339],[136.902897,34.913415],[136.902762,34.913412],[136.902506,34.913405],[136.902304,34.913429],[136.902079,34.913491],[136.90184,34.913583],[136.90149,34.913723],[136.901285,34.913775],[136.901121,34.913811],[136.900961,34.913808],[136.900839,34.9138],[136.900741,34.913785],[136.900601,34.913756],[136.900463,34.913729],[136.900358,34.913727],[136.900245,34.913758],[136.899797,34.913919],[136.899719,34.913947],[136.899616,34.913973],[136.899498,34.913964],[136.899374,34.91393],[136.898346,34.913546],[136.898143,34.913443],[136.897888,34.913315],[136.897663,34.913187],[136.897494,34.91309],[136.897311,34.912994],[136.896887,34.912746],[136.896617,34.91258],[136.896424,34.912446],[136.896445,34.912418],[136.896543,34.912283],[136.896697,34.912088],[136.896941,34.911766],[136.896256,34.911407],[136.895999,34.911771],[136.895878,34.911942],[136.895829,34.912023],[136.895191,34.911401],[136.894933,34.911216],[136.894875,34.911177],[136.894801,34.911147],[136.894622,34.911193],[136.894456,34.910995],[136.894393,34.91092],[136.894037,34.911019],[136.893955,34.911038],[136.893738,34.910906],[136.893624,34.91085],[136.893412,34.910848],[136.893276,34.91087],[136.893102,34.91092],[136.892851,34.911007],[136.89242,34.911138],[136.892289,34.911164],[136.891989,34.91119],[136.891983,34.911163],[136.890746,34.911135],[136.89015,34.911223],[136.890029,34.911232],[136.890013,34.911198],[136.889931,34.911038],[136.889916,34.910981],[136.889891,34.910888],[136.889804,34.910839],[136.889687,34.910841],[136.889583,34.910873],[136.889393,34.911038],[136.889247,34.911181],[136.88921,34.911221],[136.889163,34.911251],[136.889117,34.911271],[136.888998,34.91128],[136.888921,34.911272],[136.888833,34.911255],[136.888791,34.911241],[136.888701,34.911213],[136.88866,34.911198],[136.888584,34.911169],[136.888452,34.911118],[136.888286,34.911056],[136.888056,34.910967],[136.887842,34.910882],[136.887681,34.910829],[136.887382,34.91076],[136.887273,34.91076],[136.887159,34.910776],[136.887047,34.910809],[136.886941,34.910862],[136.886856,34.910903],[136.886762,34.910995],[136.886622,34.911196],[136.886475,34.911408],[136.88623,34.911745],[136.886093,34.911946],[136.886018,34.912016],[136.885953,34.912048],[136.885695,34.912115],[136.885174,34.912235],[136.88492,34.912315],[136.884712,34.912403],[136.884531,34.912499],[136.884436,34.912561],[136.884294,34.912674],[136.884257,34.912703],[136.884009,34.912931],[136.88376,34.913218],[136.883427,34.913679],[136.883085,34.914143],[136.882499,34.914964],[136.881958,34.915575],[136.881783,34.915771],[136.88131,34.916389],[136.880887,34.916893],[136.880128,34.917803],[136.880113,34.917823],[136.880051,34.917904],[136.880379,34.918186],[136.880819,34.918578],[136.881179,34.918898],[136.881314,34.918984],[136.88142,34.91907],[136.881856,34.919477],[136.882156,34.919722],[136.882564,34.920084],[136.882904,34.920285],[136.88327,34.920547],[136.883344,34.920597],[136.883892,34.920708],[136.884245,34.920804],[136.884561,34.920929],[136.884825,34.921036],[136.885128,34.921088],[136.885413,34.921193],[136.885598,34.921273],[136.88571,34.921187],[136.885707,34.921064],[136.88567,34.920818],[136.886147,34.920509],[136.88643,34.920361],[136.886918,34.920219],[136.887255,34.920337],[136.887318,34.920325],[136.887746,34.920117],[136.887827,34.920095],[136.887927,34.920102],[136.888216,34.920146],[136.888346,34.920161],[136.888431,34.920138],[136.888585,34.920036],[136.888827,34.919911],[136.889135,34.919706],[136.889294,34.919683],[136.889629,34.919689],[136.890032,34.919699],[136.890504,34.919724],[136.891129,34.919802],[136.8918,34.919943],[136.89183,34.919946],[136.892382,34.920012],[136.892623,34.919993],[136.892908,34.919946],[136.893017,34.919828],[136.893104,34.919675],[136.893212,34.919476],[136.893474,34.919204],[136.893692,34.918914],[136.894042,34.918786],[136.894346,34.918693],[136.894524,34.918639],[136.894984,34.918564],[136.89527,34.918635],[136.895556,34.918751],[136.895896,34.918758],[136.896071,34.918667],[136.896465,34.918494],[136.89675,34.918393],[136.897003,34.918491],[136.897202,34.918716],[136.897265,34.918763],[136.897466,34.918913],[136.897642,34.918894],[136.89786,34.918712],[136.898276,34.918494],[136.898614,34.91824],[136.898744,34.91795],[136.898918,34.917715],[136.89918,34.917497],[136.899465,34.917459],[136.899651,34.917527],[136.899685,34.917539],[136.899796,34.917629],[136.900115,34.917844],[136.900412,34.917888],[136.900729,34.917769],[136.90119,34.91773],[136.901914,34.917681],[136.902473,34.91767],[136.902751,34.917643],[136.903219,34.917622],[136.90378,34.917524],[136.903947,34.917475],[136.904101,34.917422],[136.904355,34.917314],[136.904575,34.917356],[136.905067,34.917552],[136.905367,34.917684],[136.905799,34.917893],[136.905913,34.917931],[136.906101,34.917943],[136.906375,34.917905],[136.906559,34.917894],[136.906722,34.917908],[136.906753,34.918049],[136.906812,34.918171],[136.906965,34.918386],[136.907152,34.91853],[136.907493,34.918646],[136.907889,34.918725],[136.908031,34.918776],[136.908186,34.918832],[136.908625,34.918965],[136.909119,34.919016],[136.909229,34.919043],[136.909588,34.919037],[136.909682,34.919005],[136.909782,34.91891],[136.90989,34.918771],[136.909951,34.918835],[136.909969,34.91896],[136.909968,34.9192],[136.909962,34.919298],[136.909932,34.919351],[136.909739,34.919622],[136.909689,34.919838],[136.909685,34.919943],[136.909737,34.920167],[136.909847,34.920482],[136.909917,34.920661],[136.909935,34.920749],[136.910001,34.920861],[136.910105,34.920899],[136.910183,34.920903],[136.910326,34.921012],[136.910432,34.92138],[136.910611,34.921395],[136.910686,34.921451],[136.910717,34.921491],[136.910772,34.921588],[136.911132,34.92156],[136.911559,34.921512],[136.912053,34.92151],[136.912602,34.921498],[136.912811,34.921419],[136.913072,34.921324],[136.91319,34.921328],[136.913314,34.921332],[136.913545,34.921385],[136.91372,34.921321],[136.914005,34.921256],[136.914158,34.921219],[136.914388,34.921164],[136.914662,34.921151],[136.914833,34.921016],[136.915037,34.920864],[136.915176,34.920709],[136.915293,34.92053],[136.915398,34.920361],[136.915477,34.920275],[136.915608,34.920239],[136.91593,34.920182],[136.916186,34.920126],[136.9162,34.920121],[136.916476,34.920017],[136.916658,34.919972],[136.916743,34.919962],[136.916995,34.919944],[136.916995,34.920091],[136.916986,34.920337],[136.916983,34.920422],[136.916982,34.920491],[136.916962,34.920789],[136.917432,34.920824],[136.917407,34.921156],[136.917724,34.92121],[136.918165,34.921293],[136.918372,34.921351],[136.918505,34.921402],[136.918578,34.92143],[136.918871,34.921542],[136.919021,34.921595],[136.919249,34.921667],[136.919194,34.921202],[136.919182,34.921129],[136.919121,34.920784],[136.919382,34.920728]]]}},{"type":"Feature","id":"234410130","properties":{"KEY_CODE":"234410130","PREF":"23","CITY":"441","S_AREA":"013000","PREF_NAME":"愛知県","CITY_NAME":"阿久比町","S_NAME":"大字大興寺","HCODE":8101,"AREA":12036.749,"KIGO_E":"","JINKO":0,"SETAI":0,"X_CODE":136.878908,"Y_CODE":34.951553},"geometry":{"type":"Polygon","coordinates":[[[136.87942,34.950629],[136.878884,34.950907],[136.87867,34.951992],[136.877428,34.951828],[136.877429,34.952191],[136.877669,34.95213],[136.877869,34.952099],[136.878265,34.952089],[136.878695,34.952035],[136.87928,34.952063],[136.879451,34.952035],[136.879541,34.951839],[136.879543,34.951267],[136.879554,34.951129],[136.879518,34.95095],[136.879428,34.950714],[136.87942,34.950629]]]}},{"type":"Feature","id":"234410140","properties":{"KEY_CODE":"234410140","PREF":"23","CITY":"441","S_AREA":"014000","PREF_NAME":"愛知県","CITY_NAME":"阿久比町","S_NAME":"大字岡田","HCODE":8101,"AREA":928.761,"KIGO_E":"E2","JINKO":0,"SETAI":0,"X_CODE":136.879951,"Y_CODE":34.953104},"geometry":{"type":"Polygon","coordinates":[[[136.88026,34.952766],[136.880145,34.952673],[136.879687,34.953413],[136.879909,34.953431],[136.879998,34.952981],[136.88026,34.952766]]]}},{"type":"Feature","id":"234410140","properties":{"KEY_CODE":"234410140","PREF":"23","CITY":"441","S_AREA":"014000","PREF_NAME":"愛知県","CITY_NAME":"阿久比町","S_NAME":"大字岡田","HCODE":8101,"AREA":2594.792,"KIGO_E":"E1","JINKO":0,"SETAI":0,"X_CODE":136.879136,"Y_CODE":34.953005},"geometry":{"type":"Polygon","coordinates":[[[136.877701,34.952521],[136.877477,34.952445],[136.877423,34.952448],[136.877422,34.952467],[136.877435,34.952591],[136.879048,34.952833],[136.879081,34.9529],[136.879005,34.953336],[136.879233,34.95336],[136.87922,34.953111],[136.879193,34.952842],[136.878669,34.952662],[136.878216,34.952613],[136.877701,34.952521]]]}},{"type":"Feature","id":"23441015001","properties":{"KEY_CODE":"23441015001","PREF":"23","CITY":"441","S_AREA":"015001","PREF_NAME":"愛知県","CITY_NAME":"阿久比町","S_NAME":"陽なたの丘一丁目","HCODE":8101,"AREA":48134.334,"KIGO_E":"","JINKO":553,"SETAI":151,"X_CODE":136.928846,"Y_CODE":34.937305},"geometry":{"type":"Polygon","coordinates":[[[136.929197,34.938289],[136.929195,34.938152],[136.929374,34.938153],[136.929386,34.938277],[136.929527,34.938268],[136.92949,34.938145],[136.929644,34.93814],[136.930197,34.938151],[136.930131,34.937539],[136.930043,34.936718],[136.929715,34.936737],[136.929621,34.936602],[136.929511,34.936565],[136.929372,34.936506],[136.929275,34.936355],[136.929154,34.936136],[136.92915,34.936076],[136.92915,34.936028],[136.929119,34.935997],[136.929096,34.935959],[136.929083,34.935916],[136.928727,34.935821],[136.928683,34.936137],[136.928431,34.936311],[136.928257,34.936192],[136.928115,34.936096],[136.927863,34.936317],[136.92779,34.936629],[136.927719,34.936941],[136.927655,34.937171],[136.927714,34.937316],[136.927729,34.937474],[136.927663,34.937809],[136.927756,34.93787],[136.927819,34.937941],[136.927874,34.938029],[136.927925,34.938118],[136.928082,34.938302],[136.928152,34.938374],[136.928159,34.938535],[136.928746,34.938678],[136.928851,34.938288],[136.928861,34.938288],[136.929197,34.938289]]]}},{"type":"Feature","id":"23441015002","properties":{"KEY_CODE":"23441015002","PREF":"23","CITY":"441","S_AREA":"015002","PREF_NAME":"愛知県","CITY_NAME":"阿久比町","S_NAME":"陽なたの丘二丁目","HCODE":8101,"AREA":38862.563,"KIGO_E":"","JINKO":419,"SETAI":111,"X_CODE":136.931228,"Y_CODE":34.937486},"geometry":{"type":"Polygon","coordinates":[[[136.93162,34.938524],[136.931745,34.938392],[136.931807,34.938262],[136.93222,34.937399],[136.932278,34.937278],[136.932288,34.937205],[136.932141,34.937148],[136.932041,34.93702],[136.932502,34.936712],[136.932672,34.936676],[136.933211,34.936613],[136.933721,34.936586],[136.93372,34.936584],[136.933688,34.936458],[136.933686,34.936459],[136.933501,34.936479],[136.931977,34.936595],[136.93171,34.936612],[136.930666,34.936681],[136.930043,34.936718],[136.930131,34.937539],[136.930197,34.938151],[136.930325,34.938143],[136.930357,34.938488],[136.930485,34.938475],[136.930755,34.938523],[136.930876,34.938594],[136.931014,34.938674],[136.931489,34.938662],[136.931526,34.938623],[136.93162,34.938524]]]}},{"type":"Feature","id":"23441015003","properties":{"KEY_CODE":"23441015003","PREF":"23","CITY":"441","S_AREA":"015003","PREF_NAME":"愛知県","CITY_NAME":"阿久比町","S_NAME":"陽なたの丘三丁目","HCODE":8101,"AREA":38558.084,"KIGO_E":"","JINKO":441,"SETAI":118,"X_CODE":136.931694,"Y_CODE":34.936123},"geometry":{"type":"Polygon","coordinates":[[[136.933697,34.936457],[136.933584,34.935375],[136.932268,34.935476],[136.932278,34.935578],[136.932303,34.935615],[136.932366,34.935712],[136.932269,34.935953],[136.931741,34.935853],[136.931628,34.935797],[136.931374,34.935671],[136.931346,34.935652],[136.931089,34.935639],[136.930978,34.935669],[136.930888,34.935748],[136.930714,34.93578],[136.930575,34.93578],[136.930467,34.935793],[136.930324,34.935817],[136.93019,34.935804],[136.930091,34.935795],[136.930021,34.935767],[136.929961,34.93579],[136.929746,34.935838],[136.929399,34.935805],[136.929756,34.936446],[136.929621,34.936602],[136.929715,34.936737],[136.930043,34.936718],[136.930666,34.936681],[136.93171,34.936612],[136.931977,34.936595],[136.933501,34.936479],[136.933686,34.936459],[136.933688,34.936458],[136.933697,34.936457]]]}},{"type":"Feature","id":"23441015004","properties":{"KEY_CODE":"23441015004","PREF":"23","CITY":"441","S_AREA":"015004","PREF_NAME":"愛知県","CITY_NAME":"阿久比町","S_NAME":"陽なたの丘四丁目","HCODE":8101,"AREA":24280.369,"KIGO_E":"","JINKO":236,"SETAI":61,"X_CODE":136.933249,"Y_CODE":34.934341},"geometry":{"type":"Polygon","coordinates":[[[136.931935,34.935227],[136.931881,34.935405],[136.931972,34.935526],[136.93205,34.935542],[136.932094,34.935568],[136.93212,34.935545],[136.932303,34.935615],[136.932278,34.935578],[136.932268,34.935476],[136.933584,34.935375],[136.933495,34.934522],[136.933453,34.934121],[136.933392,34.933536],[136.933214,34.933558],[136.933044,34.933631],[136.93294,34.933641],[136.932808,34.93359],[136.93238,34.933216],[136.932211,34.932801],[136.9322,34.932773],[136.931658,34.932998],[136.931646,34.933105],[136.9317,34.933228],[136.931784,34.933416],[136.931941,34.933465],[136.932105,34.933538],[136.932579,34.933968],[136.932562,34.934097],[136.932556,34.934143],[136.933027,34.93416],[136.933014,34.934529],[136.932976,34.934595],[136.932804,34.934597],[136.932587,34.934716],[136.932186,34.934985],[136.931935,34.935227]]]}},{"type":"Feature","id":"23441015005","properties":{"KEY_CODE":"23441015005","PREF":"23","CITY":"441","S_AREA":"015005","PREF_NAME":"愛知県","CITY_NAME":"阿久比町","S_NAME":"陽なたの丘五丁目","HCODE":8101,"AREA":37380.267,"KIGO_E":"","JINKO":261,"SETAI":71,"X_CODE":136.934891,"Y_CODE":34.936061},"geometry":{"type":"Polygon","coordinates":[[[136.936287,34.936734],[136.936081,34.93631],[136.935966,34.935235],[136.935962,34.935201],[136.933584,34.935375],[136.933697,34.936457],[136.933688,34.936458],[136.93372,34.936584],[136.933888,34.936619],[136.934184,34.936742],[136.934571,34.936904],[136.934732,34.936981],[136.934878,34.937055],[136.935029,34.93706],[136.935244,34.936963],[136.935488,34.936792],[136.935726,34.936666],[136.935899,34.936659],[136.936287,34.936734]]]}},{"type":"Feature","id":"23441015006","properties":{"KEY_CODE":"23441015006","PREF":"23","CITY":"441","S_AREA":"015006","PREF_NAME":"愛知県","CITY_NAME":"阿久比町","S_NAME":"陽なたの丘六丁目","HCODE":8101,"AREA":30316.439,"KIGO_E":"","JINKO":371,"SETAI":99,"X_CODE":136.934704,"Y_CODE":34.934663},"geometry":{"type":"Polygon","coordinates":[[[136.935962,34.935201],[136.935823,34.933959],[136.935823,34.933958],[136.935823,34.933957],[136.935823,34.933956],[136.935752,34.933961],[136.935708,34.933964],[136.93426,34.934063],[136.933453,34.934121],[136.933495,34.934522],[136.933584,34.935375],[136.935962,34.935201]]]}},{"type":"Feature","id":"23441015007","properties":{"KEY_CODE":"23441015007","PREF":"23","CITY":"441","S_AREA":"015007","PREF_NAME":"愛知県","CITY_NAME":"阿久比町","S_NAME":"陽なたの丘七丁目","HCODE":8101,"AREA":29429.334,"KIGO_E":"","JINKO":243,"SETAI":67,"X_CODE":136.937073,"Y_CODE":34.935787},"geometry":{"type":"Polygon","coordinates":[[[136.937994,34.936207],[136.938033,34.936187],[136.938097,34.936229],[136.938082,34.936207],[136.938071,34.936151],[136.938083,34.9361],[136.938305,34.935848],[136.938309,34.935844],[136.938349,34.935774],[136.938351,34.935707],[136.938312,34.935575],[136.938128,34.935208],[136.938099,34.935117],[136.938092,34.935046],[136.935962,34.935201],[136.935966,34.935235],[136.936081,34.93631],[136.936287,34.936734],[136.936291,34.936741],[136.936305,34.936737],[136.937063,34.936517],[136.937173,34.936452],[136.937272,34.93642],[136.937397,34.936392],[136.937575,34.936285],[136.937994,34.936207]]]}},{"type":"Feature","id":"23441015008","properties":{"KEY_CODE":"23441015008","PREF":"23","CITY":"441","S_AREA":"015008","PREF_NAME":"愛知県","CITY_NAME":"阿久比町","S_NAME":"陽なたの丘八丁目","HCODE":8101,"AREA":29380.892,"KIGO_E":"","JINKO":316,"SETAI":90,"X_CODE":136.937057,"Y_CODE":34.934478},"geometry":{"type":"Polygon","coordinates":[[[136.938092,34.935046],[136.938089,34.935015],[136.938095,34.934839],[136.93839,34.933853],[136.938397,34.933829],[136.938408,34.933792],[136.935823,34.933957],[136.935823,34.933958],[136.935823,34.933959],[136.935962,34.935201],[136.938092,34.935046]]]}},{"type":"Feature","id":"23441015009","properties":{"KEY_CODE":"23441015009","PREF":"23","CITY":"441","S_AREA":"015009","PREF_NAME":"愛知県","CITY_NAME":"阿久比町","S_NAME":"陽なたの丘九丁目","HCODE":8101,"AREA":32576.178,"KIGO_E":"","JINKO":188,"SETAI":52,"X_CODE":136.935952,"Y_CODE":34.933569},"geometry":{"type":"Polygon","coordinates":[[[136.935823,34.933957],[136.938408,34.933792],[136.938471,34.93358],[136.938569,34.933169],[136.938592,34.932737],[136.938588,34.93273],[136.938338,34.932989],[136.938293,34.932983],[136.938227,34.932925],[136.938128,34.93294],[136.938068,34.932988],[136.937985,34.932963],[136.937951,34.933013],[136.937962,34.933086],[136.937898,34.933169],[136.937751,34.933246],[136.937688,34.933293],[136.937626,34.93333],[136.937236,34.933353],[136.937095,34.933377],[136.936969,34.933461],[136.93675,34.933413],[136.936516,34.933316],[136.936385,34.933225],[136.936231,34.933186],[136.936139,34.933133],[136.935964,34.933068],[136.935806,34.933143],[136.935661,34.933177],[136.93546,34.933195],[136.935261,34.93319],[136.935002,34.933317],[136.935076,34.933408],[136.93504,34.933456],[136.935245,34.933651],[136.934847,34.933967],[136.934777,34.933945],[136.934802,34.933914],[136.934763,34.933827],[136.934694,34.933757],[136.934632,34.933738],[136.934379,34.933694],[136.934333,34.933822],[136.934264,34.933904],[136.934135,34.933837],[136.934037,34.933914],[136.9339,34.93399],[136.933794,34.933932],[136.934054,34.933528],[136.934144,34.933536],[136.934176,34.933456],[136.934181,34.933343],[136.934049,34.933452],[136.933938,34.933505],[136.933897,34.93351],[136.933819,34.933465],[136.933645,34.93333],[136.933421,34.933401],[136.933326,34.933276],[136.933011,34.933454],[136.932705,34.933251],[136.932441,34.933106],[136.9322,34.932773],[136.932211,34.932801],[136.93238,34.933216],[136.932808,34.93359],[136.93294,34.933641],[136.933044,34.933631],[136.933214,34.933558],[136.933392,34.933536],[136.933453,34.934121],[136.93426,34.934063],[136.935708,34.933964],[136.935752,34.933961],[136.935823,34.933956],[136.935823,34.933957]]]}}]}