{"type":"FeatureCollection","name":"23562_東栄町","crs":{"type":"name","properties":{"name":"urn:ogc:def:crs:OGC:1.3:CRS84"}},"features":[{"type":"Feature","id":"235620010","properties":{"KEY_CODE":"235620010","PREF":"23","CITY":"562","S_AREA":"001000","PREF_NAME":"愛知県","CITY_NAME":"東栄町","S_NAME":"大字中設楽","HCODE":8101,"AREA":21919198.628,"KIGO_E":"","JINKO":519,"SETAI":209,"X_CODE":137.666586,"Y_CODE":35.075972},"geometry":{"type":"Polygon","coordinates":[[[137.666618,35.106866],[137.666892,35.106775],[137.667125,35.106785],[137.667303,35.106784],[137.667673,35.10667],[137.668136,35.106285],[137.66841,35.106138],[137.668629,35.106103],[137.668862,35.106102],[137.669521,35.106212],[137.669864,35.106267],[137.670138,35.106187],[137.670356,35.105994],[137.670616,35.105982],[137.67085,35.105992],[137.671194,35.106182],[137.671703,35.106484],[137.672102,35.106708],[137.672518,35.106879],[137.672542,35.106841],[137.673114,35.105932],[137.673759,35.10523],[137.674026,35.104941],[137.675182,35.103799],[137.675361,35.103653],[137.67623,35.103033],[137.677055,35.102353],[137.677493,35.102178],[137.678218,35.102024],[137.678693,35.101959],[137.679082,35.101575],[137.678991,35.101013],[137.678825,35.100505],[137.6788,35.100362],[137.678822,35.099903],[137.679245,35.099785],[137.679528,35.099876],[137.679777,35.100102],[137.680318,35.099646],[137.680409,35.099518],[137.681135,35.098583],[137.681505,35.098574],[137.682037,35.09889],[137.682465,35.099052],[137.683192,35.098389],[137.683759,35.097942],[137.684183,35.097545],[137.684878,35.097453],[137.68567,35.097345],[137.686471,35.096778],[137.686701,35.096564],[137.687264,35.09604],[137.687425,35.095852],[137.687591,35.09566],[137.687922,35.095421],[137.688356,35.095106],[137.689099,35.094788],[137.689814,35.094407],[137.690782,35.094045],[137.691323,35.093904],[137.691963,35.093867],[137.692517,35.093949],[137.693053,35.093879],[137.693688,35.093462],[137.693697,35.093456],[137.694124,35.092551],[137.694096,35.092112],[137.694082,35.091599],[137.694078,35.091471],[137.694162,35.090649],[137.694351,35.089934],[137.694576,35.089521],[137.695143,35.089124],[137.695403,35.088999],[137.695091,35.088055],[137.694994,35.087785],[137.694842,35.087437],[137.69463,35.087006],[137.694061,35.085881],[137.693115,35.085065],[137.69279,35.084843],[137.692694,35.084697],[137.69269,35.084538],[137.69278,35.084376],[137.692862,35.084268],[137.693041,35.08401],[137.693351,35.08359],[137.693693,35.083048],[137.693757,35.082804],[137.693624,35.082548],[137.693324,35.081975],[137.693364,35.081745],[137.693461,35.081596],[137.693575,35.081406],[137.693852,35.081],[137.694166,35.080505],[137.694173,35.080363],[137.694126,35.08023],[137.693888,35.079686],[137.693566,35.078903],[137.693508,35.078709],[137.693402,35.078526],[137.693228,35.078346],[137.693249,35.077985],[137.693751,35.078132],[137.694044,35.078203],[137.694336,35.078208],[137.69463,35.07819],[137.69526,35.078065],[137.695565,35.077892],[137.695879,35.077584],[137.696306,35.077168],[137.696038,35.0768],[137.696013,35.076708],[137.69611,35.076475],[137.696116,35.076404],[137.695961,35.076238],[137.695527,35.075966],[137.695195,35.075717],[137.694707,35.075364],[137.69428,35.075011],[137.693663,35.075272],[137.692999,35.075554],[137.692261,35.075815],[137.691818,35.075892],[137.691483,35.075799],[137.691393,35.07566],[137.69125,35.075493],[137.691055,35.075405],[137.690979,35.07497],[137.691006,35.074418],[137.691138,35.073835],[137.691398,35.073388],[137.691875,35.072813],[137.6924,35.072128],[137.693083,35.070999],[137.693114,35.070725],[137.693027,35.070505],[137.692815,35.070296],[137.692434,35.069798],[137.692247,35.069056],[137.691797,35.068515],[137.691596,35.067917],[137.691443,35.067374],[137.691197,35.066801],[137.690826,35.066434],[137.690339,35.065968],[137.689581,35.065654],[137.689515,35.065336],[137.689364,35.064956],[137.689155,35.064744],[137.688787,35.06454],[137.688355,35.06418],[137.688081,35.063732],[137.687572,35.063279],[137.686937,35.063032],[137.686931,35.062707],[137.68691,35.062364],[137.686717,35.062018],[137.686385,35.061781],[137.686322,35.061736],[137.685496,35.061459],[137.684847,35.061275],[137.68427,35.06086],[137.68401,35.060349],[137.683637,35.05982],[137.682783,35.059231],[137.682182,35.058747],[137.681712,35.058381],[137.681173,35.057971],[137.680946,35.057579],[137.680854,35.057111],[137.680528,35.056719],[137.679999,35.056441],[137.679421,35.056381],[137.678917,35.056253],[137.678375,35.056118],[137.678043,35.055839],[137.677693,35.055612],[137.677613,35.05556],[137.677367,35.055613],[137.677052,35.055681],[137.676301,35.055772],[137.675402,35.055645],[137.675348,35.055622],[137.674721,35.055343],[137.673954,35.054978],[137.673446,35.054601],[137.673092,35.054339],[137.672442,35.053637],[137.671954,35.05309],[137.671556,35.052929],[137.670855,35.052801],[137.670122,35.052636],[137.66936,35.052515],[137.668725,35.052268],[137.667871,35.052116],[137.667045,35.051839],[137.666365,35.051618],[137.665578,35.051347],[137.664834,35.05097],[137.664108,35.050692],[137.663301,35.050159],[137.662443,35.049522],[137.662214,35.049483],[137.661614,35.049233],[137.660864,35.04885],[137.660076,35.048758],[137.658314,35.048758],[137.657539,35.049033],[137.656876,35.049216],[137.656327,35.049666],[137.655702,35.049983],[137.654877,35.050025],[137.654577,35.050091],[137.654139,35.050699],[137.653477,35.051899],[137.652927,35.052324],[137.652427,35.053907],[137.652052,35.054557],[137.651714,35.054674],[137.650014,35.055574],[137.648964,35.055665],[137.647652,35.055649],[137.647158,35.055737],[137.646765,35.055807],[137.64584,35.055807],[137.645565,35.055873],[137.64534,35.05619],[137.645615,35.05779],[137.645565,35.058715],[137.64534,35.059023],[137.644565,35.059481],[137.643477,35.059748],[137.642452,35.059865],[137.641715,35.060248],[137.640965,35.060881],[137.64034,35.061198],[137.639765,35.061714],[137.639703,35.061897],[137.639403,35.062322],[137.639265,35.062414],[137.638878,35.062889],[137.638603,35.063514],[137.638165,35.063947],[137.637728,35.064264],[137.638165,35.065255],[137.638278,35.065889],[137.638578,35.067938],[137.638415,35.068405],[137.638003,35.068721],[137.637065,35.07008],[137.636515,35.070463],[137.635915,35.070688],[137.635278,35.071029],[137.634815,35.071454],[137.634569,35.071719],[137.633962,35.072202],[137.633608,35.072265],[137.633245,35.072374],[137.632809,35.072539],[137.632711,35.072763],[137.632753,35.072946],[137.632828,35.073212],[137.633103,35.073687],[137.63347,35.074122],[137.633465,35.074162],[137.634065,35.074654],[137.634353,35.075221],[137.634378,35.075937],[137.634103,35.077403],[137.633803,35.078462],[137.633903,35.078578],[137.63459,35.078487],[137.635202,35.078487],[137.63589,35.078528],[137.636627,35.078712],[137.636902,35.078887],[137.63734,35.079787],[137.637815,35.080287],[137.63839,35.080645],[137.638777,35.08112],[137.638965,35.081703],[137.639265,35.082178],[137.639627,35.082536],[137.639677,35.082761],[137.639627,35.083103],[137.638827,35.083819],[137.638615,35.084094],[137.638493,35.08417],[137.638746,35.084466],[137.639518,35.084715],[137.640349,35.084837],[137.641592,35.084777],[137.642809,35.084709],[137.643662,35.085225],[137.64428,35.085546],[137.644818,35.085913],[137.645397,35.086318],[137.646109,35.086693],[137.646698,35.087076],[137.647208,35.087628],[137.647476,35.088127],[137.647837,35.08868],[137.648231,35.089116],[137.648437,35.089156],[137.648818,35.0891],[137.650322,35.088788],[137.65124,35.088564],[137.651682,35.088459],[137.651964,35.088279],[137.652294,35.087837],[137.652384,35.087765],[137.652515,35.087738],[137.65263,35.087781],[137.652759,35.088033],[137.652786,35.088407],[137.652792,35.088761],[137.652821,35.088885],[137.65291,35.08898],[137.653228,35.089035],[137.653569,35.08901],[137.653953,35.088904],[137.654975,35.088433],[137.655766,35.087888],[137.656559,35.087465],[137.657214,35.087143],[137.657929,35.087009],[137.658828,35.086862],[137.659602,35.087182],[137.659702,35.087504],[137.659617,35.08789],[137.659553,35.088177],[137.659601,35.088614],[137.660093,35.089015],[137.660716,35.089264],[137.661191,35.08934],[137.661486,35.08933],[137.661747,35.089275],[137.662248,35.08903],[137.663136,35.089849],[137.66392,35.090642],[137.664296,35.091368],[137.664507,35.091843],[137.664782,35.092183],[137.665233,35.092522],[137.666538,35.093253],[137.666699,35.093634],[137.666745,35.094029],[137.666671,35.094424],[137.666045,35.094858],[137.665332,35.095431],[137.664996,35.095701],[137.664693,35.095978],[137.663908,35.096762],[137.66361,35.097027],[137.663183,35.097309],[137.662775,35.097488],[137.66221,35.09774],[137.661752,35.098037],[137.661524,35.098302],[137.661451,35.098504],[137.661501,35.099094],[137.661532,35.099252],[137.66148,35.099389],[137.661357,35.099578],[137.661255,35.099674],[137.661093,35.099779],[137.660405,35.099945],[137.660204,35.100036],[137.66007,35.100176],[137.660873,35.10059],[137.661716,35.101072],[137.662035,35.101338],[137.662392,35.101786],[137.662734,35.102632],[137.663118,35.103867],[137.663348,35.104629],[137.663633,35.105176],[137.664085,35.105629],[137.66445,35.105911],[137.664749,35.106096],[137.665106,35.106309],[137.665492,35.106533],[137.665864,35.106813],[137.666166,35.106924],[137.666413,35.106923],[137.666618,35.106866]]]}},{"type":"Feature","id":"235620020","properties":{"KEY_CODE":"235620020","PREF":"23","CITY":"562","S_AREA":"002000","PREF_NAME":"愛知県","CITY_NAME":"東栄町","S_NAME":"大字本郷","HCODE":8101,"AREA":10497062.199,"KIGO_E":"","JINKO":755,"SETAI":357,"X_CODE":137.692292,"Y_CODE":35.05854},"geometry":{"type":"Polygon","coordinates":[[[137.701069,35.080873],[137.701583,35.08027],[137.701738,35.0801],[137.701811,35.07989],[137.701801,35.079688],[137.701718,35.079478],[137.701659,35.079357],[137.701518,35.079223],[137.701262,35.078933],[137.701112,35.078751],[137.701004,35.078542],[137.700888,35.078408],[137.700828,35.078327],[137.700651,35.078208],[137.700443,35.078193],[137.700144,35.078289],[137.700036,35.07849],[137.700021,35.078772],[137.700152,35.07945],[137.700088,35.079997],[137.699967,35.080259],[137.699814,35.080355],[137.699653,35.080387],[137.699484,35.08035],[137.699303,35.080234],[137.69899,35.079914],[137.698879,35.079717],[137.698754,35.079408],[137.698743,35.079148],[137.698788,35.078432],[137.698753,35.078128],[137.69866,35.077867],[137.698674,35.077785],[137.698895,35.077522],[137.699635,35.076667],[137.699748,35.076528],[137.699854,35.076449],[137.700426,35.076102],[137.700517,35.075973],[137.700612,35.075745],[137.700424,35.075066],[137.700731,35.074882],[137.701307,35.07468],[137.701641,35.074586],[137.701686,35.074572],[137.701897,35.074505],[137.702426,35.074391],[137.70255,35.074391],[137.704334,35.074395],[137.706041,35.074417],[137.706783,35.074286],[137.707678,35.074085],[137.708249,35.074043],[137.708633,35.074047],[137.70879,35.074075],[137.708948,35.074091],[137.709353,35.074224],[137.709608,35.074347],[137.709876,35.074459],[137.710034,35.074508],[137.710202,35.074558],[137.710658,35.074636],[137.711148,35.074726],[137.711283,35.074793],[137.711643,35.074954],[137.711748,35.075049],[137.711876,35.075151],[137.712428,35.075351],[137.713263,35.07579],[137.713392,35.07585],[137.713576,35.075877],[137.713706,35.075833],[137.713795,35.075781],[137.713899,35.075636],[137.714101,35.075002],[137.714253,35.074159],[137.714266,35.074128],[137.714841,35.073385],[137.71528,35.073016],[137.715427,35.07289],[137.715563,35.072613],[137.715626,35.072164],[137.71563,35.071908],[137.71533,35.070936],[137.714861,35.070026],[137.71463,35.069717],[137.714333,35.06939],[137.713304,35.068764],[137.713088,35.068534],[137.713058,35.068351],[137.713109,35.068126],[137.713709,35.067326],[137.714099,35.066761],[137.714108,35.066705],[137.713996,35.066544],[137.713822,35.066356],[137.713735,35.066133],[137.713701,35.065944],[137.7136,35.065661],[137.713565,35.065364],[137.71358,35.065093],[137.713661,35.064944],[137.713792,35.064862],[137.714005,35.064753],[137.714119,35.064631],[137.714151,35.064469],[137.714233,35.06436],[137.71443,35.064292],[137.71466,35.064264],[137.715005,35.064276],[137.715301,35.064193],[137.715513,35.064057],[137.716025,35.063522],[137.715935,35.063466],[137.715541,35.063218],[137.715134,35.063008],[137.714622,35.062829],[137.713762,35.062353],[137.713185,35.061938],[137.712715,35.061572],[137.712304,35.061118],[137.711838,35.060545],[137.711492,35.060287],[137.711119,35.05996],[137.710744,35.059453],[137.710629,35.059185],[137.71042,35.058932],[137.709941,35.059211],[137.709653,35.059325],[137.709549,35.059298],[137.709202,35.058836],[137.708939,35.058656],[137.708663,35.058538],[137.708491,35.058511],[137.708405,35.05854],[137.708341,35.058732],[137.708425,35.058958],[137.708668,35.059211],[137.708732,35.059493],[137.708561,35.059703],[137.708232,35.059869],[137.707929,35.059881],[137.70809,35.058938],[137.708192,35.058664],[137.70833,35.058366],[137.708509,35.058075],[137.70877,35.057729],[137.709015,35.057498],[137.709219,35.057294],[137.709292,35.057091],[137.709199,35.056781],[137.708892,35.056316],[137.708478,35.055791],[137.708188,35.055474],[137.707997,35.055272],[137.707597,35.054867],[137.707209,35.054401],[137.70683,35.053984],[137.70673,35.053466],[137.706874,35.053004],[137.706596,35.052312],[137.70613,35.051752],[137.705639,35.05148],[137.705477,35.050888],[137.705293,35.050389],[137.704999,35.049916],[137.704401,35.049436],[137.703774,35.049125],[137.70319,35.049006],[137.702567,35.048985],[137.70252,35.048965],[137.701469,35.048098],[137.700574,35.047778],[137.699907,35.047413],[137.699064,35.047036],[137.698335,35.046597],[137.697643,35.0466],[137.696991,35.046691],[137.696668,35.046024],[137.696173,35.045509],[137.695061,35.045364],[137.694269,35.045287],[137.693799,35.045145],[137.693495,35.044954],[137.692933,35.044476],[137.692307,35.04436],[137.691758,35.044257],[137.691182,35.044155],[137.690717,35.044024],[137.690046,35.043646],[137.689673,35.043181],[137.68932,35.042558],[137.689167,35.042016],[137.689235,35.041541],[137.689085,35.040805],[137.688614,35.040343],[137.687662,35.040559],[137.685412,35.039926],[137.685193,35.039956],[137.68505,35.039976],[137.684312,35.040585],[137.684112,35.041193],[137.683925,35.041368],[137.68315,35.041643],[137.682962,35.041801],[137.682275,35.041909],[137.681912,35.042118],[137.681675,35.042159],[137.6812,35.042434],[137.680537,35.042317],[137.67985,35.041801],[137.679363,35.041784],[137.678125,35.041868],[137.67755,35.041851],[137.677188,35.041801],[137.676588,35.041784],[137.676338,35.041651],[137.674825,35.040451],[137.674463,35.040384],[137.67395,35.040409],[137.673358,35.040489],[137.672101,35.040659],[137.67026,35.04045],[137.670126,35.040434],[137.669188,35.040551],[137.668888,35.040684],[137.668526,35.041001],[137.668426,35.041184],[137.668326,35.041239],[137.667988,35.041426],[137.667376,35.041676],[137.666613,35.042059],[137.666567,35.042107],[137.666147,35.042542],[137.666001,35.042692],[137.665563,35.043551],[137.665263,35.043801],[137.664851,35.044317],[137.664876,35.045059],[137.664713,35.046817],[137.664276,35.047175],[137.663588,35.04765],[137.663288,35.048508],[137.663201,35.048867],[137.662901,35.049366],[137.662463,35.049525],[137.662443,35.049522],[137.663301,35.050159],[137.664108,35.050692],[137.664834,35.05097],[137.665578,35.051347],[137.666365,35.051618],[137.667045,35.051839],[137.667871,35.052116],[137.668725,35.052268],[137.66936,35.052515],[137.670122,35.052636],[137.670855,35.052801],[137.671556,35.052929],[137.671954,35.05309],[137.672442,35.053637],[137.673092,35.054339],[137.673446,35.054601],[137.673954,35.054978],[137.674721,35.055343],[137.675348,35.055622],[137.675402,35.055645],[137.676301,35.055772],[137.677052,35.055681],[137.677367,35.055613],[137.677613,35.05556],[137.677693,35.055612],[137.678043,35.055839],[137.678375,35.056118],[137.678917,35.056253],[137.679421,35.056381],[137.679999,35.056441],[137.680528,35.056719],[137.680854,35.057111],[137.680946,35.057579],[137.681173,35.057971],[137.681712,35.058381],[137.682182,35.058747],[137.682783,35.059231],[137.683637,35.05982],[137.68401,35.060349],[137.68427,35.06086],[137.684847,35.061275],[137.685496,35.061459],[137.686322,35.061736],[137.686385,35.061781],[137.686717,35.062018],[137.68691,35.062364],[137.686931,35.062707],[137.686937,35.063032],[137.687572,35.063279],[137.688081,35.063732],[137.688355,35.06418],[137.688787,35.06454],[137.689155,35.064744],[137.689364,35.064956],[137.689515,35.065336],[137.689581,35.065654],[137.690339,35.065968],[137.690826,35.066434],[137.691197,35.066801],[137.691443,35.067374],[137.691596,35.067917],[137.691797,35.068515],[137.692247,35.069056],[137.692434,35.069798],[137.692815,35.070296],[137.693027,35.070505],[137.693114,35.070725],[137.693083,35.070999],[137.6924,35.072128],[137.691875,35.072813],[137.691398,35.073388],[137.691138,35.073835],[137.691006,35.074418],[137.690979,35.07497],[137.691055,35.075405],[137.69125,35.075493],[137.691393,35.07566],[137.691483,35.075799],[137.691818,35.075892],[137.692261,35.075815],[137.692999,35.075554],[137.693663,35.075272],[137.69428,35.075011],[137.694707,35.075364],[137.695195,35.075717],[137.695527,35.075966],[137.695961,35.076238],[137.696116,35.076404],[137.69611,35.076475],[137.696013,35.076708],[137.696038,35.0768],[137.696306,35.077168],[137.695879,35.077584],[137.695565,35.077892],[137.69526,35.078065],[137.69463,35.07819],[137.694336,35.078208],[137.694044,35.078203],[137.693751,35.078132],[137.693249,35.077985],[137.693228,35.078346],[137.693402,35.078526],[137.693508,35.078709],[137.693566,35.078903],[137.693888,35.079686],[137.694126,35.08023],[137.694173,35.080363],[137.694166,35.080505],[137.693852,35.081],[137.693575,35.081406],[137.693461,35.081596],[137.693364,35.081745],[137.693324,35.081975],[137.693624,35.082548],[137.693757,35.082804],[137.693693,35.083048],[137.693351,35.08359],[137.693041,35.08401],[137.692862,35.084268],[137.69278,35.084376],[137.69269,35.084538],[137.692694,35.084697],[137.69279,35.084843],[137.693115,35.085065],[137.694061,35.085881],[137.69463,35.087006],[137.694842,35.087437],[137.694994,35.087785],[137.695091,35.088055],[137.695403,35.088999],[137.695913,35.088807],[137.69645,35.088617],[137.697242,35.088257],[137.697859,35.087448],[137.698254,35.086491],[137.698574,35.086155],[137.698884,35.085976],[137.699226,35.085855],[137.699754,35.085813],[137.699915,35.085783],[137.699518,35.084702],[137.699422,35.083897],[137.699411,35.083308],[137.699574,35.082868],[137.699924,35.082308],[137.701069,35.080873]]]}},{"type":"Feature","id":"235620030","properties":{"KEY_CODE":"235620030","PREF":"23","CITY":"562","S_AREA":"003000","PREF_NAME":"愛知県","CITY_NAME":"東栄町","S_NAME":"大字下田","HCODE":8101,"AREA":7252415.36,"KIGO_E":"","JINKO":605,"SETAI":264,"X_CODE":137.719366,"Y_CODE":35.075909},"geometry":{"type":"Polygon","coordinates":[[[137.725248,35.086484],[137.725313,35.085775],[137.725459,35.085455],[137.725651,35.085135],[137.725734,35.084879],[137.725855,35.084425],[137.725986,35.084178],[137.726136,35.084042],[137.726614,35.083759],[137.727037,35.083577],[137.727256,35.083452],[137.727446,35.083169],[137.727699,35.082166],[137.72786,35.081568],[137.728034,35.081027],[137.728168,35.080564],[137.728208,35.080197],[137.728238,35.079395],[137.728399,35.078627],[137.72834,35.077878],[137.728104,35.077236],[137.727738,35.076449],[137.727663,35.07557],[137.727832,35.074657],[137.728326,35.074108],[137.72874,35.073722],[137.72887,35.073506],[137.728907,35.072799],[137.728877,35.072459],[137.72906,35.072341],[137.729782,35.072622],[137.730642,35.072098],[137.731344,35.071704],[137.732032,35.071707],[137.732667,35.071888],[137.733328,35.072245],[137.733875,35.072589],[137.73436,35.073053],[137.734813,35.073368],[137.735343,35.073692],[137.735586,35.073839],[137.735705,35.073859],[137.735773,35.073814],[137.735789,35.073651],[137.735792,35.073282],[137.735836,35.072724],[137.73606,35.072253],[137.736614,35.071808],[137.73735,35.071225],[137.73834,35.070545],[137.739329,35.070002],[137.739412,35.069956],[137.74014,35.06963],[137.74061,35.069319],[137.740743,35.068595],[137.740868,35.06824],[137.741348,35.067548],[137.741657,35.067088],[137.741879,35.066869],[137.741165,35.066893],[137.740673,35.066862],[137.740311,35.066762],[137.740105,35.066682],[137.739643,35.066286],[137.739304,35.065984],[137.739172,35.065877],[137.738867,35.065588],[137.73803,35.065031],[137.737262,35.064834],[137.736504,35.064765],[137.735717,35.064773],[137.735323,35.064727],[137.735264,35.064655],[137.735134,35.064506],[137.735018,35.064311],[137.734896,35.064053],[137.734738,35.063704],[137.734469,35.063144],[137.734003,35.062584],[137.733527,35.062082],[137.733035,35.061724],[137.732168,35.060964],[137.732143,35.060946],[137.732099,35.060904],[137.732012,35.060827],[137.731232,35.060092],[137.73083,35.059441],[137.730181,35.058739],[137.729856,35.058385],[137.729179,35.057983],[137.728531,35.05788],[137.72817,35.057905],[137.727524,35.058137],[137.726248,35.05911],[137.725571,35.059841],[137.724874,35.060279],[137.724723,35.060388],[137.724377,35.060718],[137.724304,35.060693],[137.724182,35.06065],[137.723956,35.06057],[137.723555,35.060248],[137.723508,35.060187],[137.722717,35.05945],[137.722388,35.05933],[137.721994,35.059291],[137.721584,35.05934],[137.720966,35.059562],[137.720164,35.060228],[137.720121,35.060272],[137.71929,35.061126],[137.718572,35.061772],[137.718003,35.062281],[137.717314,35.062819],[137.717085,35.06301],[137.716025,35.063522],[137.715513,35.064057],[137.715301,35.064193],[137.715005,35.064276],[137.71466,35.064264],[137.71443,35.064292],[137.714233,35.06436],[137.714151,35.064469],[137.714119,35.064631],[137.714005,35.064753],[137.713792,35.064862],[137.713661,35.064944],[137.71358,35.065093],[137.713565,35.065364],[137.7136,35.065661],[137.713701,35.065944],[137.713735,35.066133],[137.713822,35.066356],[137.713996,35.066544],[137.714108,35.066705],[137.714099,35.066761],[137.713709,35.067326],[137.713109,35.068126],[137.713058,35.068351],[137.713088,35.068534],[137.713304,35.068764],[137.714333,35.06939],[137.71463,35.069717],[137.714861,35.070026],[137.71533,35.070936],[137.71563,35.071908],[137.715626,35.072164],[137.715563,35.072613],[137.715427,35.07289],[137.71528,35.073016],[137.714841,35.073385],[137.714266,35.074128],[137.714253,35.074159],[137.714101,35.075002],[137.713899,35.075636],[137.713795,35.075781],[137.713706,35.075833],[137.713576,35.075877],[137.713392,35.07585],[137.713263,35.07579],[137.712428,35.075351],[137.711876,35.075151],[137.711748,35.075049],[137.711643,35.074954],[137.711283,35.074793],[137.711148,35.074726],[137.710658,35.074636],[137.710202,35.074558],[137.710034,35.074508],[137.709876,35.074459],[137.709608,35.074347],[137.709353,35.074224],[137.708948,35.074091],[137.70879,35.074075],[137.708633,35.074047],[137.708249,35.074043],[137.707678,35.074085],[137.706783,35.074286],[137.706041,35.074417],[137.704334,35.074395],[137.70255,35.074391],[137.702426,35.074391],[137.701897,35.074505],[137.701686,35.074572],[137.701641,35.074586],[137.701307,35.07468],[137.700731,35.074882],[137.700424,35.075066],[137.700612,35.075745],[137.700517,35.075973],[137.700426,35.076102],[137.699854,35.076449],[137.699748,35.076528],[137.699635,35.076667],[137.698895,35.077522],[137.698674,35.077785],[137.69866,35.077867],[137.698753,35.078128],[137.698788,35.078432],[137.698743,35.079148],[137.698754,35.079408],[137.698879,35.079717],[137.69899,35.079914],[137.699303,35.080234],[137.699484,35.08035],[137.699653,35.080387],[137.699814,35.080355],[137.699967,35.080259],[137.700088,35.079997],[137.700152,35.07945],[137.700021,35.078772],[137.700036,35.07849],[137.700144,35.078289],[137.700443,35.078193],[137.700651,35.078208],[137.700828,35.078327],[137.700888,35.078408],[137.701004,35.078542],[137.701112,35.078751],[137.701262,35.078933],[137.701518,35.079223],[137.701659,35.079357],[137.701718,35.079478],[137.701801,35.079688],[137.701811,35.07989],[137.701738,35.0801],[137.701583,35.08027],[137.701069,35.080873],[137.699924,35.082308],[137.699574,35.082868],[137.699411,35.083308],[137.699422,35.083897],[137.699518,35.084702],[137.699915,35.085783],[137.700434,35.08632],[137.701043,35.086542],[137.701767,35.086649],[137.702623,35.086708],[137.70366,35.086725],[137.704161,35.086707],[137.70523,35.086655],[137.706233,35.086444],[137.706879,35.086305],[137.707175,35.086242],[137.707718,35.086279],[137.708131,35.086814],[137.708369,35.087231],[137.708864,35.087745],[137.709594,35.088481],[137.71002,35.088729],[137.710688,35.089055],[137.711569,35.089214],[137.712181,35.089436],[137.713039,35.089941],[137.713802,35.090544],[137.714025,35.090798],[137.714053,35.090957],[137.713944,35.091054],[137.713765,35.091134],[137.713659,35.091267],[137.713625,35.091432],[137.713647,35.091568],[137.713891,35.091918],[137.713994,35.092245],[137.714268,35.092892],[137.714542,35.093538],[137.715052,35.094296],[137.715176,35.094473],[137.717543,35.094757],[137.718318,35.094823],[137.719339,35.094936],[137.719647,35.094331],[137.720058,35.093916],[137.721027,35.093137],[137.72146,35.092709],[137.721854,35.092388],[137.722073,35.091837],[137.722154,35.091474],[137.722188,35.091319],[137.722473,35.09084],[137.722829,35.090402],[137.722997,35.090198],[137.723403,35.089555],[137.723482,35.089288],[137.723488,35.088851],[137.723715,35.088305],[137.724455,35.08753],[137.724885,35.087091],[137.725144,35.086798],[137.725248,35.086484]]]}},{"type":"Feature","id":"235620040","properties":{"KEY_CODE":"235620040","PREF":"23","CITY":"562","S_AREA":"004000","PREF_NAME":"愛知県","CITY_NAME":"東栄町","S_NAME":"大字足込","HCODE":8101,"AREA":39100458.598,"KIGO_E":"","JINKO":250,"SETAI":127,"X_CODE":137.72946,"Y_CODE":35.099717},"geometry":{"type":"Polygon","coordinates":[[[137.720432,35.131141],[137.721069,35.130908],[137.721207,35.130442],[137.721219,35.129675],[137.721382,35.1291],[137.721694,35.1284],[137.721894,35.128217],[137.722342,35.128416],[137.722419,35.12845],[137.722907,35.128717],[137.723244,35.128967],[137.723732,35.129192],[137.724069,35.129067],[137.724718,35.128186],[137.724732,35.128167],[137.725644,35.127742],[137.726069,35.127513],[137.726232,35.127425],[137.726869,35.127175],[137.727982,35.126925],[137.728457,35.126692],[137.728782,35.126401],[137.728944,35.126092],[137.729244,35.125859],[137.729781,35.125642],[137.731119,35.125276],[137.731556,35.124867],[137.732269,35.124709],[137.732644,35.124509],[137.732944,35.124567],[137.733244,35.124559],[137.733531,35.124401],[137.734056,35.123718],[137.734406,35.123559],[137.734819,35.123451],[137.735369,35.123409],[137.736144,35.123534],[137.736494,35.123476],[137.736756,35.123284],[137.737001,35.123277],[137.737319,35.123268],[137.737819,35.123143],[137.738194,35.122876],[137.738494,35.122709],[137.738969,35.122668],[137.739406,35.122701],[137.739698,35.122665],[137.739744,35.122659],[137.740193,35.122735],[137.740618,35.122885],[137.741256,35.122976],[137.742793,35.123118],[137.743531,35.12311],[137.743968,35.12301],[137.744681,35.12296],[137.744818,35.12296],[137.745318,35.12296],[137.745481,35.122901],[137.745481,35.122626],[137.745693,35.121876],[137.745418,35.121235],[137.745368,35.120877],[137.745418,35.120327],[137.745618,35.119893],[137.745868,35.119535],[137.745893,35.119243],[137.745743,35.118818],[137.745556,35.118568],[137.745606,35.118335],[137.746356,35.117369],[137.746931,35.116994],[137.746968,35.116885],[137.747231,35.116444],[137.747731,35.116035],[137.747881,35.115652],[137.747729,35.115061],[137.747718,35.115019],[137.748556,35.114486],[137.749843,35.114294],[137.750392,35.114144],[137.750868,35.113927],[137.751181,35.113228],[137.751568,35.112844],[137.751744,35.112687],[137.752258,35.112533],[137.753805,35.112553],[137.754843,35.112586],[137.755168,35.112544],[137.755805,35.112528],[137.756305,35.112461],[137.757818,35.112453],[137.758643,35.11237],[137.75968,35.112228],[137.760117,35.112228],[137.761167,35.112103],[137.76243,35.112161],[137.762942,35.112436],[137.763742,35.112695],[137.764592,35.113128],[137.765705,35.113436],[137.76648,35.113603],[137.766642,35.113536],[137.766542,35.113011],[137.76643,35.112811],[137.765917,35.11242],[137.764392,35.111636],[137.763867,35.111178],[137.763392,35.110228],[137.763155,35.109003],[137.763192,35.108828],[137.763605,35.108495],[137.765267,35.107737],[137.76538,35.107654],[137.765517,35.107154],[137.765967,35.106687],[137.76713,35.105679],[137.767792,35.105437],[137.768567,35.105037],[137.769204,35.104662],[137.770067,35.103929],[137.770867,35.103479],[137.771642,35.103104],[137.771892,35.102946],[137.773667,35.101454],[137.774379,35.100355],[137.774617,35.100313],[137.775366,35.100321],[137.776216,35.100096],[137.776991,35.099863],[137.778316,35.099605],[137.778229,35.099105],[137.778054,35.098488],[137.777641,35.09808],[137.777341,35.097947],[137.776854,35.097647],[137.776854,35.09728],[137.777004,35.09708],[137.777116,35.096697],[137.776304,35.095563],[137.776179,35.094613],[137.776029,35.094005],[137.775454,35.093339],[137.774779,35.092839],[137.774554,35.092814],[137.774504,35.092339],[137.774504,35.091222],[137.774504,35.091005],[137.774042,35.090664],[137.773404,35.090589],[137.773329,35.090522],[137.773379,35.090139],[137.773692,35.089689],[137.774142,35.089314],[137.774504,35.088814],[137.774567,35.087956],[137.774804,35.086989],[137.774504,35.086831],[137.774092,35.086739],[137.774005,35.086598],[137.773805,35.086498],[137.773842,35.086298],[137.773917,35.086164],[137.774242,35.085823],[137.774192,35.085639],[137.773942,35.085331],[137.77408,35.085081],[137.774105,35.084873],[137.773942,35.084265],[137.77413,35.083523],[137.774267,35.083256],[137.774267,35.08319],[137.77468,35.08244],[137.774905,35.081515],[137.774905,35.081357],[137.775117,35.080298],[137.775142,35.079915],[137.775255,35.079515],[137.775305,35.079449],[137.775367,35.079132],[137.77548,35.07884],[137.77558,35.07809],[137.775467,35.077665],[137.775367,35.077549],[137.77473,35.077191],[137.773905,35.077324],[137.773692,35.077307],[137.773417,35.077165],[137.772868,35.076674],[137.772618,35.076474],[137.772505,35.076265],[137.772705,35.075907],[137.772755,35.075566],[137.772705,35.075341],[137.77218,35.074849],[137.77193,35.074557],[137.771818,35.074307],[137.77168,35.074124],[137.771305,35.073966],[137.770693,35.073857],[137.770505,35.073724],[137.770505,35.073674],[137.770368,35.073516],[137.770093,35.073474],[137.769905,35.073291],[137.769793,35.072974],[137.769656,35.072749],[137.768918,35.072483],[137.768581,35.072433],[137.768343,35.072349],[137.768006,35.072283],[137.767731,35.072324],[137.767218,35.072666],[137.766968,35.072708],[137.766393,35.072616],[137.765568,35.072666],[137.765318,35.072641],[137.764906,35.072482],[137.763893,35.072257],[137.763381,35.071849],[137.763206,35.071583],[137.763243,35.071466],[137.763481,35.071133],[137.763568,35.070816],[137.763543,35.070608],[137.763431,35.070433],[137.763131,35.070383],[137.762581,35.070408],[137.762306,35.070341],[137.762144,35.070158],[137.761981,35.069824],[137.761806,35.069033],[137.761569,35.068675],[137.761506,35.068633],[137.761256,35.068558],[137.760656,35.068475],[137.760356,35.068383],[137.759456,35.068358],[137.758956,35.068316],[137.758706,35.068358],[137.758631,35.068408],[137.758406,35.06845],[137.758219,35.06845],[137.757919,35.068316],[137.757619,35.068108],[137.757006,35.067775],[137.756956,35.067708],[137.756469,35.067341],[137.756381,35.067141],[137.756356,35.066758],[137.756631,35.06595],[137.756594,35.065633],[137.756549,35.065466],[137.756457,35.065117],[137.756357,35.065025],[137.756132,35.064933],[137.755694,35.065133],[137.755344,35.065341],[137.755282,35.065383],[137.755069,35.06545],[137.755013,35.06545],[137.754869,35.06545],[137.754657,35.065408],[137.754544,35.065341],[137.753719,35.065133],[137.753444,35.065025],[137.753057,35.064908],[137.752844,35.064733],[137.752682,35.064525],[137.752207,35.0643],[137.751694,35.064216],[137.751444,35.0641],[137.751257,35.063916],[137.750782,35.063175],[137.750619,35.062858],[137.750457,35.062683],[137.749745,35.062383],[137.749195,35.062092],[137.748879,35.061892],[137.748965,35.062154],[137.749037,35.062797],[137.749056,35.063415],[137.748819,35.064203],[137.748428,35.064886],[137.74763,35.065358],[137.746875,35.065643],[137.746103,35.065829],[137.745381,35.065876],[137.744468,35.065812],[137.744106,35.065817],[137.743617,35.065823],[137.743179,35.066013],[137.741879,35.066869],[137.741657,35.067088],[137.741348,35.067548],[137.740868,35.06824],[137.740743,35.068595],[137.74061,35.069319],[137.74014,35.06963],[137.739412,35.069956],[137.739329,35.070002],[137.73834,35.070545],[137.73735,35.071225],[137.736614,35.071808],[137.73606,35.072253],[137.735836,35.072724],[137.735792,35.073282],[137.735789,35.073651],[137.735773,35.073814],[137.735705,35.073859],[137.735586,35.073839],[137.735343,35.073692],[137.734813,35.073368],[137.73436,35.073053],[137.733875,35.072589],[137.733328,35.072245],[137.732667,35.071888],[137.732032,35.071707],[137.731344,35.071704],[137.730642,35.072098],[137.729782,35.072622],[137.72906,35.072341],[137.728877,35.072459],[137.728907,35.072799],[137.72887,35.073506],[137.72874,35.073722],[137.728326,35.074108],[137.727832,35.074657],[137.727663,35.07557],[137.727738,35.076449],[137.728104,35.077236],[137.72834,35.077878],[137.728399,35.078627],[137.728238,35.079395],[137.728208,35.080197],[137.728168,35.080564],[137.728034,35.081027],[137.72786,35.081568],[137.727699,35.082166],[137.727446,35.083169],[137.727256,35.083452],[137.727037,35.083577],[137.726614,35.083759],[137.726136,35.084042],[137.725986,35.084178],[137.725855,35.084425],[137.725734,35.084879],[137.725651,35.085135],[137.725459,35.085455],[137.725313,35.085775],[137.725248,35.086484],[137.725144,35.086798],[137.724885,35.087091],[137.724455,35.08753],[137.723715,35.088305],[137.723488,35.088851],[137.723482,35.089288],[137.723403,35.089555],[137.722997,35.090198],[137.722829,35.090402],[137.722473,35.09084],[137.722188,35.091319],[137.722154,35.091474],[137.722073,35.091837],[137.721854,35.092388],[137.72146,35.092709],[137.721027,35.093137],[137.720058,35.093916],[137.719647,35.094331],[137.719339,35.094936],[137.718318,35.094823],[137.717543,35.094757],[137.715176,35.094473],[137.715052,35.094296],[137.714542,35.093538],[137.714268,35.092892],[137.713994,35.092245],[137.713891,35.091918],[137.713647,35.091568],[137.713625,35.091432],[137.713659,35.091267],[137.713765,35.091134],[137.713944,35.091054],[137.714053,35.090957],[137.714025,35.090798],[137.713802,35.090544],[137.713039,35.089941],[137.712181,35.089436],[137.711569,35.089214],[137.710688,35.089055],[137.71002,35.088729],[137.709594,35.088481],[137.708864,35.087745],[137.708369,35.087231],[137.708131,35.086814],[137.707718,35.086279],[137.707175,35.086242],[137.706879,35.086305],[137.706233,35.086444],[137.70523,35.086655],[137.704161,35.086707],[137.70366,35.086725],[137.702623,35.086708],[137.701767,35.086649],[137.701043,35.086542],[137.700434,35.08632],[137.699915,35.085783],[137.699754,35.085813],[137.699226,35.085855],[137.698884,35.085976],[137.698574,35.086155],[137.698254,35.086491],[137.697859,35.087448],[137.697242,35.088257],[137.69645,35.088617],[137.695913,35.088807],[137.695403,35.088999],[137.695143,35.089124],[137.694576,35.089521],[137.694351,35.089934],[137.694162,35.090649],[137.694078,35.091471],[137.694082,35.091599],[137.694096,35.092112],[137.694124,35.092551],[137.693697,35.093456],[137.693688,35.093462],[137.693053,35.093879],[137.692517,35.093949],[137.691963,35.093867],[137.691323,35.093904],[137.690782,35.094045],[137.689814,35.094407],[137.689099,35.094788],[137.688356,35.095106],[137.687922,35.095421],[137.687591,35.09566],[137.687425,35.095852],[137.687264,35.09604],[137.686701,35.096564],[137.686471,35.096778],[137.68567,35.097345],[137.684878,35.097453],[137.684183,35.097545],[137.683759,35.097942],[137.683192,35.098389],[137.682465,35.099052],[137.682037,35.09889],[137.681505,35.098574],[137.681135,35.098583],[137.680409,35.099518],[137.680318,35.099646],[137.679777,35.100102],[137.679528,35.099876],[137.679245,35.099785],[137.678822,35.099903],[137.6788,35.100362],[137.678825,35.100505],[137.678991,35.101013],[137.679082,35.101575],[137.678693,35.101959],[137.678218,35.102024],[137.677493,35.102178],[137.677055,35.102353],[137.67623,35.103033],[137.675361,35.103653],[137.675182,35.103799],[137.674026,35.104941],[137.673759,35.10523],[137.673114,35.105932],[137.672542,35.106841],[137.672518,35.106879],[137.672978,35.107108],[137.673214,35.107225],[137.673346,35.107334],[137.673774,35.107691],[137.673831,35.107738],[137.673827,35.108876],[137.673887,35.109304],[137.673976,35.109942],[137.674106,35.110231],[137.674527,35.111161],[137.674516,35.111812],[137.674815,35.112684],[137.67517,35.113502],[137.675676,35.114125],[137.67634,35.114726],[137.676771,35.115132],[137.677066,35.115613],[137.677162,35.115677],[137.677338,35.115705],[137.677669,35.115615],[137.677961,35.115524],[137.678289,35.115466],[137.67861,35.115492],[137.678888,35.115568],[137.679076,35.11559],[137.679319,35.115534],[137.679681,35.115379],[137.679756,35.11537],[137.679833,35.115409],[137.680135,35.115729],[137.680732,35.116285],[137.681273,35.11659],[137.681431,35.116679],[137.682071,35.116975],[137.682465,35.11727],[137.68262,35.11746],[137.682602,35.117608],[137.68248,35.117789],[137.68197,35.118171],[137.681755,35.118658],[137.681732,35.118802],[137.68179,35.118903],[137.681951,35.118959],[137.682561,35.118962],[137.683178,35.118932],[137.683331,35.119026],[137.68336,35.119127],[137.683317,35.119323],[137.683265,35.11988],[137.683336,35.120604],[137.683599,35.121093],[137.683752,35.121377],[137.68428,35.121764],[137.684826,35.122304],[137.685153,35.122579],[137.685259,35.122668],[137.685579,35.122712],[137.686414,35.122277],[137.686896,35.122042],[137.687437,35.121544],[137.687648,35.121485],[137.687909,35.12147],[137.68811,35.121523],[137.688317,35.121629],[137.688826,35.121991],[137.689096,35.122287],[137.689295,35.122505],[137.689327,35.122591],[137.689328,35.122594],[137.689636,35.123414],[137.689662,35.12348],[137.69004,35.124441],[137.69023,35.125108],[137.690681,35.125471],[137.691429,35.125518],[137.692789,35.125713],[137.693472,35.126059],[137.693609,35.125916],[137.693796,35.1256],[137.693921,35.125091],[137.694021,35.124425],[137.694146,35.124116],[137.694346,35.124],[137.694871,35.124075],[137.695246,35.124183],[137.695521,35.124356],[137.695681,35.124366],[137.696021,35.124275],[137.696634,35.124116],[137.697859,35.124317],[137.698383,35.12425],[137.699071,35.124325],[137.699458,35.124225],[137.699558,35.124242],[137.699958,35.124467],[137.700051,35.124559],[137.700808,35.125316],[137.701446,35.125783],[137.702146,35.125708],[137.702833,35.125741],[137.703183,35.125508],[137.703446,35.125183],[137.703658,35.124825],[137.704833,35.124183],[137.705383,35.123625],[137.705583,35.123309],[137.705933,35.123267],[137.706895,35.123459],[137.70737,35.123717],[137.707783,35.124017],[137.708595,35.125017],[137.70887,35.12525],[137.709408,35.125392],[137.710995,35.125433],[137.711558,35.125492],[137.711633,35.12555],[137.711797,35.12578],[137.71187,35.125883],[137.712133,35.126433],[137.71242,35.126883],[137.712795,35.127292],[137.712977,35.127573],[137.713032,35.127658],[137.713232,35.128083],[137.713582,35.128566],[137.713907,35.128692],[137.714432,35.128783],[137.714795,35.129108],[137.715395,35.129866],[137.715532,35.130166],[137.715657,35.131166],[137.715745,35.131225],[137.716086,35.131189],[137.716457,35.13115],[137.716945,35.131258],[137.717757,35.131108],[137.71807,35.131125],[137.718482,35.13125],[137.718994,35.131266],[137.719332,35.13135],[137.719494,35.131358],[137.720432,35.131141]]]}},{"type":"Feature","id":"235620050","properties":{"KEY_CODE":"235620050","PREF":"23","CITY":"562","S_AREA":"005000","PREF_NAME":"愛知県","CITY_NAME":"東栄町","S_NAME":"大字三輪","HCODE":8101,"AREA":11824320.687,"KIGO_E":"","JINKO":466,"SETAI":186,"X_CODE":137.715917,"Y_CODE":35.045},"geometry":{"type":"Polygon","coordinates":[[[137.744106,35.065817],[137.744468,35.065812],[137.745381,35.065876],[137.746103,35.065829],[137.746875,35.065643],[137.74763,35.065358],[137.748428,35.064886],[137.748819,35.064203],[137.749056,35.063415],[137.749037,35.062797],[137.748965,35.062154],[137.748879,35.061892],[137.748457,35.061625],[137.747745,35.0611],[137.74697,35.060475],[137.74692,35.060325],[137.746457,35.060167],[137.745682,35.059859],[137.745182,35.059517],[137.74417,35.058484],[137.743595,35.058059],[137.74232,35.057625],[137.74202,35.05745],[137.74112,35.057042],[137.740395,35.056642],[137.740208,35.056051],[137.740233,35.055675],[137.739916,35.055333],[137.73977,35.055176],[137.739222,35.054714],[137.739108,35.054617],[137.73842,35.054251],[137.737421,35.053109],[137.736633,35.052567],[137.735771,35.051126],[137.735658,35.050268],[137.735521,35.049684],[137.735271,35.048918],[137.735221,35.048268],[137.735133,35.04806],[137.734608,35.047726],[137.733871,35.04716],[137.732883,35.04651],[137.732246,35.045993],[137.731456,35.04512],[137.731371,35.045026],[137.731096,35.04426],[137.730459,35.043018],[137.730071,35.04216],[137.729471,35.041602],[137.729046,35.04086],[137.728634,35.040252],[137.728034,35.040027],[137.726609,35.039985],[137.725259,35.039736],[137.723547,35.039244],[137.722997,35.038702],[137.722809,35.037911],[137.722809,35.037644],[137.72261,35.036986],[137.722222,35.036707],[137.722008,35.036557],[137.721875,35.036509],[137.721644,35.036476],[137.72142,35.036506],[137.721335,35.036462],[137.720889,35.035996],[137.720713,35.035942],[137.720562,35.035977],[137.720145,35.036218],[137.719927,35.036289],[137.719554,35.036204],[137.719225,35.036085],[137.719001,35.036141],[137.718513,35.036502],[137.718349,35.036523],[137.718258,35.036439],[137.718245,35.036319],[137.718557,35.035889],[137.718671,35.035645],[137.718757,35.034902],[137.718719,35.034762],[137.71846,35.034736],[137.718156,35.034825],[137.717594,35.035176],[137.71734,35.035222],[137.71717,35.035173],[137.717059,35.034974],[137.717085,35.034786],[137.717336,35.034233],[137.717336,35.034103],[137.717149,35.033966],[137.717102,35.033878],[137.716869,35.033442],[137.716898,35.03332],[137.717191,35.032856],[137.717297,35.032688],[137.717424,35.032424],[137.717439,35.032345],[137.717495,35.032042],[137.717514,35.031678],[137.717511,35.031538],[137.717385,35.030845],[137.71706,35.030053],[137.716698,35.02897],[137.716535,35.027962],[137.71631,35.027287],[137.71571,35.026704],[137.715229,35.026053],[137.714949,35.025787],[137.714757,35.025709],[137.7142,35.025601],[137.713586,35.025572],[137.71325,35.025558],[137.71302,35.025488],[137.712808,35.025315],[137.712614,35.025088],[137.712169,35.024475],[137.711611,35.023729],[137.711086,35.022988],[137.710748,35.022404],[137.710748,35.022221],[137.710861,35.021638],[137.710811,35.020846],[137.709461,35.019496],[137.709373,35.019417],[137.708886,35.01898],[137.707924,35.018688],[137.707674,35.018505],[137.706986,35.017788],[137.706624,35.017263],[137.706549,35.01668],[137.706374,35.016522],[137.705961,35.01598],[137.705774,35.015355],[137.705311,35.01508],[137.705086,35.014997],[137.704924,35.014855],[137.704861,35.014747],[137.704836,35.014789],[137.704761,35.015039],[137.704811,35.015289],[137.704924,35.015647],[137.704786,35.016097],[137.704211,35.01673],[137.704124,35.01698],[137.703849,35.017447],[137.703636,35.017946],[137.703774,35.01833],[137.704024,35.018646],[137.704399,35.019046],[137.704461,35.01918],[137.704635,35.019438],[137.704674,35.019496],[137.704924,35.020038],[137.705124,35.02038],[137.705199,35.020854],[137.705499,35.021571],[137.705749,35.022046],[137.705561,35.022696],[137.705199,35.023146],[137.704711,35.023646],[137.704057,35.024188],[137.703386,35.024745],[137.702674,35.025287],[137.701886,35.026462],[137.701836,35.028853],[137.701611,35.029978],[137.701475,35.030127],[137.701224,35.030403],[137.701011,35.030403],[137.700162,35.030703],[137.699337,35.031061],[137.697937,35.031378],[137.697274,35.031578],[137.696999,35.031694],[137.696149,35.031853],[137.695599,35.031786],[137.694774,35.032036],[137.694224,35.031969],[137.694137,35.031828],[137.693537,35.031178],[137.692162,35.030478],[137.692025,35.030436],[137.691475,35.031469],[137.691312,35.032327],[137.6915,35.033161],[137.692187,35.033677],[137.692487,35.034044],[137.6928,35.034602],[137.692737,35.034735],[137.69195,35.035869],[137.692187,35.03636],[137.6922,35.036425],[137.692275,35.03681],[137.691949,35.037352],[137.691312,35.038093],[137.690687,35.038277],[137.69005,35.038685],[137.689387,35.039635],[137.688762,35.04031],[137.688614,35.040343],[137.689085,35.040805],[137.689235,35.041541],[137.689167,35.042016],[137.68932,35.042558],[137.689673,35.043181],[137.690046,35.043646],[137.690717,35.044024],[137.691182,35.044155],[137.691758,35.044257],[137.692307,35.04436],[137.692933,35.044476],[137.693495,35.044954],[137.693799,35.045145],[137.694269,35.045287],[137.695061,35.045364],[137.696173,35.045509],[137.696668,35.046024],[137.696991,35.046691],[137.697643,35.0466],[137.698335,35.046597],[137.699064,35.047036],[137.699907,35.047413],[137.700574,35.047778],[137.701469,35.048098],[137.70252,35.048965],[137.702567,35.048985],[137.70319,35.049006],[137.703774,35.049125],[137.704401,35.049436],[137.704999,35.049916],[137.705293,35.050389],[137.705477,35.050888],[137.705639,35.05148],[137.70613,35.051752],[137.706596,35.052312],[137.706874,35.053004],[137.70673,35.053466],[137.70683,35.053984],[137.707209,35.054401],[137.707597,35.054867],[137.707997,35.055272],[137.708188,35.055474],[137.708478,35.055791],[137.708892,35.056316],[137.709199,35.056781],[137.709292,35.057091],[137.709219,35.057294],[137.709015,35.057498],[137.70877,35.057729],[137.708509,35.058075],[137.70833,35.058366],[137.708192,35.058664],[137.70809,35.058938],[137.707929,35.059881],[137.708232,35.059869],[137.708561,35.059703],[137.708732,35.059493],[137.708668,35.059211],[137.708425,35.058958],[137.708341,35.058732],[137.708405,35.05854],[137.708491,35.058511],[137.708663,35.058538],[137.708939,35.058656],[137.709202,35.058836],[137.709549,35.059298],[137.709653,35.059325],[137.709941,35.059211],[137.71042,35.058932],[137.710629,35.059185],[137.710744,35.059453],[137.711119,35.05996],[137.711492,35.060287],[137.711838,35.060545],[137.712304,35.061118],[137.712715,35.061572],[137.713185,35.061938],[137.713762,35.062353],[137.714622,35.062829],[137.715134,35.063008],[137.715541,35.063218],[137.715935,35.063466],[137.716025,35.063522],[137.717085,35.06301],[137.717314,35.062819],[137.718003,35.062281],[137.718572,35.061772],[137.71929,35.061126],[137.720121,35.060272],[137.720164,35.060228],[137.720966,35.059562],[137.721584,35.05934],[137.721994,35.059291],[137.722388,35.05933],[137.722717,35.05945],[137.723508,35.060187],[137.723555,35.060248],[137.723956,35.06057],[137.724182,35.06065],[137.724304,35.060693],[137.724377,35.060718],[137.724723,35.060388],[137.724874,35.060279],[137.725571,35.059841],[137.726248,35.05911],[137.727524,35.058137],[137.72817,35.057905],[137.728531,35.05788],[137.729179,35.057983],[137.729856,35.058385],[137.730181,35.058739],[137.73083,35.059441],[137.731232,35.060092],[137.732012,35.060827],[137.732099,35.060904],[137.732143,35.060946],[137.732168,35.060964],[137.733035,35.061724],[137.733527,35.062082],[137.734003,35.062584],[137.734469,35.063144],[137.734738,35.063704],[137.734896,35.064053],[137.735018,35.064311],[137.735134,35.064506],[137.735264,35.064655],[137.735323,35.064727],[137.735717,35.064773],[137.736504,35.064765],[137.737262,35.064834],[137.73803,35.065031],[137.738867,35.065588],[137.739172,35.065877],[137.739304,35.065984],[137.739643,35.066286],[137.740105,35.066682],[137.740311,35.066762],[137.740673,35.066862],[137.741165,35.066893],[137.741879,35.066869],[137.743179,35.066013],[137.743617,35.065823],[137.744106,35.065817]]]}},{"type":"Feature","id":"235620060","properties":{"KEY_CODE":"235620060","PREF":"23","CITY":"562","S_AREA":"006000","PREF_NAME":"愛知県","CITY_NAME":"東栄町","S_NAME":"大字振草","HCODE":8101,"AREA":32805328.44,"KIGO_E":"","JINKO":347,"SETAI":151,"X_CODE":137.642378,"Y_CODE":35.115901},"geometry":{"type":"Polygon","coordinates":[[[137.652749,35.1434],[137.652543,35.142451],[137.652404,35.142005],[137.652458,35.141193],[137.652614,35.140886],[137.6527,35.140438],[137.652825,35.140238],[137.654649,35.139671],[137.655162,35.13948],[137.655362,35.139446],[137.655374,35.13943],[137.655412,35.139471],[137.655512,35.139038],[137.655699,35.138621],[137.655949,35.138313],[137.656087,35.137988],[137.656162,35.137605],[137.656499,35.136947],[137.656587,35.136272],[137.656774,35.135638],[137.656999,35.135164],[137.657487,35.134447],[137.657937,35.133339],[137.658312,35.13293],[137.659074,35.131889],[137.659287,35.131506],[137.659449,35.131047],[137.659674,35.129797],[137.659662,35.129414],[137.659537,35.129031],[137.659424,35.128898],[137.659549,35.128998],[137.659737,35.128956],[137.660287,35.128989],[137.660899,35.128981],[137.661586,35.128723],[137.661736,35.128614],[137.662249,35.128456],[137.662711,35.128456],[137.663411,35.128673],[137.663986,35.129156],[137.664249,35.129256],[137.664611,35.12919],[137.664736,35.129215],[137.665036,35.129381],[137.665399,35.129406],[137.665861,35.129331],[137.666473,35.12944],[137.667248,35.129731],[137.667473,35.129331],[137.668011,35.129106],[137.668498,35.12904],[137.668861,35.12919],[137.669511,35.129331],[137.670498,35.12909],[137.671073,35.129432],[137.671498,35.12959],[137.672023,35.129573],[137.672223,35.12964],[137.672635,35.129723],[137.672998,35.129873],[137.67376,35.130106],[137.673914,35.130106],[137.674435,35.130107],[137.674923,35.130207],[137.675235,35.130482],[137.675473,35.130548],[137.675698,35.13049],[137.676198,35.130657],[137.67656,35.130707],[137.677947,35.130598],[137.678247,35.130582],[137.67841,35.13069],[137.678835,35.131357],[137.679235,35.131673],[137.679747,35.131832],[137.68086,35.13244],[137.681372,35.132473],[137.681897,35.132632],[137.682047,35.132623],[137.682435,35.13249],[137.682897,35.13249],[137.683509,35.132548],[137.683697,35.132265],[137.683997,35.131948],[137.685197,35.13239],[137.686359,35.132382],[137.687034,35.132407],[137.687884,35.132565],[137.688422,35.132715],[137.688933,35.132959],[137.688977,35.13298],[137.689034,35.133007],[137.689097,35.132982],[137.68915,35.132871],[137.689347,35.132465],[137.689621,35.132032],[137.689884,35.131699],[137.690221,35.131032],[137.690321,35.130557],[137.690271,35.129757],[137.690134,35.129399],[137.690334,35.129091],[137.690896,35.128766],[137.691546,35.128766],[137.691821,35.128732],[137.692309,35.128422],[137.692646,35.128208],[137.692734,35.128183],[137.692946,35.128033],[137.692978,35.127661],[137.693059,35.126708],[137.693146,35.126399],[137.693472,35.126059],[137.692789,35.125713],[137.691429,35.125518],[137.690681,35.125471],[137.69023,35.125108],[137.69004,35.124441],[137.689662,35.12348],[137.689636,35.123414],[137.689328,35.122594],[137.689327,35.122591],[137.689295,35.122505],[137.689096,35.122287],[137.688826,35.121991],[137.688317,35.121629],[137.68811,35.121523],[137.687909,35.12147],[137.687648,35.121485],[137.687437,35.121544],[137.686896,35.122042],[137.686414,35.122277],[137.685579,35.122712],[137.685259,35.122668],[137.685153,35.122579],[137.684826,35.122304],[137.68428,35.121764],[137.683752,35.121377],[137.683599,35.121093],[137.683336,35.120604],[137.683265,35.11988],[137.683317,35.119323],[137.68336,35.119127],[137.683331,35.119026],[137.683178,35.118932],[137.682561,35.118962],[137.681951,35.118959],[137.68179,35.118903],[137.681732,35.118802],[137.681755,35.118658],[137.68197,35.118171],[137.68248,35.117789],[137.682602,35.117608],[137.68262,35.11746],[137.682465,35.11727],[137.682071,35.116975],[137.681431,35.116679],[137.681273,35.11659],[137.680732,35.116285],[137.680135,35.115729],[137.679833,35.115409],[137.679756,35.11537],[137.679681,35.115379],[137.679319,35.115534],[137.679076,35.11559],[137.678888,35.115568],[137.67861,35.115492],[137.678289,35.115466],[137.677961,35.115524],[137.677669,35.115615],[137.677338,35.115705],[137.677162,35.115677],[137.677066,35.115613],[137.676771,35.115132],[137.67634,35.114726],[137.675676,35.114125],[137.67517,35.113502],[137.674815,35.112684],[137.674516,35.111812],[137.674527,35.111161],[137.674106,35.110231],[137.673976,35.109942],[137.673887,35.109304],[137.673827,35.108876],[137.673831,35.107738],[137.673774,35.107691],[137.673346,35.107334],[137.673214,35.107225],[137.672978,35.107108],[137.672518,35.106879],[137.672102,35.106708],[137.671703,35.106484],[137.671194,35.106182],[137.67085,35.105992],[137.670616,35.105982],[137.670356,35.105994],[137.670138,35.106187],[137.669864,35.106267],[137.669521,35.106212],[137.668862,35.106102],[137.668629,35.106103],[137.66841,35.106138],[137.668136,35.106285],[137.667673,35.10667],[137.667303,35.106784],[137.667125,35.106785],[137.666892,35.106775],[137.666618,35.106866],[137.666413,35.106923],[137.666166,35.106924],[137.665864,35.106813],[137.665492,35.106533],[137.665106,35.106309],[137.664749,35.106096],[137.66445,35.105911],[137.664085,35.105629],[137.663633,35.105176],[137.663348,35.104629],[137.663118,35.103867],[137.662734,35.102632],[137.662392,35.101786],[137.662035,35.101338],[137.661716,35.101072],[137.660873,35.10059],[137.66007,35.100176],[137.660204,35.100036],[137.660405,35.099945],[137.661093,35.099779],[137.661255,35.099674],[137.661357,35.099578],[137.66148,35.099389],[137.661532,35.099252],[137.661501,35.099094],[137.661451,35.098504],[137.661524,35.098302],[137.661752,35.098037],[137.66221,35.09774],[137.662775,35.097488],[137.663183,35.097309],[137.66361,35.097027],[137.663908,35.096762],[137.664693,35.095978],[137.664996,35.095701],[137.665332,35.095431],[137.666045,35.094858],[137.666671,35.094424],[137.666745,35.094029],[137.666699,35.093634],[137.666538,35.093253],[137.665233,35.092522],[137.664782,35.092183],[137.664507,35.091843],[137.664296,35.091368],[137.66392,35.090642],[137.663136,35.089849],[137.662248,35.08903],[137.661747,35.089275],[137.661486,35.08933],[137.661191,35.08934],[137.660716,35.089264],[137.660093,35.089015],[137.659601,35.088614],[137.659553,35.088177],[137.659617,35.08789],[137.659702,35.087504],[137.659602,35.087182],[137.658828,35.086862],[137.657929,35.087009],[137.657214,35.087143],[137.656559,35.087465],[137.655766,35.087888],[137.654975,35.088433],[137.653953,35.088904],[137.653569,35.08901],[137.653228,35.089035],[137.65291,35.08898],[137.652821,35.088885],[137.652792,35.088761],[137.652786,35.088407],[137.652759,35.088033],[137.65263,35.087781],[137.652515,35.087738],[137.652384,35.087765],[137.652294,35.087837],[137.651964,35.088279],[137.651682,35.088459],[137.65124,35.088564],[137.650322,35.088788],[137.648818,35.0891],[137.648437,35.089156],[137.648231,35.089116],[137.647837,35.08868],[137.647476,35.088127],[137.647208,35.087628],[137.646698,35.087076],[137.646109,35.086693],[137.645397,35.086318],[137.644818,35.085913],[137.64428,35.085546],[137.643662,35.085225],[137.642809,35.084709],[137.641592,35.084777],[137.640349,35.084837],[137.639518,35.084715],[137.638746,35.084466],[137.638493,35.08417],[137.638065,35.084436],[137.637139,35.084665],[137.63699,35.084702],[137.63644,35.084769],[137.635827,35.084686],[137.635115,35.084386],[137.634102,35.084077],[137.63339,35.084011],[137.63289,35.084211],[137.63234,35.084344],[137.631928,35.084594],[137.63154,35.085111],[137.63044,35.085677],[137.63014,35.086127],[137.629978,35.086585],[137.630028,35.086594],[137.62979,35.086902],[137.62899,35.087369],[137.628628,35.087935],[137.628428,35.088185],[137.628103,35.088235],[137.627716,35.088252],[137.627578,35.088293],[137.627203,35.088493],[137.626878,35.088568],[137.626578,35.088593],[137.626353,35.08881],[137.626066,35.089143],[137.625516,35.08921],[137.625504,35.089219],[137.625353,35.089343],[137.625503,35.090093],[137.625578,35.090101],[137.625853,35.090226],[137.625941,35.090351],[137.625766,35.090835],[137.625216,35.091826],[137.625137,35.091879],[137.624916,35.092026],[137.624491,35.092251],[137.624128,35.092484],[137.623841,35.092751],[137.623666,35.093009],[137.623641,35.093334],[137.623653,35.093701],[137.623428,35.094201],[137.623441,35.094592],[137.623615,35.095354],[137.623666,35.095576],[137.623641,35.095834],[137.623428,35.095992],[137.622841,35.096075],[137.622378,35.096442],[137.621978,35.096692],[137.621803,35.096717],[137.621628,35.096859],[137.621466,35.097092],[137.621181,35.097804],[137.621166,35.097842],[137.621016,35.097992],[137.620516,35.098109],[137.619816,35.098159],[137.619091,35.098125],[137.618354,35.097825],[137.617791,35.097683],[137.616866,35.097517],[137.616166,35.097483],[137.615779,35.09735],[137.615416,35.097267],[137.614891,35.0973],[137.613667,35.097192],[137.613179,35.097225],[137.612829,35.09735],[137.612442,35.097283],[137.612342,35.097233],[137.612042,35.097267],[137.611704,35.097367],[137.611392,35.097575],[137.611067,35.097642],[137.610542,35.097617],[137.609892,35.097717],[137.609701,35.097792],[137.609554,35.09785],[137.609317,35.098117],[137.609192,35.098416],[137.609167,35.098691],[137.608992,35.098908],[137.608017,35.099808],[137.607915,35.099954],[137.607692,35.100274],[137.607617,35.100549],[137.60738,35.101624],[137.607117,35.102308],[137.60673,35.102957],[137.606505,35.103199],[137.606117,35.103524],[137.605512,35.103975],[137.605505,35.103982],[137.60588,35.104341],[137.606242,35.104699],[137.606392,35.105074],[137.60648,35.106015],[137.606442,35.106699],[137.606205,35.10859],[137.606392,35.108915],[137.606467,35.109115],[137.606092,35.110923],[137.606092,35.111365],[137.60633,35.111956],[137.606454,35.112156],[137.606754,35.112398],[137.607904,35.113065],[137.607987,35.113149],[137.608067,35.113231],[137.608379,35.113664],[137.608579,35.114148],[137.609079,35.116223],[137.609077,35.116407],[137.609067,35.117156],[137.609492,35.118014],[137.609679,35.118489],[137.610204,35.119339],[137.610204,35.11963],[137.609992,35.120155],[137.610154,35.120439],[137.610229,35.120739],[137.610567,35.122505],[137.610592,35.12318],[137.610392,35.124113],[137.610317,35.124688],[137.610467,35.125238],[137.610704,35.125596],[137.610916,35.12608],[137.610904,35.126405],[137.610691,35.126688],[137.610279,35.127046],[137.610142,35.127446],[137.610232,35.127991],[137.610292,35.128354],[137.610292,35.128854],[137.610142,35.129404],[137.610104,35.129821],[137.609954,35.130288],[137.609729,35.130571],[137.609529,35.130996],[137.609579,35.131404],[137.609742,35.131754],[137.609892,35.132262],[137.609929,35.132462],[137.609742,35.133254],[137.609779,35.133546],[137.610341,35.134096],[137.610491,35.134321],[137.610654,35.134962],[137.610866,35.135354],[137.611054,35.135804],[137.611041,35.136237],[137.610816,35.137054],[137.610691,35.137237],[137.610516,35.137795],[137.610416,35.13852],[137.610241,35.13957],[137.610282,35.139871],[137.610291,35.139945],[137.61036,35.139984],[137.610362,35.139978],[137.610362,35.13995],[137.610537,35.140006],[137.611124,35.140195],[137.611147,35.140201],[137.612003,35.140406],[137.612637,35.140319],[137.613194,35.140208],[137.613744,35.140301],[137.614204,35.140636],[137.614333,35.140745],[137.61498,35.141196],[137.615052,35.141131],[137.61508,35.141105],[137.615097,35.141114],[137.61563,35.140785],[137.615742,35.140769],[137.616064,35.140721],[137.616754,35.140579],[137.616819,35.140471],[137.616986,35.140192],[137.617179,35.139868],[137.617471,35.139778],[137.617796,35.139679],[137.617873,35.139655],[137.61838,35.139239],[137.618552,35.139098],[137.618818,35.138974],[137.619198,35.138797],[137.619849,35.138425],[137.620201,35.138299],[137.620455,35.138208],[137.621135,35.138202],[137.621259,35.138201],[137.622022,35.138907],[137.623335,35.139766],[137.623662,35.139905],[137.624546,35.140278],[137.62499,35.140421],[137.625807,35.140684],[137.62648,35.140828],[137.626491,35.140828],[137.627079,35.140811],[137.627172,35.140808],[137.627683,35.140731],[137.628061,35.141434],[137.628727,35.141675],[137.629302,35.141883],[137.629474,35.141978],[137.630335,35.142458],[137.630927,35.14272],[137.63095,35.14273],[137.63134,35.142903],[137.632616,35.142901],[137.633707,35.142913],[137.634522,35.143321],[137.635318,35.143457],[137.63587,35.14298],[137.636633,35.142619],[137.63736,35.142587],[137.638304,35.142979],[137.638401,35.143019],[137.638557,35.143086],[137.639288,35.143401],[137.640012,35.143877],[137.640686,35.144458],[137.641533,35.144924],[137.64237,35.145412],[137.643726,35.145679],[137.644651,35.145855],[137.64541,35.146318],[137.647125,35.146579],[137.648464,35.146695],[137.649688,35.146677],[137.651288,35.146053],[137.651453,35.14593],[137.652155,35.14541],[137.652937,35.144256],[137.652751,35.143412],[137.652749,35.1434]]]}}]}