{"type":"FeatureCollection","features":[{"type":"Feature","properties":{"name":"青池町","city":"名古屋市熱田区","code":"109","setai":452,"jinko":843,"n":3,"towns":["23109001001","23109001002","23109001003"],"lx":136.889654,"ly":35.134409},"geometry":{"type":"Polygon","coordinates":[[[136.888298,35.132953],[136.888598,35.132958],[136.88866,35.132662],[136.889553,35.132757],[136.89101,35.132918],[136.891002,35.133409],[136.890999,35.133683],[136.890992,35.133977],[136.890986,35.134353],[136.890975,35.134754],[136.890968,35.135147],[136.890963,35.135379],[136.890761,35.135506],[136.890233,35.135824],[136.890043,35.135945],[136.889216,35.13647],[136.889103,35.136542],[136.888976,35.136642],[136.888779,35.136754],[136.888712,35.136182],[136.888682,35.135943],[136.888643,35.135627],[136.88856,35.135085],[136.888519,35.134716],[136.888473,35.134321],[136.888416,35.133925],[136.888374,35.133539],[136.888318,35.133123],[136.888298,35.132953]]]}},{"type":"Feature","properties":{"name":"明野町","city":"名古屋市熱田区","code":"109","setai":545,"jinko":1060,"n":1,"towns":["231090020"],"lx":136.891122,"ly":35.13849},"geometry":{"type":"Polygon","coordinates":[[[136.89018,35.140065],[136.890261,35.140054],[136.89027,35.140095],[136.890282,35.140148],[136.890497,35.140106],[136.89069,35.140075],[136.890689,35.140071],[136.890692,35.140074],[136.890733,35.140067],[136.890742,35.140125],[136.890761,35.140144],[136.890763,35.140143],[136.891147,35.140047],[136.891429,35.139976],[136.891476,35.139966],[136.891804,35.139893],[136.892032,35.139842],[136.891966,35.139606],[136.891909,35.139315],[136.891887,35.13924],[136.89184,35.139084],[136.891836,35.139004],[136.891954,35.138958],[136.892501,35.138731],[136.892807,35.138604],[136.893241,35.138416],[136.893245,35.138319],[136.893249,35.138064],[136.893252,35.137918],[136.893254,35.137779],[136.893257,35.137608],[136.893259,35.13751],[136.893262,35.137323],[136.893276,35.136579],[136.892324,35.136846],[136.892239,35.136869],[136.89121,35.137148],[136.890271,35.137648],[136.890127,35.137724],[136.890081,35.137748],[136.889688,35.137921],[136.889642,35.137935],[136.889626,35.13794],[136.889493,35.137976],[136.888971,35.138061],[136.888977,35.138104],[136.888999,35.138269],[136.889052,35.138703],[136.889089,35.138998],[136.889129,35.139317],[136.889159,35.139534],[136.889199,35.13971],[136.889259,35.139937],[136.889365,35.140316],[136.889386,35.140396],[136.889393,35.140396],[136.889382,35.140323],[136.889378,35.1403],[136.889616,35.140274],[136.889599,35.140136],[136.89018,35.140065]]]}},{"type":"Feature","properties":{"name":"熱田西町","city":"名古屋市熱田区","code":"109","setai":105,"jinko":218,"n":1,"towns":["231090040"],"lx":136.899474,"ly":35.129318},"geometry":{"type":"Polygon","coordinates":[[[136.901238,35.128358],[136.901363,35.128196],[136.901393,35.128196],[136.901559,35.127929],[136.901797,35.127475],[136.901892,35.127329],[136.90205,35.127062],[136.90211,35.126929],[136.902169,35.126749],[136.902191,35.126632],[136.902179,35.126394],[136.90206,35.125837],[136.901968,35.125431],[136.901878,35.125076],[136.901807,35.12486],[136.901628,35.124519],[136.901218,35.124593],[136.900694,35.124444],[136.900519,35.124523],[136.900485,35.124585],[136.900302,35.124912],[136.900248,35.124928],[136.900087,35.125178],[136.899894,35.125226],[136.89976,35.125487],[136.899685,35.125651],[136.899617,35.125793],[136.899612,35.125805],[136.899525,35.125989],[136.899207,35.126647],[136.899202,35.126915],[136.899182,35.127012],[136.898928,35.127581],[136.898579,35.128361],[136.89855,35.128494],[136.898545,35.128502],[136.89818,35.12921],[136.897976,35.129632],[136.897858,35.129838],[136.897709,35.130097],[136.897465,35.130543],[136.897215,35.131017],[136.897162,35.131084],[136.89697,35.131458],[136.89673,35.131927],[136.896613,35.132154],[136.896469,35.132552],[136.896447,35.132722],[136.896435,35.133045],[136.896426,35.133261],[136.896635,35.133264],[136.897153,35.133328],[136.897435,35.133373],[136.897827,35.133497],[136.898239,35.13366],[136.898638,35.133859],[136.89885,35.134004],[136.898972,35.134056],[136.899085,35.133969],[136.899212,35.133529],[136.899356,35.133089],[136.89946,35.132747],[136.899738,35.132045],[136.900057,35.131246],[136.900388,35.130408],[136.900421,35.130352],[136.900674,35.129714],[136.900785,35.129425],[136.900907,35.129131],[136.901089,35.128686],[136.901186,35.128508],[136.901259,35.128373],[136.901238,35.128358]]]}},{"type":"Feature","properties":{"name":"池内町","city":"名古屋市熱田区","code":"109","setai":127,"jinko":239,"n":1,"towns":["231090060"],"lx":136.911908,"ly":35.139129},"geometry":{"type":"Polygon","coordinates":[[[136.912547,35.139801],[136.913327,35.1398],[136.913479,35.139819],[136.913548,35.139673],[136.913564,35.139677],[136.914159,35.138294],[136.914231,35.138126],[136.914078,35.138081],[136.914003,35.138256],[136.913884,35.13852],[136.912498,35.138508],[136.912439,35.138507],[136.911947,35.138498],[136.911392,35.138487],[136.911284,35.138474],[136.910492,35.138462],[136.910009,35.138457],[136.910032,35.139167],[136.910054,35.139872],[136.91142,35.139828],[136.911504,35.139827],[136.91248,35.139801],[136.912547,35.139801]]]}},{"type":"Feature","properties":{"name":"一番","city":"名古屋市熱田区","code":"109","setai":2278,"jinko":4794,"n":3,"towns":["23109007091","23109007092","23109007093"],"lx":136.897397,"ly":35.123996},"geometry":{"type":"Polygon","coordinates":[[[136.893896,35.12549],[136.894425,35.12554],[136.895127,35.125607],[136.895407,35.125633],[136.895331,35.125197],[136.895272,35.124858],[136.895208,35.124489],[136.895205,35.124472],[136.895121,35.123958],[136.895112,35.123907],[136.895041,35.123439],[136.895039,35.123425],[136.894992,35.123129],[136.894944,35.122823],[136.89494,35.122797],[136.894891,35.122498],[136.894865,35.122342],[136.89482,35.122021],[136.894795,35.12185],[136.89476,35.121602],[136.894712,35.121264],[136.894711,35.121262],[136.894706,35.120951],[136.894704,35.120839],[136.894704,35.120624],[136.894707,35.120211],[136.894707,35.120202],[136.895814,35.120198],[136.896605,35.120195],[136.897211,35.120192],[136.897744,35.120194],[136.898074,35.120193],[136.898557,35.12019],[136.899115,35.120188],[136.899342,35.120647],[136.899463,35.120883],[136.899951,35.121837],[136.900075,35.122077],[136.900254,35.122444],[136.900919,35.123755],[136.900975,35.12374],[136.901083,35.123992],[136.901518,35.124],[136.901522,35.124198],[136.901543,35.12431],[136.90159,35.124456],[136.901628,35.124519],[136.901218,35.124593],[136.900694,35.124444],[136.900519,35.124523],[136.900485,35.124585],[136.900302,35.124912],[136.900248,35.124928],[136.900087,35.125178],[136.899894,35.125226],[136.89976,35.125487],[136.899685,35.125651],[136.899617,35.125793],[136.899612,35.125805],[136.899525,35.125989],[136.899207,35.126647],[136.899202,35.126915],[136.899182,35.127012],[136.898928,35.127581],[136.898579,35.128361],[136.898366,35.128303],[136.89788,35.128136],[136.897783,35.128076],[136.897658,35.127971],[136.897618,35.127928],[136.897498,35.127899],[136.897234,35.127806],[136.896962,35.127695],[136.896942,35.127687],[136.896889,35.127666],[136.896747,35.127597],[136.896525,35.127519],[136.896363,35.127488],[136.896191,35.127475],[136.896121,35.127614],[136.895592,35.127536],[136.893973,35.12728],[136.893972,35.127106],[136.893972,35.127105],[136.893971,35.127062],[136.893964,35.126941],[136.893948,35.126618],[136.89391,35.125889],[136.893896,35.12549]]]}},{"type":"Feature","properties":{"name":"内田町","city":"名古屋市熱田区","code":"109","setai":57,"jinko":105,"n":1,"towns":["231090100"],"lx":136.906664,"ly":35.118775},"geometry":{"type":"Polygon","coordinates":[[[136.906509,35.119771],[136.906733,35.119643],[136.906756,35.119665],[136.906765,35.119661],[136.906766,35.119662],[136.906807,35.119642],[136.906835,35.11968],[136.906934,35.119625],[136.906938,35.119623],[136.906908,35.119623],[136.90691,35.119591],[136.906965,35.119592],[136.906966,35.119581],[136.906967,35.119556],[136.906971,35.119518],[136.907091,35.11952],[136.907091,35.119555],[136.907413,35.119553],[136.90742,35.119312],[136.907422,35.119277],[136.907445,35.118736],[136.907463,35.118438],[136.907443,35.118252],[136.907426,35.118184],[136.907366,35.117805],[136.907339,35.117673],[136.90676,35.117956],[136.906216,35.118239],[136.905861,35.1184],[136.905559,35.118526],[136.905676,35.118695],[136.905532,35.118769],[136.905466,35.118803],[136.905637,35.119028],[136.905709,35.118996],[136.90571,35.118996],[136.905721,35.119011],[136.905914,35.11927],[136.90597,35.11924],[136.906059,35.119362],[136.906147,35.119324],[136.906199,35.119391],[136.906335,35.119567],[136.906473,35.119729],[136.906509,35.119771]]]}},{"type":"Feature","properties":{"name":"大瀬子町","city":"名古屋市熱田区","code":"109","setai":225,"jinko":458,"n":1,"towns":["231090110"],"lx":136.904647,"ly":35.120438},"geometry":{"type":"Polygon","coordinates":[[[136.905408,35.121544],[136.905415,35.121531],[136.905639,35.121618],[136.905733,35.121475],[136.905819,35.121345],[136.905824,35.121337],[136.905909,35.121207],[136.905766,35.121127],[136.905658,35.121066],[136.905604,35.121034],[136.905787,35.120816],[136.905981,35.120586],[136.905875,35.120529],[136.906029,35.120317],[136.90607,35.120267],[136.905776,35.120124],[136.905529,35.120003],[136.905588,35.119949],[136.905437,35.11978],[136.905352,35.119685],[136.905288,35.119613],[136.905401,35.119543],[136.905379,35.119521],[136.905281,35.119395],[136.905154,35.119468],[136.905129,35.119434],[136.905111,35.11941],[136.905035,35.119452],[136.905014,35.119444],[136.905008,35.119422],[136.904969,35.119418],[136.904888,35.119408],[136.904716,35.119208],[136.904515,35.119385],[136.90424,35.11922],[136.903964,35.119488],[136.903941,35.119515],[136.903819,35.119657],[136.903553,35.119986],[136.90341,35.120196],[136.903344,35.12016],[136.903317,35.120215],[136.903269,35.120314],[136.90323,35.120401],[136.903014,35.120814],[136.903851,35.120991],[136.903801,35.121132],[136.904057,35.121221],[136.904126,35.121252],[136.904204,35.121136],[136.904467,35.121248],[136.90446,35.121263],[136.904554,35.121287],[136.904672,35.121341],[136.904625,35.121482],[136.904798,35.12155],[136.90484,35.121567],[136.904866,35.121577],[136.904882,35.121553],[136.904977,35.121388],[136.905347,35.12153],[136.905255,35.121683],[136.905303,35.121705],[136.905403,35.121551],[136.905408,35.121544]]]}},{"type":"Feature","properties":{"name":"尾頭町","city":"名古屋市熱田区","code":"109","setai":77,"jinko":111,"n":1,"towns":["231090120"],"lx":136.900107,"ly":35.135552},"geometry":{"type":"Polygon","coordinates":[[[136.901073,35.134304],[136.900503,35.134247],[136.900339,35.134257],[136.899667,35.134196],[136.899646,35.134179],[136.899398,35.134159],[136.899395,35.134238],[136.899269,35.134673],[136.899248,35.13477],[136.89922,35.135165],[136.899006,35.135791],[136.898805,35.136438],[136.898713,35.136764],[136.898675,35.136933],[136.898688,35.136989],[136.898805,35.13701],[136.899347,35.137108],[136.899997,35.13722],[136.900415,35.136636],[136.900467,35.136563],[136.900755,35.136151],[136.901104,35.135667],[136.901462,35.135179],[136.901948,35.134522],[136.90179,35.134378],[136.901175,35.134328],[136.901073,35.134304]]]}},{"type":"Feature","properties":{"name":"金山","city":"名古屋市熱田区","code":"109","setai":0,"jinko":0,"n":1,"towns":["231090130"],"lx":136.902106,"ly":35.142703},"geometry":{"type":"Polygon","coordinates":[[[136.901679,35.142965],[136.902399,35.142742],[136.902515,35.142789],[136.902483,35.142642],[136.902454,35.142403],[136.902439,35.142357],[136.902172,35.142526],[136.901542,35.142892],[136.901586,35.142963],[136.901654,35.142972],[136.901679,35.142965]]]}},{"type":"Feature","properties":{"name":"金山町","city":"名古屋市熱田区","code":"109","setai":462,"jinko":672,"n":2,"towns":["23109014091","23109014092"],"lx":136.901725,"ly":35.1412},"geometry":{"type":"Polygon","coordinates":[[[136.899128,35.1424],[136.899179,35.141923],[136.899177,35.141855],[136.899175,35.141778],[136.89917,35.14164],[136.899182,35.141067],[136.899185,35.140668],[136.899185,35.140612],[136.899194,35.140184],[136.899521,35.140202],[136.899628,35.140198],[136.899669,35.140197],[136.899917,35.140188],[136.899918,35.140188],[136.900082,35.140182],[136.900103,35.140181],[136.900402,35.140168],[136.900519,35.140163],[136.900523,35.140163],[136.900861,35.140148],[136.900909,35.140146],[136.901094,35.140139],[136.901884,35.140109],[136.901977,35.140107],[136.90242,35.140098],[136.902667,35.140094],[136.903116,35.140078],[136.903392,35.14007],[136.904277,35.140045],[136.904547,35.140037],[136.905366,35.140014],[136.90511,35.14026],[136.904793,35.140551],[136.9047,35.140664],[136.90445,35.140965],[136.904305,35.141113],[136.904171,35.141248],[136.903929,35.141429],[136.903296,35.141876],[136.902838,35.142169],[136.902801,35.142192],[136.902454,35.142403],[136.902439,35.142357],[136.902172,35.142526],[136.901542,35.142892],[136.901586,35.142963],[136.90098,35.142879],[136.900938,35.142689],[136.90087,35.142376],[136.900642,35.142467],[136.900493,35.142275],[136.900283,35.142184],[136.900157,35.142177],[136.900003,35.142232],[136.899659,35.142383],[136.899128,35.1424]]]}},{"type":"Feature","properties":{"name":"河田町","city":"名古屋市熱田区","code":"109","setai":263,"jinko":541,"n":1,"towns":["231090160"],"lx":136.88652,"ly":35.129665},"geometry":{"type":"Polygon","coordinates":[[[136.887209,35.13059],[136.887207,35.130474],[136.887371,35.130477],[136.887378,35.13039],[136.887266,35.130382],[136.887265,35.130217],[136.88746,35.130221],[136.887462,35.130244],[136.887976,35.130255],[136.887931,35.129834],[136.887869,35.129433],[136.887818,35.12907],[136.887787,35.128874],[136.887341,35.128864],[136.887032,35.128863],[136.887027,35.129041],[136.886697,35.129034],[136.886622,35.129032],[136.88662,35.129226],[136.886398,35.129218],[136.886153,35.129217],[136.886108,35.129139],[136.885788,35.129111],[136.885486,35.129112],[136.885441,35.129112],[136.885441,35.12911],[136.885445,35.129016],[136.885182,35.129012],[136.885184,35.129072],[136.884858,35.129108],[136.885042,35.130137],[136.88506,35.130213],[136.885349,35.130198],[136.885756,35.130171],[136.885809,35.130174],[136.886163,35.130191],[136.886516,35.130198],[136.886552,35.130199],[136.886609,35.130253],[136.886719,35.130323],[136.886726,35.130581],[136.887209,35.13059]]]}},{"type":"Feature","properties":{"name":"川並町","city":"名古屋市熱田区","code":"109","setai":108,"jinko":246,"n":1,"towns":["231090170"],"lx":136.895842,"ly":35.135544},"geometry":{"type":"Polygon","coordinates":[[[136.898063,35.137071],[136.898159,35.136739],[136.898335,35.136762],[136.898363,35.136564],[136.898421,35.136303],[136.898455,35.136201],[136.898833,35.134836],[136.899024,35.13422],[136.898929,35.134206],[136.898972,35.134056],[136.89885,35.134004],[136.898638,35.133859],[136.898239,35.13366],[136.897827,35.133497],[136.897435,35.133373],[136.897153,35.133328],[136.896635,35.133264],[136.896426,35.133261],[136.896227,35.133263],[136.895504,35.133258],[136.895019,35.133243],[136.895015,35.133315],[136.894865,35.133368],[136.894481,35.133503],[136.893984,35.133786],[136.89397,35.133794],[136.893926,35.133819],[136.893856,35.133865],[136.89388,35.133922],[136.893792,35.133978],[136.893534,35.134164],[136.89354,35.134048],[136.893459,35.134113],[136.893394,35.134163],[136.893335,35.134201],[136.8933,35.135601],[136.893286,35.136141],[136.893276,35.136579],[136.893262,35.137323],[136.893259,35.13751],[136.893257,35.137608],[136.893254,35.137779],[136.893252,35.137918],[136.893249,35.138064],[136.893245,35.138319],[136.893241,35.138416],[136.893474,35.138313],[136.89389,35.138193],[136.894387,35.138059],[136.894666,35.137979],[136.894717,35.137935],[136.894864,35.137933],[136.895697,35.137673],[136.896128,35.137552],[136.896454,35.137455],[136.897283,35.137222],[136.897887,35.137076],[136.898063,35.137071]]]}},{"type":"Feature","properties":{"name":"木之免町","city":"名古屋市熱田区","code":"109","setai":207,"jinko":407,"n":1,"towns":["231090180"],"lx":136.903917,"ly":35.121893},"geometry":{"type":"Polygon","coordinates":[[[136.904476,35.123098],[136.904843,35.122947],[136.904661,35.122849],[136.904635,35.122836],[136.904701,35.122742],[136.904742,35.122683],[136.904766,35.122696],[136.904927,35.122483],[136.904686,35.122362],[136.904644,35.122342],[136.904776,35.122167],[136.904822,35.122168],[136.904935,35.122008],[136.905012,35.121897],[136.90507,35.121917],[136.905097,35.121876],[136.905138,35.121889],[136.905242,35.121719],[136.905523,35.121825],[136.905624,35.121641],[136.905639,35.121618],[136.905415,35.121531],[136.905408,35.121544],[136.905403,35.121551],[136.905303,35.121705],[136.905255,35.121683],[136.905347,35.12153],[136.904977,35.121388],[136.904882,35.121553],[136.904866,35.121577],[136.90484,35.121567],[136.904798,35.12155],[136.904625,35.121482],[136.904672,35.121341],[136.904554,35.121287],[136.90446,35.121263],[136.904467,35.121248],[136.904204,35.121136],[136.904126,35.121252],[136.904057,35.121221],[136.903801,35.121132],[136.903851,35.120991],[136.903014,35.120814],[136.902863,35.121278],[136.902759,35.121745],[136.902676,35.122162],[136.902894,35.122225],[136.902943,35.122389],[136.902942,35.122474],[136.903112,35.12253],[136.903126,35.122508],[136.903309,35.122573],[136.903334,35.122499],[136.903531,35.122586],[136.903553,35.122564],[136.90364,35.122604],[136.903688,35.122535],[136.903888,35.122612],[136.903907,35.12262],[136.903936,35.122632],[136.903923,35.122667],[136.904047,35.122698],[136.904037,35.122714],[136.903975,35.122808],[136.904011,35.122822],[136.904125,35.122866],[136.904131,35.122878],[136.904264,35.123097],[136.904422,35.123028],[136.904476,35.123098]]]}},{"type":"Feature","properties":{"name":"切戸町","city":"名古屋市熱田区","code":"109","setai":601,"jinko":1255,"n":3,"towns":["23109019001","23109019002","23109019003"],"lx":136.887173,"ly":35.135559},"geometry":{"type":"Polygon","coordinates":[[[136.885566,35.133758],[136.886117,35.133791],[136.886427,35.13381],[136.886452,35.133581],[136.886477,35.133353],[136.886524,35.133358],[136.886682,35.133359],[136.886708,35.133278],[136.886716,35.133185],[136.886717,35.133179],[136.886796,35.133189],[136.886839,35.133191],[136.886875,35.132974],[136.886985,35.132986],[136.887392,35.133028],[136.887877,35.133078],[136.887906,35.132959],[136.887952,35.132956],[136.888296,35.132934],[136.888298,35.132953],[136.888318,35.133123],[136.888374,35.133539],[136.888416,35.133925],[136.888473,35.134321],[136.888519,35.134716],[136.88856,35.135085],[136.888643,35.135627],[136.888682,35.135943],[136.888712,35.136182],[136.888779,35.136754],[136.888582,35.136861],[136.888149,35.137121],[136.888081,35.137164],[136.88778,35.137363],[136.887689,35.137431],[136.887381,35.137683],[136.887344,35.137716],[136.887256,35.137796],[136.887168,35.137898],[136.886995,35.138126],[136.886949,35.138241],[136.886939,35.138282],[136.88685,35.138515],[136.886738,35.138682],[136.886701,35.138766],[136.88671,35.138907],[136.886798,35.139153],[136.886769,35.139388],[136.886773,35.139527],[136.886774,35.139556],[136.88655,35.139617],[136.886536,35.139355],[136.886353,35.138382],[136.886348,35.138354],[136.886273,35.137951],[136.886197,35.137558],[136.886168,35.137398],[136.886039,35.136685],[136.886027,35.136622],[136.885938,35.136109],[136.885891,35.135863],[136.885857,35.135686],[136.885848,35.135639],[136.885818,35.135464],[136.885764,35.135145],[136.885685,35.134643],[136.885633,35.134303],[136.885627,35.134262],[136.885625,35.134247],[136.885623,35.134236],[136.885566,35.133758]]]}},{"type":"Feature","properties":{"name":"神戸町","city":"名古屋市熱田区","code":"109","setai":200,"jinko":349,"n":1,"towns":["231090200"],"lx":136.90607,"ly":35.120267},"geometry":{"type":"Polygon","coordinates":[[[136.906216,35.122092],[136.906262,35.122034],[136.906394,35.122083],[136.906448,35.122007],[136.906745,35.122142],[136.907295,35.121927],[136.907335,35.121408],[136.907379,35.120842],[136.907382,35.120726],[136.907388,35.120166],[136.907389,35.120106],[136.907399,35.119747],[136.907413,35.119553],[136.907091,35.119555],[136.907091,35.11952],[136.906971,35.119518],[136.906967,35.119556],[136.906966,35.119581],[136.906965,35.119592],[136.90691,35.119591],[136.906908,35.119623],[136.906938,35.119623],[136.906934,35.119625],[136.906835,35.11968],[136.906807,35.119642],[136.906766,35.119662],[136.906765,35.119661],[136.906756,35.119665],[136.906733,35.119643],[136.906509,35.119771],[136.906473,35.119729],[136.906335,35.119567],[136.906199,35.119391],[136.906147,35.119324],[136.906059,35.119362],[136.90597,35.11924],[136.905914,35.11927],[136.905721,35.119011],[136.90571,35.118996],[136.905709,35.118996],[136.905637,35.119028],[136.905466,35.118803],[136.905532,35.118769],[136.905676,35.118695],[136.905559,35.118526],[136.905379,35.118586],[136.905191,35.118572],[136.905029,35.118622],[136.904767,35.118391],[136.904573,35.11852],[136.904654,35.118543],[136.904951,35.1188],[136.904842,35.118853],[136.904567,35.119016],[136.90435,35.11914],[136.904315,35.119136],[136.904245,35.119215],[136.90424,35.11922],[136.904515,35.119385],[136.904716,35.119208],[136.904888,35.119408],[136.904969,35.119418],[136.905008,35.119422],[136.905014,35.119444],[136.905035,35.119452],[136.905111,35.11941],[136.905129,35.119434],[136.905154,35.119468],[136.905281,35.119395],[136.905379,35.119521],[136.905401,35.119543],[136.905288,35.119613],[136.905352,35.119685],[136.905437,35.11978],[136.905588,35.119949],[136.905529,35.120003],[136.905776,35.120124],[136.90607,35.120267],[136.906308,35.12011],[136.906416,35.120223],[136.906435,35.120242],[136.906529,35.12034],[136.906617,35.120291],[136.906776,35.120444],[136.906726,35.120473],[136.906764,35.120505],[136.906857,35.120583],[136.906849,35.120802],[136.906853,35.120805],[136.906899,35.120839],[136.906734,35.121024],[136.906742,35.121052],[136.906612,35.121192],[136.906578,35.12118],[136.906574,35.121179],[136.906512,35.121253],[136.906496,35.121277],[136.906495,35.121278],[136.906711,35.12138],[136.906649,35.12146],[136.906421,35.121354],[136.906412,35.121368],[136.906039,35.121902],[136.905999,35.121888],[136.905989,35.121914],[136.905952,35.12199],[136.906034,35.122021],[136.906022,35.122042],[136.905952,35.122175],[136.905938,35.122177],[136.905922,35.122225],[136.905859,35.122251],[136.905823,35.122265],[136.905902,35.12241],[136.905916,35.122432],[136.905949,35.122474],[136.906188,35.12238],[136.90609,35.122212],[136.906198,35.122123],[136.906216,35.122092]]]}},{"type":"Feature","properties":{"name":"古新町","city":"名古屋市熱田区","code":"109","setai":535,"jinko":1140,"n":2,"towns":["23109021001","23109021002"],"lx":136.885988,"ly":35.127516},"geometry":{"type":"Polygon","coordinates":[[[136.884107,35.125956],[136.884857,35.125983],[136.884929,35.125985],[136.885091,35.125985],[136.885219,35.125984],[136.88529,35.125984],[136.885293,35.125989],[136.885937,35.125991],[136.885988,35.125992],[136.885993,35.125992],[136.887109,35.126217],[136.887436,35.126287],[136.887502,35.12672],[136.88752,35.126864],[136.887551,35.127118],[136.887598,35.127488],[136.887602,35.127524],[136.88765,35.127904],[136.887668,35.128057],[136.887693,35.12826],[136.887726,35.128477],[136.887752,35.128641],[136.887787,35.128874],[136.887341,35.128864],[136.887032,35.128863],[136.887027,35.129041],[136.886697,35.129034],[136.886622,35.129032],[136.88662,35.129226],[136.886398,35.129218],[136.886153,35.129217],[136.886108,35.129139],[136.885788,35.129111],[136.885486,35.129112],[136.885441,35.129112],[136.885441,35.12911],[136.885445,35.129016],[136.885182,35.129012],[136.885184,35.129072],[136.884858,35.129108],[136.884843,35.129025],[136.884761,35.128576],[136.88475,35.12847],[136.884712,35.128177],[136.884657,35.127834],[136.884456,35.12783],[136.88439,35.127433],[136.884358,35.127249],[136.884324,35.127051],[136.884243,35.12663],[136.884173,35.12627],[136.884107,35.125956]]]}},{"type":"Feature","properties":{"name":"五番町","city":"名古屋市熱田区","code":"109","setai":588,"jinko":1509,"n":1,"towns":["231090220"],"lx":136.890944,"ly":35.11597},"geometry":{"type":"Polygon","coordinates":[[[136.889632,35.118555],[136.89225,35.118557],[136.892271,35.118557],[136.89227,35.118202],[136.89227,35.118187],[136.892265,35.117294],[136.892266,35.116801],[136.89226,35.116391],[136.892258,35.115971],[136.892245,35.115545],[136.892248,35.115148],[136.892247,35.115105],[136.892239,35.114775],[136.892239,35.114739],[136.892239,35.114739],[136.892236,35.114522],[136.89223,35.114177],[136.892225,35.113758],[136.892215,35.113353],[136.892173,35.113356],[136.891758,35.113359],[136.891039,35.113364],[136.890913,35.113366],[136.890589,35.113371],[136.890293,35.113376],[136.889638,35.11339],[136.889629,35.113389],[136.88963,35.113791],[136.889633,35.114183],[136.889632,35.114544],[136.889631,35.11486],[136.889631,35.115007],[136.889632,35.115057],[136.889631,35.115141],[136.889628,35.115558],[136.889632,35.115776],[136.889633,35.115977],[136.889633,35.116398],[136.889636,35.117293],[136.889635,35.118201],[136.889632,35.118555]]]}},{"type":"Feature","properties":{"name":"五本松町","city":"名古屋市熱田区","code":"109","setai":219,"jinko":362,"n":1,"towns":["231090230"],"lx":136.902145,"ly":35.135442},"geometry":{"type":"Polygon","coordinates":[[[136.902206,35.137213],[136.902241,35.137107],[136.90242,35.137151],[136.902674,35.137219],[136.902773,35.136773],[136.902881,35.136276],[136.902958,35.135993],[136.902999,35.135841],[136.903051,35.135709],[136.903108,35.135567],[136.903152,35.135309],[136.903191,35.134961],[136.903204,35.134845],[136.903213,35.134759],[136.903229,35.134623],[136.903243,35.134495],[136.903261,35.134305],[136.90332,35.133903],[136.903359,35.133766],[136.903574,35.133264],[136.903646,35.133051],[136.903713,35.132867],[136.903788,35.132636],[136.90392,35.132246],[136.903946,35.132169],[136.903962,35.132138],[136.904129,35.131798],[136.903939,35.131726],[136.903314,35.132571],[136.903048,35.132941],[136.90261,35.133526],[136.902579,35.133574],[136.902253,35.134013],[136.901965,35.134392],[136.90179,35.134378],[136.901948,35.134522],[136.901462,35.135179],[136.901104,35.135667],[136.900755,35.136151],[136.900467,35.136563],[136.900415,35.136636],[136.899997,35.13722],[136.899945,35.137291],[136.900319,35.137419],[136.90037,35.137435],[136.900452,35.137461],[136.900734,35.13755],[136.900857,35.137588],[136.901693,35.137375],[136.901672,35.137274],[136.902206,35.137213]]]}},{"type":"Feature","properties":{"name":"西郊通","city":"名古屋市熱田区","code":"109","setai":99,"jinko":181,"n":6,"towns":["23109024002","23109024003","23109024004","23109024005","23109024006","23109024007"],"lx":136.891732,"ly":35.130483},"geometry":{"type":"Polygon","coordinates":[[[136.889414,35.126794],[136.889513,35.126756],[136.889754,35.126661],[136.890153,35.127369],[136.890154,35.127371],[136.890681,35.128328],[136.890712,35.128385],[136.890767,35.128484],[136.890783,35.128514],[136.890793,35.128532],[136.891092,35.129067],[136.891443,35.129704],[136.891446,35.129709],[136.891845,35.130437],[136.892171,35.131035],[136.892233,35.131149],[136.89241,35.131478],[136.892825,35.132229],[136.892831,35.13224],[136.893211,35.132947],[136.893303,35.133144],[136.89336,35.133199],[136.893335,35.133924],[136.893336,35.13405],[136.893186,35.134141],[136.893066,35.134214],[136.893075,35.13412],[136.893104,35.134098],[136.893063,35.134059],[136.893035,35.134072],[136.893029,35.134075],[136.892989,35.134024],[136.892961,35.133998],[136.892968,35.133777],[136.892918,35.133775],[136.892818,35.133773],[136.892826,35.133577],[136.892818,35.133578],[136.89282,35.133464],[136.892902,35.133466],[136.892901,35.133458],[136.892905,35.133379],[136.892908,35.133373],[136.892973,35.133375],[136.892972,35.133137],[136.892972,35.133117],[136.892772,35.133101],[136.89276,35.133089],[136.892785,35.13289],[136.892652,35.132934],[136.892558,35.132757],[136.892554,35.132759],[136.892503,35.132667],[136.892652,35.132612],[136.892597,35.13251],[136.892582,35.132515],[136.89259,35.132532],[136.892457,35.132582],[136.892423,35.13252],[136.89256,35.132468],[136.892572,35.132463],[136.892515,35.132357],[136.892301,35.132418],[136.892216,35.13225],[136.892196,35.13221],[136.892246,35.132191],[136.892381,35.132141],[136.892397,35.132136],[136.892351,35.13205],[136.892319,35.131991],[136.891931,35.13127],[136.89192,35.131251],[136.891855,35.131145],[136.891791,35.13104],[136.891989,35.130983],[136.891732,35.130483],[136.891453,35.129966],[136.891302,35.130021],[136.891185,35.129797],[136.891152,35.129807],[136.891111,35.129821],[136.890698,35.129082],[136.890548,35.128815],[136.890364,35.128885],[136.890283,35.128735],[136.890468,35.128671],[136.890459,35.128656],[136.890461,35.128655],[136.890376,35.128504],[136.890301,35.128367],[136.890216,35.12823],[136.890072,35.128287],[136.890065,35.128274],[136.889979,35.128121],[136.889942,35.128051],[136.890084,35.128],[136.890033,35.127919],[136.890102,35.127895],[136.890048,35.127804],[136.890015,35.127818],[136.890015,35.127816],[136.889827,35.127487],[136.889818,35.127473],[136.889817,35.127472],[136.889896,35.127443],[136.889801,35.12727],[136.889665,35.127318],[136.889612,35.127222],[136.889652,35.12721],[136.88966,35.127207],[136.889414,35.126794]]]}},{"type":"Feature","properties":{"name":"桜田町","city":"名古屋市熱田区","code":"109","setai":664,"jinko":1239,"n":1,"towns":["231090250"],"lx":136.909438,"ly":35.141571},"geometry":{"type":"Polygon","coordinates":[[[136.908897,35.143172],[136.909923,35.143168],[136.911898,35.143175],[136.91203,35.143171],[136.912538,35.142015],[136.912516,35.141965],[136.912619,35.14181],[136.913008,35.140917],[136.913479,35.139819],[136.913327,35.1398],[136.912547,35.139801],[136.91248,35.139801],[136.911504,35.139827],[136.91142,35.139828],[136.910054,35.139872],[136.908633,35.139914],[136.908076,35.139926],[136.908,35.139924],[136.907499,35.139937],[136.907479,35.139938],[136.907351,35.139941],[136.907068,35.139948],[136.906609,35.139973],[136.906591,35.139973],[136.906495,35.140264],[136.906381,35.14054],[136.90648,35.140535],[136.906468,35.14057],[136.90645,35.140621],[136.906378,35.14082],[136.906377,35.140825],[136.906368,35.140823],[136.906325,35.140812],[136.906236,35.141045],[136.906212,35.141045],[136.90613,35.141283],[136.90613,35.141303],[136.906131,35.141373],[136.906229,35.14137],[136.906241,35.141567],[136.906241,35.141567],[136.906036,35.141573],[136.906038,35.141615],[136.906038,35.141615],[136.906044,35.141743],[136.906001,35.141774],[136.90601,35.141889],[136.906078,35.141886],[136.906085,35.142119],[136.906244,35.142122],[136.90626,35.142409],[136.906134,35.142412],[136.906148,35.142636],[136.906148,35.142638],[136.90615,35.142664],[136.906176,35.143154],[136.906285,35.143149],[136.906293,35.143425],[136.90635,35.143431],[136.90642,35.143654],[136.906464,35.143663],[136.90645,35.143782],[136.906765,35.14377],[136.906788,35.14377],[136.906968,35.143764],[136.907541,35.143743],[136.907821,35.143693],[136.907816,35.143661],[136.908182,35.143649],[136.908177,35.143268],[136.908198,35.143267],[136.90823,35.14321],[136.908789,35.143189],[136.908835,35.143188],[136.908897,35.143172]]]}},{"type":"Feature","properties":{"name":"沢上","city":"名古屋市熱田区","code":"109","setai":684,"jinko":1443,"n":2,"towns":["23109026091","23109026092"],"lx":136.904076,"ly":35.138841},"geometry":{"type":"Polygon","coordinates":[[[136.901872,35.139518],[136.901972,35.13921],[136.902121,35.138771],[136.90221,35.13855],[136.90227,35.138407],[136.90241,35.138075],[136.90255,35.137714],[136.902581,35.137614],[136.902674,35.137219],[136.903291,35.137413],[136.903643,35.137528],[136.903725,35.137503],[136.903748,35.137584],[136.903777,35.137571],[136.904386,35.137776],[136.904442,35.137667],[136.904819,35.137722],[136.90524,35.137774],[136.905885,35.137904],[136.906158,35.138072],[136.906556,35.138294],[136.906793,35.138435],[136.906815,35.138439],[136.906528,35.138778],[136.906076,35.139291],[136.905545,35.139841],[136.905467,35.139922],[136.905366,35.140014],[136.904547,35.140037],[136.904277,35.140045],[136.903392,35.14007],[136.903116,35.140078],[136.902667,35.140094],[136.90242,35.140098],[136.901977,35.140107],[136.901884,35.140109],[136.901876,35.139645],[136.901872,35.139518]]]}},{"type":"Feature","properties":{"name":"沢下町","city":"名古屋市熱田区","code":"109","setai":168,"jinko":325,"n":1,"towns":["231090280"],"lx":136.90803,"ly":35.139237},"geometry":{"type":"Polygon","coordinates":[[[136.907499,35.139937],[136.908,35.139924],[136.908076,35.139926],[136.908633,35.139914],[136.910054,35.139872],[136.910032,35.139167],[136.910009,35.138457],[136.909633,35.138453],[136.908792,35.138436],[136.908594,35.138452],[136.907977,35.138447],[136.90763,35.138445],[136.907279,35.138444],[136.906997,35.138442],[136.906815,35.138439],[136.906528,35.138778],[136.906076,35.139291],[136.905545,35.139841],[136.905467,35.139922],[136.905366,35.140014],[136.905443,35.140012],[136.905568,35.140003],[136.905631,35.139999],[136.905901,35.139991],[136.906317,35.139977],[136.906341,35.139975],[136.906591,35.139973],[136.906609,35.139973],[136.907068,35.139948],[136.907351,35.139941],[136.907479,35.139938],[136.907499,35.139937]]]}},{"type":"Feature","properties":{"name":"三番町","city":"名古屋市熱田区","code":"109","setai":614,"jinko":1236,"n":1,"towns":["231090290"],"lx":136.893495,"ly":35.115938},"geometry":{"type":"Polygon","coordinates":[[[136.8936,35.118559],[136.894706,35.118561],[136.894732,35.118562],[136.894732,35.118425],[136.89474,35.118204],[136.894743,35.118118],[136.894739,35.117816],[136.894738,35.117277],[136.894741,35.116815],[136.894736,35.11638],[136.894736,35.115965],[136.894736,35.115938],[136.894734,35.115534],[136.894737,35.11513],[136.894737,35.115103],[136.894737,35.114759],[136.894737,35.114738],[136.894738,35.114511],[136.894735,35.114176],[136.894738,35.114136],[136.894736,35.113714],[136.894739,35.113319],[136.894507,35.113323],[136.894235,35.113329],[136.894214,35.113329],[136.894188,35.11333],[136.894188,35.113329],[136.893554,35.113336],[136.893237,35.113339],[136.893068,35.11334],[136.892397,35.113349],[136.892266,35.113351],[136.892253,35.113351],[136.892215,35.113353],[136.892225,35.113758],[136.89223,35.114177],[136.892236,35.114522],[136.892239,35.114739],[136.892239,35.114739],[136.892239,35.114775],[136.892247,35.115105],[136.892248,35.115148],[136.892245,35.115545],[136.892258,35.115971],[136.89226,35.116391],[136.892266,35.116801],[136.892265,35.117294],[136.89227,35.118187],[136.89227,35.118202],[136.892271,35.118557],[136.893236,35.118559],[136.8936,35.118559]]]}},{"type":"Feature","properties":{"name":"三本松町","city":"名古屋市熱田区","code":"109","setai":1260,"jinko":2435,"n":1,"towns":["231090300"],"lx":136.913724,"ly":35.12807},"geometry":{"type":"Polygon","coordinates":[[[136.915672,35.13058],[136.915892,35.130574],[136.915978,35.13057],[136.916032,35.130567],[136.916301,35.130548],[136.916843,35.130491],[136.917011,35.130468],[136.917063,35.129805],[136.917091,35.129546],[136.917159,35.128739],[136.917183,35.128567],[136.917028,35.128573],[136.916966,35.128577],[136.916383,35.128606],[136.916313,35.128601],[136.916248,35.128541],[136.915949,35.12809],[136.915938,35.127992],[136.915767,35.127548],[136.915574,35.127002],[136.915472,35.126754],[136.91528,35.126316],[136.915156,35.126308],[136.91496,35.126046],[136.914874,35.125919],[136.914645,35.12566],[136.914392,35.12536],[136.914047,35.124931],[136.913775,35.124575],[136.913603,35.124365],[136.913678,35.123588],[136.913647,35.123327],[136.913568,35.122963],[136.913349,35.122807],[136.913093,35.123467],[136.912814,35.124197],[136.912509,35.124976],[136.912203,35.125785],[136.911991,35.126314],[136.911827,35.126768],[136.91164,35.127231],[136.91145,35.127717],[136.911313,35.128072],[136.911134,35.12853],[136.910816,35.129322],[136.910632,35.129789],[136.910499,35.130154],[136.910407,35.130471],[136.910682,35.130527],[136.910852,35.13054],[136.911139,35.130547],[136.911271,35.13055],[136.912698,35.130554],[136.9133,35.13056],[136.91443,35.130572],[136.914832,35.130578],[136.915226,35.130577],[136.915475,35.130574],[136.915672,35.13058]]]}},{"type":"Feature","properties":{"name":"白鳥町","city":"名古屋市熱田区","code":"109","setai":112,"jinko":234,"n":1,"towns":["231090310"],"lx":136.902901,"ly":35.123409},"geometry":{"type":"Polygon","coordinates":[[[136.904018,35.12343],[136.903663,35.123118],[136.903575,35.123036],[136.903574,35.123036],[136.903584,35.123029],[136.903595,35.12302],[136.903562,35.122993],[136.90346,35.123064],[136.90336,35.123133],[136.903301,35.123174],[136.903182,35.123107],[136.903,35.123029],[136.90311,35.122806],[136.902576,35.122668],[136.902447,35.123001],[136.902404,35.123138],[136.90218,35.123544],[136.902115,35.123803],[136.902057,35.123995],[136.90237,35.123995],[136.902691,35.123964],[136.902767,35.123957],[136.90347,35.123661],[136.903533,35.123635],[136.904018,35.12343]]]}},{"type":"Feature","properties":{"name":"白鳥","city":"名古屋市熱田区","code":"109","setai":599,"jinko":1190,"n":3,"towns":["23109032091","23109032092","23109032093"],"lx":136.904914,"ly":35.125249},"geometry":{"type":"Polygon","coordinates":[[[136.902057,35.123995],[136.90237,35.123995],[136.902691,35.123964],[136.902767,35.123957],[136.90347,35.123661],[136.903533,35.123635],[136.904018,35.12343],[136.904038,35.123422],[136.904711,35.123144],[136.904991,35.123024],[136.905461,35.122824],[136.905563,35.122781],[136.906377,35.122442],[136.906397,35.122434],[136.90726,35.122076],[136.907257,35.122983],[136.907254,35.123569],[136.907234,35.123853],[136.907178,35.124812],[136.907154,35.125246],[136.90709,35.125576],[136.906985,35.126092],[136.906936,35.126335],[136.90659,35.128025],[136.906065,35.127597],[136.90595,35.127491],[136.90588,35.127558],[136.90576,35.127644],[136.90571,35.12768],[136.905659,35.12766],[136.905646,35.127763],[136.905643,35.127793],[136.90563,35.127896],[136.905625,35.127931],[136.905536,35.128061],[136.905181,35.127845],[136.90501,35.127741],[136.905035,35.127577],[136.905148,35.127292],[136.905211,35.127136],[136.904308,35.126974],[136.904192,35.127149],[136.904117,35.127262],[136.903957,35.1275],[136.903922,35.127636],[136.903845,35.127979],[136.903529,35.12792],[136.903222,35.127877],[136.903175,35.127836],[136.902949,35.127771],[136.902901,35.127706],[136.902763,35.127621],[136.90273,35.127634],[136.902669,35.12759],[136.902417,35.127492],[136.902284,35.127481],[136.902313,35.127462],[136.902448,35.127155],[136.902574,35.126755],[136.902588,35.126663],[136.902623,35.12667],[136.902612,35.126584],[136.902625,35.126481],[136.902605,35.126273],[136.902545,35.126055],[136.902459,35.125718],[136.902295,35.12507],[136.902095,35.124369],[136.902058,35.12415],[136.902057,35.123995]]]}},{"type":"Feature","properties":{"name":"新尾頭","city":"名古屋市熱田区","code":"109","setai":987,"jinko":1621,"n":3,"towns":["23109035091","23109035092","23109035093"],"lx":136.89846,"ly":35.140013},"geometry":{"type":"Polygon","coordinates":[[[136.895792,35.142604],[136.895955,35.142105],[136.896151,35.141687],[136.896336,35.141304],[136.89655,35.140799],[136.896687,35.140565],[136.896854,35.140221],[136.896927,35.140094],[136.897151,35.139704],[136.897171,35.139693],[136.897489,35.139239],[136.897659,35.13898],[136.897739,35.138845],[136.897994,35.138479],[136.898085,35.138374],[136.898218,35.138183],[136.898441,35.137713],[136.89853,35.137514],[136.898605,35.137301],[136.898673,35.137019],[136.898688,35.136989],[136.898805,35.13701],[136.899347,35.137108],[136.899997,35.13722],[136.899945,35.137291],[136.900319,35.137419],[136.90037,35.137435],[136.900452,35.137461],[136.900734,35.13755],[136.900643,35.137744],[136.900517,35.138014],[136.900463,35.13858],[136.900445,35.138808],[136.900421,35.139089],[136.900438,35.139384],[136.900523,35.140163],[136.900519,35.140163],[136.900402,35.140168],[136.900103,35.140181],[136.900082,35.140182],[136.899918,35.140188],[136.899917,35.140188],[136.899669,35.140197],[136.899628,35.140198],[136.899521,35.140202],[136.899194,35.140184],[136.899185,35.140612],[136.899185,35.140668],[136.899182,35.141067],[136.89917,35.14164],[136.899175,35.141778],[136.899177,35.141855],[136.899179,35.141923],[136.899128,35.1424],[136.898678,35.142436],[136.89826,35.142469],[136.897611,35.1425],[136.897212,35.142529],[136.896826,35.142552],[136.89663,35.142562],[136.896311,35.142586],[136.896012,35.142609],[136.895845,35.142612],[136.895826,35.142609],[136.895792,35.142604]]]}},{"type":"Feature","properties":{"name":"神宮","city":"名古屋市熱田区","code":"109","setai":615,"jinko":976,"n":4,"towns":["23109038091","23109038092","23109038093","23109038094"],"lx":136.910315,"ly":35.124153},"geometry":{"type":"Polygon","coordinates":[[[136.90659,35.128025],[136.906936,35.126335],[136.906985,35.126092],[136.90709,35.125576],[136.907154,35.125246],[136.907178,35.124812],[136.907234,35.123853],[136.907254,35.123569],[136.907257,35.122983],[136.90726,35.122076],[136.907285,35.122066],[136.90757,35.12195],[136.908177,35.121703],[136.908194,35.121696],[136.908538,35.121552],[136.908883,35.121408],[136.9092,35.121278],[136.909515,35.121148],[136.909661,35.121088],[136.909995,35.120949],[136.91042,35.120767],[136.910451,35.120753],[136.910436,35.120727],[136.910981,35.120485],[136.91118,35.120397],[136.911487,35.120264],[136.911657,35.120153],[136.91181,35.120005],[136.912037,35.119737],[136.912274,35.119473],[136.912286,35.11946],[136.912365,35.119375],[136.912412,35.11932],[136.912776,35.11891],[136.913092,35.118557],[136.91329,35.118328],[136.913625,35.118059],[136.91376,35.117965],[136.913838,35.118052],[136.913891,35.118137],[136.913927,35.118277],[136.913927,35.118435],[136.913909,35.118629],[136.913837,35.119181],[136.91374,35.119288],[136.913802,35.119346],[136.913891,35.119463],[136.913877,35.119531],[136.913949,35.119556],[136.913966,35.119526],[136.914672,35.119717],[136.914639,35.119789],[136.914593,35.119889],[136.914457,35.120184],[136.914316,35.120509],[136.913845,35.121431],[136.913675,35.121822],[136.91327,35.122767],[136.913349,35.122807],[136.913093,35.123467],[136.912814,35.124197],[136.912509,35.124976],[136.912203,35.125785],[136.911991,35.126314],[136.911827,35.126768],[136.91164,35.127231],[136.91145,35.127717],[136.911313,35.128072],[136.911134,35.12853],[136.910816,35.129322],[136.910066,35.129126],[136.909457,35.128967],[136.909572,35.128702],[136.909151,35.128581],[136.909075,35.128721],[136.908403,35.12873],[136.907894,35.128602],[136.907885,35.128621],[136.907652,35.128922],[136.907312,35.128639],[136.907169,35.128521],[136.907073,35.128436],[136.906729,35.128137],[136.90659,35.128025]]]}},{"type":"Feature","properties":{"name":"神野町","city":"名古屋市熱田区","code":"109","setai":254,"jinko":472,"n":2,"towns":["23109042001","23109042002"],"lx":136.889774,"ly":35.130651},"geometry":{"type":"Polygon","coordinates":[[[136.887931,35.129834],[136.888172,35.129839],[136.888161,35.129645],[136.888219,35.129631],[136.888472,35.129635],[136.888476,35.129432],[136.888483,35.129241],[136.888887,35.129256],[136.889129,35.129261],[136.889155,35.129441],[136.889158,35.129463],[136.889215,35.129853],[136.889246,35.130095],[136.889903,35.130102],[136.890261,35.130117],[136.890264,35.129996],[136.890292,35.129993],[136.890291,35.129894],[136.890602,35.1299],[136.890599,35.129942],[136.890587,35.130096],[136.890681,35.130099],[136.891,35.130111],[136.89103,35.1301],[136.891044,35.130126],[136.891274,35.13003],[136.891302,35.130021],[136.891453,35.129966],[136.891732,35.130483],[136.891989,35.130983],[136.891791,35.13104],[136.891855,35.131145],[136.89192,35.131251],[136.891931,35.13127],[136.891715,35.131349],[136.891698,35.131356],[136.891587,35.131396],[136.891393,35.131467],[136.891053,35.131591],[136.891035,35.13159],[136.890818,35.131576],[136.890529,35.131557],[136.889436,35.131497],[136.8894,35.131495],[136.888598,35.131449],[136.888111,35.131417],[136.888105,35.131377],[136.888065,35.131027],[136.88802,35.13066],[136.888022,35.13066],[136.888016,35.130604],[136.887976,35.130255],[136.887931,35.129834]]]}},{"type":"Feature","properties":{"name":"須賀町","city":"名古屋市熱田区","code":"109","setai":167,"jinko":292,"n":1,"towns":["231090430"],"lx":136.905896,"ly":35.121467},"geometry":{"type":"Polygon","coordinates":[[[136.905952,35.122175],[136.906022,35.122042],[136.906034,35.122021],[136.905952,35.12199],[136.905989,35.121914],[136.905999,35.121888],[136.906039,35.121902],[136.906412,35.121368],[136.906421,35.121354],[136.906649,35.12146],[136.906711,35.12138],[136.906495,35.121278],[136.906496,35.121277],[136.906512,35.121253],[136.906574,35.121179],[136.906578,35.12118],[136.906612,35.121192],[136.906742,35.121052],[136.906734,35.121024],[136.906899,35.120839],[136.906853,35.120805],[136.906849,35.120802],[136.906857,35.120583],[136.906764,35.120505],[136.906726,35.120473],[136.906776,35.120444],[136.906617,35.120291],[136.906529,35.12034],[136.906435,35.120242],[136.906416,35.120223],[136.906308,35.12011],[136.90607,35.120267],[136.906029,35.120317],[136.905875,35.120529],[136.905981,35.120586],[136.905787,35.120816],[136.905604,35.121034],[136.905658,35.121066],[136.905766,35.121127],[136.905909,35.121207],[136.905824,35.121337],[136.905819,35.121345],[136.905733,35.121475],[136.905639,35.121618],[136.905624,35.121641],[136.905523,35.121825],[136.905242,35.121719],[136.905138,35.121889],[136.905097,35.121876],[136.90507,35.121917],[136.905012,35.121897],[136.904935,35.122008],[136.904822,35.122168],[136.904776,35.122167],[136.904644,35.122342],[136.904686,35.122362],[136.904927,35.122483],[136.904962,35.1225],[136.905343,35.122676],[136.9054,35.122703],[136.905949,35.122474],[136.905916,35.122432],[136.905902,35.12241],[136.905823,35.122265],[136.905859,35.122251],[136.905922,35.122225],[136.905938,35.122177],[136.905952,35.122175]]]}},{"type":"Feature","properties":{"name":"外土居町","city":"名古屋市熱田区","code":"109","setai":205,"jinko":413,"n":1,"towns":["231090440"],"lx":136.906097,"ly":35.136915},"geometry":{"type":"Polygon","coordinates":[[[136.907694,35.137229],[136.907827,35.136963],[136.907535,35.136864],[136.907346,35.137219],[136.906948,35.137048],[136.906913,35.136845],[136.906829,35.136445],[136.906825,35.136432],[136.906691,35.136046],[136.906492,35.135543],[136.906341,35.13502],[136.906293,35.134851],[136.905488,35.135746],[136.905335,35.136036],[136.905238,35.136219],[136.905157,35.136361],[136.905033,35.136593],[136.904808,35.136994],[136.904703,35.13717],[136.904442,35.137667],[136.904819,35.137722],[136.90524,35.137774],[136.905885,35.137904],[136.906158,35.138072],[136.906556,35.138294],[136.906793,35.138435],[136.906815,35.138439],[136.907324,35.13778],[136.907362,35.137721],[136.90755,35.137436],[136.907694,35.137229]]]}},{"type":"Feature","properties":{"name":"大宝","city":"名古屋市熱田区","code":"109","setai":2575,"jinko":5216,"n":4,"towns":["23109045091","23109045092","23109045093","23109045094"],"lx":136.894373,"ly":35.129861},"geometry":{"type":"Polygon","coordinates":[[[136.889749,35.126652],[136.890422,35.126745],[136.890436,35.126768],[136.891356,35.126901],[136.891684,35.126943],[136.892318,35.127021],[136.89319,35.127156],[136.893973,35.12728],[136.895592,35.127536],[136.896121,35.127614],[136.896191,35.127475],[136.896363,35.127488],[136.896525,35.127519],[136.896747,35.127597],[136.896889,35.127666],[136.896942,35.127687],[136.896962,35.127695],[136.897234,35.127806],[136.897498,35.127899],[136.897618,35.127928],[136.897658,35.127971],[136.897783,35.128076],[136.89788,35.128136],[136.898366,35.128303],[136.898579,35.128361],[136.89855,35.128494],[136.898545,35.128502],[136.89818,35.12921],[136.897976,35.129632],[136.897858,35.129838],[136.897709,35.130097],[136.897465,35.130543],[136.897215,35.131017],[136.897162,35.131084],[136.89697,35.131458],[136.89673,35.131927],[136.896613,35.132154],[136.896469,35.132552],[136.896447,35.132722],[136.896435,35.133045],[136.896426,35.133261],[136.896227,35.133263],[136.895504,35.133258],[136.895019,35.133243],[136.895015,35.133315],[136.894865,35.133368],[136.894481,35.133503],[136.893984,35.133786],[136.89397,35.133794],[136.893926,35.133819],[136.893856,35.133865],[136.89388,35.133922],[136.893792,35.133978],[136.893534,35.134164],[136.89354,35.134048],[136.893459,35.134113],[136.893394,35.134163],[136.893335,35.134201],[136.893337,35.134135],[136.893336,35.13405],[136.893335,35.133924],[136.89336,35.133199],[136.893303,35.133144],[136.893211,35.132947],[136.892831,35.13224],[136.892825,35.132229],[136.89241,35.131478],[136.892233,35.131149],[136.892171,35.131035],[136.891845,35.130437],[136.891446,35.129709],[136.891443,35.129704],[136.891092,35.129067],[136.890793,35.128532],[136.890783,35.128514],[136.890767,35.128484],[136.890712,35.128385],[136.890681,35.128328],[136.890154,35.127371],[136.890153,35.127369],[136.889754,35.126661],[136.889749,35.126652]]]}},{"type":"Feature","properties":{"name":"高蔵町","city":"名古屋市熱田区","code":"109","setai":273,"jinko":594,"n":1,"towns":["231090490"],"lx":136.904255,"ly":35.135899},"geometry":{"type":"Polygon","coordinates":[[[136.904442,35.137667],[136.904703,35.13717],[136.904808,35.136994],[136.905033,35.136593],[136.905157,35.136361],[136.905238,35.136219],[136.905335,35.136036],[136.905488,35.135746],[136.906293,35.134851],[136.906608,35.134484],[136.906586,35.134487],[136.906345,35.134515],[136.906201,35.134511],[136.90606,35.134526],[136.905666,35.13457],[136.905669,35.134582],[136.90534,35.134612],[136.905316,35.134611],[136.904787,35.134666],[136.904608,35.134654],[136.904332,35.13466],[136.904266,35.134642],[136.903999,35.134585],[136.903636,35.134522],[136.903624,35.13447],[136.903616,35.134282],[136.903261,35.134305],[136.903243,35.134495],[136.903229,35.134623],[136.903213,35.134759],[136.903204,35.134845],[136.903191,35.134961],[136.903152,35.135309],[136.903108,35.135567],[136.903051,35.135709],[136.902999,35.135841],[136.902958,35.135993],[136.902881,35.136276],[136.902773,35.136773],[136.902674,35.137219],[136.903291,35.137413],[136.903643,35.137528],[136.903725,35.137503],[136.903748,35.137584],[136.903777,35.137571],[136.904386,35.137776],[136.904442,35.137667]]]}},{"type":"Feature","properties":{"name":"田中町","city":"名古屋市熱田区","code":"109","setai":56,"jinko":125,"n":1,"towns":["231090500"],"lx":136.903884,"ly":35.12284},"geometry":{"type":"Polygon","coordinates":[[[136.904711,35.123144],[136.904991,35.123024],[136.905461,35.122824],[136.905563,35.122781],[136.9054,35.122703],[136.905343,35.122676],[136.904962,35.1225],[136.904927,35.122483],[136.904766,35.122696],[136.904742,35.122683],[136.904701,35.122742],[136.904635,35.122836],[136.904661,35.122849],[136.904843,35.122947],[136.904476,35.123098],[136.904422,35.123028],[136.904264,35.123097],[136.904131,35.122878],[136.904125,35.122866],[136.904011,35.122822],[136.903975,35.122808],[136.904037,35.122714],[136.904047,35.122698],[136.903923,35.122667],[136.903936,35.122632],[136.903907,35.12262],[136.903888,35.122612],[136.903688,35.122535],[136.90364,35.122604],[136.903553,35.122564],[136.903531,35.122586],[136.903334,35.122499],[136.903309,35.122573],[136.903126,35.122508],[136.903112,35.12253],[136.902942,35.122474],[136.902943,35.122389],[136.902894,35.122225],[136.902676,35.122162],[136.902576,35.122668],[136.90311,35.122806],[136.903,35.123029],[136.903182,35.123107],[136.903301,35.123174],[136.90336,35.123133],[136.90346,35.123064],[136.903562,35.122993],[136.903595,35.12302],[136.903584,35.123029],[136.903574,35.123036],[136.903575,35.123036],[136.903663,35.123118],[136.904018,35.12343],[136.904038,35.123422],[136.904711,35.123144]]]}},{"type":"Feature","properties":{"name":"玉の井町","city":"名古屋市熱田区","code":"109","setai":347,"jinko":684,"n":1,"towns":["231090510"],"lx":136.906353,"ly":35.130978},"geometry":{"type":"Polygon","coordinates":[[[136.906337,35.132245],[136.906727,35.131909],[136.906774,35.131842],[136.906865,35.131716],[136.907048,35.131471],[136.907068,35.131436],[136.907293,35.131143],[136.907399,35.131082],[136.907776,35.130956],[136.908042,35.1309],[136.908481,35.130898],[136.908742,35.130912],[136.908797,35.13076],[136.908861,35.13058],[136.908866,35.130568],[136.908869,35.130561],[136.908904,35.13046],[136.909021,35.130117],[136.909059,35.130013],[136.908949,35.129958],[136.908677,35.129782],[136.908425,35.129854],[136.908261,35.129918],[136.907767,35.130054],[136.907549,35.130142],[136.907287,35.130246],[136.907131,35.130288],[136.906826,35.130284],[136.906584,35.130284],[136.906269,35.130269],[136.906238,35.130263],[136.906052,35.130231],[136.906008,35.130223],[136.905557,35.130121],[136.905555,35.130121],[136.905145,35.130067],[136.904954,35.130332],[136.90474,35.130637],[136.904575,35.130856],[136.904556,35.130886],[136.904259,35.131281],[136.904254,35.131288],[136.904113,35.131486],[136.903939,35.131726],[136.904129,35.131798],[136.905078,35.132025],[136.905494,35.13212],[136.905556,35.131993],[136.906337,35.132245]]]}},{"type":"Feature","properties":{"name":"千年","city":"名古屋市熱田区","code":"109","setai":1006,"jinko":2300,"n":2,"towns":["23109052091","23109052092"],"lx":136.900062,"ly":35.117068},"geometry":{"type":"Polygon","coordinates":[[[136.895651,35.11378],[136.895974,35.113665],[136.895917,35.113532],[136.896102,35.11347],[136.896868,35.113183],[136.896979,35.113143],[136.897206,35.113062],[136.897235,35.113052],[136.898305,35.112659],[136.899516,35.112212],[136.900094,35.112008],[136.900121,35.111999],[136.900413,35.111897],[136.900542,35.111852],[136.900641,35.11203],[136.900468,35.112089],[136.900482,35.11224],[136.900585,35.112445],[136.900637,35.112482],[136.900792,35.112434],[136.900843,35.112548],[136.900765,35.112598],[136.90078,35.112696],[136.900864,35.112824],[136.9009,35.112813],[136.901009,35.113019],[136.901089,35.113121],[136.901148,35.11319],[136.901201,35.113314],[136.901347,35.113536],[136.901437,35.113734],[136.901428,35.113793],[136.901526,35.113983],[136.901544,35.113974],[136.901648,35.114137],[136.901746,35.114101],[136.90207,35.114656],[136.902022,35.114675],[136.902165,35.114888],[136.90217,35.114916],[136.902146,35.114982],[136.902222,35.11505],[136.902258,35.115031],[136.902314,35.115101],[136.902275,35.115167],[136.902355,35.115291],[136.902389,35.115281],[136.902396,35.115279],[136.902484,35.115413],[136.902502,35.115484],[136.902552,35.115571],[136.902472,35.115612],[136.902744,35.115998],[136.902834,35.116165],[136.902869,35.116281],[136.90293,35.116386],[136.903002,35.11651],[136.903301,35.116986],[136.903363,35.117097],[136.903424,35.117571],[136.903435,35.117741],[136.903527,35.117807],[136.903577,35.117962],[136.903671,35.11796],[136.903618,35.117999],[136.903614,35.118172],[136.903516,35.118356],[136.903537,35.118412],[136.903465,35.11856],[136.903284,35.118659],[136.902712,35.119593],[136.902032,35.120725],[136.90206,35.121294],[136.902062,35.12162],[136.902046,35.122084],[136.90203,35.122393],[136.902011,35.122573],[136.901924,35.122969],[136.901781,35.123267],[136.901598,35.123583],[136.901621,35.123615],[136.901577,35.123821],[136.901518,35.124],[136.901083,35.123992],[136.900975,35.12374],[136.900919,35.123755],[136.900254,35.122444],[136.900075,35.122077],[136.899951,35.121837],[136.899463,35.120883],[136.899342,35.120647],[136.899115,35.120188],[136.89887,35.1197],[136.898487,35.118945],[136.898319,35.118623],[136.897897,35.117818],[136.897816,35.117672],[136.897642,35.117362],[136.897503,35.117113],[136.897497,35.117103],[136.897393,35.116913],[136.897252,35.116656],[136.897035,35.116258],[136.897015,35.116221],[136.896906,35.116022],[136.896676,35.115603],[136.896572,35.115393],[136.896517,35.115294],[136.896363,35.115015],[136.896015,35.114369],[136.895798,35.113968],[136.895651,35.11378]]]}},{"type":"Feature","properties":{"name":"千代田町","city":"名古屋市熱田区","code":"109","setai":449,"jinko":881,"n":1,"towns":["231090540"],"lx":136.89129,"ly":35.136201},"geometry":{"type":"Polygon","coordinates":[[[136.8933,35.135601],[136.893335,35.134201],[136.893337,35.134135],[136.893336,35.13405],[136.893186,35.134141],[136.893066,35.134214],[136.893075,35.13412],[136.893104,35.134098],[136.893063,35.134059],[136.893035,35.134072],[136.893029,35.134075],[136.892907,35.134136],[136.892504,35.134403],[136.89194,35.134778],[136.891335,35.135154],[136.890963,35.135379],[136.890761,35.135506],[136.890233,35.135824],[136.890043,35.135945],[136.889216,35.13647],[136.889103,35.136542],[136.888976,35.136642],[136.888779,35.136754],[136.888843,35.137078],[136.888849,35.13713],[136.888881,35.137386],[136.888922,35.137698],[136.888971,35.138061],[136.889493,35.137976],[136.889626,35.13794],[136.889642,35.137935],[136.889688,35.137921],[136.890081,35.137748],[136.890127,35.137724],[136.890271,35.137648],[136.89121,35.137148],[136.892239,35.136869],[136.892324,35.136846],[136.893276,35.136579],[136.893286,35.136141],[136.8933,35.135601]]]}},{"type":"Feature","properties":{"name":"伝馬","city":"名古屋市熱田区","code":"109","setai":1654,"jinko":3005,"n":3,"towns":["23109055091","23109055092","23109055093"],"lx":136.91,"ly":35.118846},"geometry":{"type":"Polygon","coordinates":[[[136.907285,35.122066],[136.907295,35.121927],[136.907335,35.121408],[136.907379,35.120842],[136.907382,35.120726],[136.907388,35.120166],[136.907389,35.120106],[136.907399,35.119747],[136.907413,35.119553],[136.90742,35.119312],[136.907422,35.119277],[136.907445,35.118736],[136.907463,35.118438],[136.907443,35.118252],[136.907426,35.118184],[136.907366,35.117805],[136.907339,35.117673],[136.907853,35.117397],[136.908278,35.117157],[136.908532,35.117028],[136.908874,35.116885],[136.909357,35.11676],[136.909644,35.116716],[136.909959,35.11668],[136.910344,35.116631],[136.910818,35.116585],[136.911475,35.116511],[136.911799,35.11649],[136.91193,35.116497],[136.912184,35.116559],[136.912437,35.116678],[136.912644,35.116829],[136.913156,35.117339],[136.913359,35.117555],[136.91376,35.117965],[136.913625,35.118059],[136.91329,35.118328],[136.913092,35.118557],[136.912776,35.11891],[136.912412,35.11932],[136.912365,35.119375],[136.912286,35.11946],[136.912274,35.119473],[136.912037,35.119737],[136.91181,35.120005],[136.911657,35.120153],[136.911487,35.120264],[136.91118,35.120397],[136.910981,35.120485],[136.910436,35.120727],[136.910451,35.120753],[136.91042,35.120767],[136.909995,35.120949],[136.909661,35.121088],[136.909515,35.121148],[136.9092,35.121278],[136.908883,35.121408],[136.908538,35.121552],[136.908194,35.121696],[136.908177,35.121703],[136.90757,35.12195],[136.907285,35.122066]]]}},{"type":"Feature","properties":{"name":"中瀬町","city":"名古屋市熱田区","code":"109","setai":0,"jinko":0,"n":1,"towns":["231090580"],"lx":136.906377,"ly":35.12231},"geometry":{"type":"Polygon","coordinates":[[[136.906397,35.122434],[136.90726,35.122076],[136.907285,35.122066],[136.907295,35.121927],[136.906745,35.122142],[136.906448,35.122007],[136.906394,35.122083],[136.906262,35.122034],[136.906216,35.122092],[136.906198,35.122123],[136.90609,35.122212],[136.906188,35.12238],[136.905949,35.122474],[136.9054,35.122703],[136.905563,35.122781],[136.906377,35.122442],[136.906397,35.122434]]]}},{"type":"Feature","properties":{"name":"中田町","city":"名古屋市熱田区","code":"109","setai":151,"jinko":300,"n":1,"towns":["231090590"],"lx":136.907523,"ly":35.135486},"geometry":{"type":"Polygon","coordinates":[[[136.907346,35.137219],[136.907535,35.136864],[136.907827,35.136963],[136.907928,35.136774],[136.908332,35.135928],[136.90848,35.135566],[136.908692,35.135062],[136.908959,35.134397],[136.908588,35.134387],[136.907969,35.134371],[136.907417,35.134351],[136.906729,35.134334],[136.906721,35.134343],[136.906586,35.134487],[136.906608,35.134484],[136.906293,35.134851],[136.906341,35.13502],[136.906492,35.135543],[136.906691,35.136046],[136.906825,35.136432],[136.906829,35.136445],[136.906913,35.136845],[136.906948,35.137048],[136.907346,35.137219]]]}},{"type":"Feature","properties":{"name":"中出町","city":"名古屋市熱田区","code":"109","setai":561,"jinko":1096,"n":2,"towns":["23109060001","23109060002"],"lx":136.890245,"ly":35.132144},"geometry":{"type":"Polygon","coordinates":[[[136.888111,35.131417],[136.888598,35.131449],[136.8894,35.131495],[136.889436,35.131497],[136.890529,35.131557],[136.890818,35.131576],[136.891035,35.13159],[136.891053,35.131591],[136.891393,35.131467],[136.891587,35.131396],[136.891698,35.131356],[136.891715,35.131349],[136.891931,35.13127],[136.892319,35.131991],[136.892351,35.13205],[136.892397,35.132136],[136.892381,35.132141],[136.892246,35.132191],[136.892196,35.13221],[136.892216,35.13225],[136.892301,35.132418],[136.892515,35.132357],[136.892572,35.132463],[136.89256,35.132468],[136.892423,35.13252],[136.892457,35.132582],[136.89259,35.132532],[136.892582,35.132515],[136.892597,35.13251],[136.892652,35.132612],[136.892503,35.132667],[136.892453,35.132685],[136.892208,35.13278],[136.892139,35.132665],[136.891458,35.132661],[136.891332,35.132672],[136.891291,35.13295],[136.89101,35.132918],[136.889553,35.132757],[136.88866,35.132662],[136.888598,35.132958],[136.888298,35.132953],[136.888296,35.132934],[136.888283,35.132822],[136.888261,35.13262],[136.888211,35.132164],[136.888183,35.131954],[136.888182,35.131941],[136.88816,35.131775],[136.888111,35.131417]]]}},{"type":"Feature","properties":{"name":"波寄町","city":"名古屋市熱田区","code":"109","setai":804,"jinko":1270,"n":1,"towns":["231090610"],"lx":136.904975,"ly":35.141894},"geometry":{"type":"Polygon","coordinates":[[[136.90645,35.143782],[136.906464,35.143663],[136.90642,35.143654],[136.90635,35.143431],[136.906293,35.143425],[136.906285,35.143149],[136.906176,35.143154],[136.90615,35.142664],[136.906148,35.142638],[136.906148,35.142636],[136.906134,35.142412],[136.90626,35.142409],[136.906244,35.142122],[136.906085,35.142119],[136.906078,35.141886],[136.90601,35.141889],[136.906001,35.141774],[136.906044,35.141743],[136.906038,35.141615],[136.906038,35.141615],[136.906036,35.141573],[136.906241,35.141567],[136.906241,35.141567],[136.906229,35.14137],[136.906131,35.141373],[136.90613,35.141303],[136.90613,35.141283],[136.906212,35.141045],[136.906236,35.141045],[136.906325,35.140812],[136.906368,35.140823],[136.906377,35.140825],[136.906378,35.14082],[136.90645,35.140621],[136.906468,35.14057],[136.90648,35.140535],[136.906381,35.14054],[136.906495,35.140264],[136.906591,35.139973],[136.906341,35.139975],[136.906317,35.139977],[136.905901,35.139991],[136.905631,35.139999],[136.905568,35.140003],[136.905443,35.140012],[136.905366,35.140014],[136.90511,35.14026],[136.904793,35.140551],[136.9047,35.140664],[136.90445,35.140965],[136.904305,35.141113],[136.904171,35.141248],[136.903929,35.141429],[136.903296,35.141876],[136.902838,35.142169],[136.902801,35.142192],[136.902454,35.142403],[136.902483,35.142642],[136.902515,35.142789],[136.902778,35.142751],[136.903216,35.14278],[136.903437,35.142807],[136.903731,35.142843],[136.903955,35.142877],[136.903977,35.142882],[136.904108,35.142912],[136.904324,35.142962],[136.904404,35.142981],[136.904831,35.143125],[136.905018,35.143203],[136.905181,35.143282],[136.905518,35.143455],[136.905779,35.143626],[136.905988,35.143778],[136.905991,35.143754],[136.906145,35.143791],[136.906152,35.143793],[136.906253,35.143819],[136.906298,35.143788],[136.90645,35.143782]]]}},{"type":"Feature","properties":{"name":"西野町","city":"名古屋市熱田区","code":"109","setai":474,"jinko":933,"n":3,"towns":["23109062001","23109062002","23109062003"],"lx":136.88905,"ly":35.128314},"geometry":{"type":"Polygon","coordinates":[[[136.887436,35.126287],[136.887441,35.126283],[136.887636,35.126322],[136.888237,35.126414],[136.888691,35.126483],[136.889071,35.126548],[136.889067,35.12654],[136.889465,35.1266],[136.889566,35.126613],[136.889397,35.126681],[136.889357,35.126697],[136.889368,35.126716],[136.889414,35.126794],[136.88966,35.127207],[136.889652,35.12721],[136.889612,35.127222],[136.889665,35.127318],[136.889801,35.12727],[136.889896,35.127443],[136.889817,35.127472],[136.889818,35.127473],[136.889827,35.127487],[136.890015,35.127816],[136.890015,35.127818],[136.890048,35.127804],[136.890102,35.127895],[136.890033,35.127919],[136.890084,35.128],[136.889942,35.128051],[136.889979,35.128121],[136.890065,35.128274],[136.890072,35.128287],[136.890216,35.12823],[136.890301,35.128367],[136.890376,35.128504],[136.890461,35.128655],[136.890459,35.128656],[136.890468,35.128671],[136.890283,35.128735],[136.890364,35.128885],[136.890548,35.128815],[136.890698,35.129082],[136.891111,35.129821],[136.891152,35.129807],[136.891185,35.129797],[136.891302,35.130021],[136.891274,35.13003],[136.891044,35.130126],[136.89103,35.1301],[136.891,35.130111],[136.890681,35.130099],[136.890587,35.130096],[136.890599,35.129942],[136.890602,35.1299],[136.890291,35.129894],[136.890292,35.129993],[136.890264,35.129996],[136.890261,35.130117],[136.889903,35.130102],[136.889246,35.130095],[136.889215,35.129853],[136.889158,35.129463],[136.889155,35.129441],[136.889129,35.129261],[136.888887,35.129256],[136.888483,35.129241],[136.888476,35.129432],[136.888472,35.129635],[136.888219,35.129631],[136.888161,35.129645],[136.888172,35.129839],[136.887931,35.129834],[136.887869,35.129433],[136.887818,35.12907],[136.887787,35.128874],[136.887752,35.128641],[136.887726,35.128477],[136.887693,35.12826],[136.887668,35.128057],[136.88765,35.127904],[136.887602,35.127524],[136.887598,35.127488],[136.887551,35.127118],[136.88752,35.126864],[136.887502,35.12672],[136.887436,35.126287]]]}},{"type":"Feature","properties":{"name":"二番","city":"名古屋市熱田区","code":"109","setai":1541,"jinko":3021,"n":2,"towns":["23109063091","23109063092"],"lx":136.893545,"ly":35.122753},"geometry":{"type":"Polygon","coordinates":[[[136.892017,35.122498],[136.892634,35.122503],[136.892634,35.122235],[136.892631,35.121609],[136.892634,35.121271],[136.89225,35.12126],[136.892246,35.1209],[136.892252,35.120647],[136.892247,35.120573],[136.892253,35.120217],[136.892253,35.119944],[136.892254,35.11966],[136.892258,35.119444],[136.892259,35.119383],[136.892254,35.119099],[136.89225,35.118557],[136.892271,35.118557],[136.893236,35.118559],[136.8936,35.118559],[136.894706,35.118561],[136.894701,35.119562],[136.894707,35.120202],[136.894707,35.120211],[136.894704,35.120624],[136.894704,35.120839],[136.894706,35.120951],[136.894711,35.121262],[136.894712,35.121264],[136.89476,35.121602],[136.894795,35.12185],[136.89482,35.122021],[136.894865,35.122342],[136.894891,35.122498],[136.89494,35.122797],[136.894944,35.122823],[136.894992,35.123129],[136.895039,35.123425],[136.895041,35.123439],[136.895112,35.123907],[136.895121,35.123958],[136.895205,35.124472],[136.895208,35.124489],[136.895272,35.124858],[136.895331,35.125197],[136.895407,35.125633],[136.895127,35.125607],[136.894425,35.12554],[136.893896,35.12549],[136.89391,35.125889],[136.893948,35.126618],[136.893964,35.126941],[136.893971,35.127062],[136.893972,35.127105],[136.893972,35.127106],[136.893973,35.12728],[136.89319,35.127156],[136.892318,35.127021],[136.892309,35.126858],[136.89231,35.126707],[136.892313,35.126628],[136.892298,35.12637],[136.892299,35.126208],[136.892292,35.12605],[136.892288,35.12581],[136.892278,35.12534],[136.892261,35.125066],[136.892234,35.124778],[136.89221,35.124422],[136.892182,35.12392],[136.892103,35.123402],[136.892084,35.123073],[136.892053,35.122938],[136.892017,35.122498]]]}},{"type":"Feature","properties":{"name":"野立町下川田等","city":"名古屋市熱田区","code":"109","setai":7,"jinko":16,"n":1,"towns":["23109065000"],"lx":136.88506,"ly":35.130734},"geometry":{"type":"Polygon","coordinates":[[[136.884858,35.129108],[136.884843,35.129025],[136.8847,35.129036],[136.884716,35.129127],[136.884722,35.129286],[136.884884,35.130152],[136.884891,35.130195],[136.884894,35.130212],[136.884905,35.130274],[136.885094,35.13137],[136.885159,35.131795],[136.885193,35.132017],[136.88526,35.132329],[136.885524,35.132355],[136.885403,35.132059],[136.885284,35.131697],[136.885152,35.130977],[136.885067,35.130519],[136.885018,35.13022],[136.885051,35.130215],[136.88506,35.130213],[136.885042,35.130137],[136.884858,35.129108]]]}},{"type":"Feature","properties":{"name":"野立町","city":"名古屋市熱田区","code":"109","setai":514,"jinko":984,"n":3,"towns":["23109065001","23109065002","23109065003"],"lx":136.886616,"ly":35.131805},"geometry":{"type":"Polygon","coordinates":[[[136.885018,35.13022],[136.885051,35.130215],[136.88506,35.130213],[136.885349,35.130198],[136.885756,35.130171],[136.885809,35.130174],[136.886163,35.130191],[136.886516,35.130198],[136.886552,35.130199],[136.886609,35.130253],[136.886719,35.130323],[136.886726,35.130581],[136.887209,35.13059],[136.887207,35.130474],[136.887371,35.130477],[136.887378,35.13039],[136.887266,35.130382],[136.887265,35.130217],[136.88746,35.130221],[136.887462,35.130244],[136.887976,35.130255],[136.888016,35.130604],[136.888022,35.13066],[136.88802,35.13066],[136.888065,35.131027],[136.888105,35.131377],[136.888111,35.131417],[136.88816,35.131775],[136.888182,35.131941],[136.888183,35.131954],[136.888211,35.132164],[136.888261,35.13262],[136.888283,35.132822],[136.888296,35.132934],[136.887952,35.132956],[136.887906,35.132959],[136.887877,35.133078],[136.887392,35.133028],[136.886985,35.132986],[136.886875,35.132974],[136.886839,35.133191],[136.886796,35.133189],[136.886717,35.133179],[136.886716,35.133185],[136.886708,35.133278],[136.886682,35.133359],[136.886524,35.133358],[136.886477,35.133353],[136.886452,35.133581],[136.886427,35.13381],[136.886117,35.133791],[136.885566,35.133758],[136.885542,35.133482],[136.88544,35.133254],[136.885403,35.133055],[136.885397,35.133025],[136.885358,35.132815],[136.885334,35.132698],[136.88526,35.132329],[136.885524,35.132355],[136.885403,35.132059],[136.885284,35.131697],[136.885152,35.130977],[136.885067,35.130519],[136.885018,35.13022]]]}},{"type":"Feature","properties":{"name":"幡野町","city":"名古屋市熱田区","code":"109","setai":404,"jinko":1000,"n":1,"towns":["231090660"],"lx":136.888001,"ly":35.138926},"geometry":{"type":"Polygon","coordinates":[[[136.889365,35.140316],[136.889259,35.139937],[136.889199,35.13971],[136.889159,35.139534],[136.889129,35.139317],[136.889089,35.138998],[136.889052,35.138703],[136.888999,35.138269],[136.888977,35.138104],[136.888971,35.138061],[136.888922,35.137698],[136.888881,35.137386],[136.888849,35.13713],[136.888843,35.137078],[136.888779,35.136754],[136.888582,35.136861],[136.888149,35.137121],[136.888081,35.137164],[136.88778,35.137363],[136.887689,35.137431],[136.887381,35.137683],[136.887344,35.137716],[136.887256,35.137796],[136.887168,35.137898],[136.886995,35.138126],[136.886949,35.138241],[136.886939,35.138282],[136.88685,35.138515],[136.886738,35.138682],[136.886701,35.138766],[136.88671,35.138907],[136.886798,35.139153],[136.886769,35.139388],[136.886773,35.139527],[136.886774,35.139556],[136.88655,35.139617],[136.886627,35.140027],[136.88663,35.140047],[136.886664,35.140216],[136.886737,35.140281],[136.886749,35.140344],[136.886826,35.140375],[136.887056,35.140465],[136.887151,35.140433],[136.887296,35.140397],[136.887504,35.140374],[136.887618,35.140355],[136.887727,35.140309],[136.887888,35.140297],[136.887957,35.14029],[136.887962,35.14029],[136.887956,35.140264],[136.88808,35.140242],[136.888096,35.140281],[136.888176,35.140275],[136.888364,35.14026],[136.888399,35.140193],[136.888496,35.14021],[136.888479,35.140262],[136.888478,35.140264],[136.888525,35.140266],[136.888536,35.140271],[136.888553,35.140279],[136.888555,35.14028],[136.888578,35.140461],[136.888581,35.140471],[136.888862,35.140446],[136.888907,35.140442],[136.889321,35.140403],[136.889386,35.140396],[136.889365,35.140316]]]}},{"type":"Feature","properties":{"name":"旗屋町","city":"名古屋市熱田区","code":"109","setai":101,"jinko":215,"n":1,"towns":["231090670"],"lx":136.906108,"ly":35.12892},"geometry":{"type":"Polygon","coordinates":[[[136.906077,35.130114],[136.906089,35.130072],[136.906134,35.130075],[136.906206,35.129554],[136.906508,35.129603],[136.906643,35.129234],[136.906722,35.129146],[136.906803,35.129075],[136.906592,35.128885],[136.906616,35.128873],[136.906673,35.128846],[136.906573,35.128812],[136.906563,35.128808],[136.906564,35.128784],[136.906443,35.12874],[136.90652,35.128644],[136.906641,35.128699],[136.906737,35.128583],[136.9068,35.12864],[136.90696,35.128521],[136.907073,35.128436],[136.906729,35.128137],[136.90659,35.128025],[136.906065,35.127597],[136.90595,35.127491],[136.90588,35.127558],[136.90576,35.127644],[136.90571,35.12768],[136.905659,35.12766],[136.905646,35.127763],[136.905643,35.127793],[136.90563,35.127896],[136.905625,35.127931],[136.905536,35.128061],[136.905644,35.128127],[136.905631,35.128147],[136.90627,35.128476],[136.906239,35.128519],[136.905976,35.128883],[136.905858,35.129043],[136.905581,35.129416],[136.905105,35.130063],[136.905145,35.130067],[136.905555,35.130121],[136.905557,35.130121],[136.906008,35.130223],[136.906052,35.130231],[136.906077,35.130114]]]}},{"type":"Feature","properties":{"name":"旗屋","city":"名古屋市熱田区","code":"109","setai":1041,"jinko":2101,"n":2,"towns":["23109068091","23109068092"],"lx":136.902682,"ly":35.130714},"geometry":{"type":"Polygon","coordinates":[[[136.899398,35.134159],[136.899526,35.133727],[136.899697,35.133237],[136.899864,35.1328],[136.899997,35.132486],[136.900411,35.131603],[136.900467,35.131597],[136.900451,35.131535],[136.901053,35.130116],[136.901407,35.129273],[136.90146,35.129276],[136.901501,35.129174],[136.901461,35.129153],[136.901776,35.128509],[136.901872,35.128309],[136.902284,35.127481],[136.902417,35.127492],[136.902669,35.12759],[136.90273,35.127634],[136.902763,35.127621],[136.902901,35.127706],[136.902949,35.127771],[136.903175,35.127836],[136.903222,35.127877],[136.903529,35.12792],[136.903845,35.127979],[136.903922,35.127636],[136.903957,35.1275],[136.904117,35.127262],[136.904192,35.127149],[136.904308,35.126974],[136.905211,35.127136],[136.905148,35.127292],[136.905035,35.127577],[136.90501,35.127741],[136.905181,35.127845],[136.905536,35.128061],[136.905644,35.128127],[136.905631,35.128147],[136.90627,35.128476],[136.906239,35.128519],[136.905976,35.128883],[136.905858,35.129043],[136.905581,35.129416],[136.905105,35.130063],[136.905145,35.130067],[136.904954,35.130332],[136.90474,35.130637],[136.904575,35.130856],[136.904556,35.130886],[136.904259,35.131281],[136.904254,35.131288],[136.904113,35.131486],[136.903939,35.131726],[136.903314,35.132571],[136.903048,35.132941],[136.90261,35.133526],[136.902579,35.133574],[136.902253,35.134013],[136.901965,35.134392],[136.90179,35.134378],[136.901175,35.134328],[136.901073,35.134304],[136.900503,35.134247],[136.900339,35.134257],[136.899667,35.134196],[136.899646,35.134179],[136.899398,35.134159]]]}},{"type":"Feature","properties":{"name":"八番","city":"名古屋市熱田区","code":"109","setai":1008,"jinko":2089,"n":2,"towns":["23109070091","23109070092"],"lx":136.884622,"ly":35.122154},"geometry":{"type":"Polygon","coordinates":[[[136.882836,35.118538],[136.883259,35.118538],[136.88363,35.118539],[136.883985,35.118539],[136.884245,35.118536],[136.884736,35.118531],[136.884734,35.118568],[136.884735,35.118885],[136.884737,35.119443],[136.885825,35.119436],[136.885826,35.119842],[136.885825,35.120229],[136.885827,35.120592],[136.885828,35.120899],[136.885824,35.121281],[136.885823,35.121677],[136.88582,35.122008],[136.885822,35.1224],[136.885899,35.12282],[136.88597,35.123244],[136.885998,35.123788],[136.885954,35.124469],[136.885962,35.124928],[136.885973,35.125266],[136.885977,35.125553],[136.885982,35.125598],[136.885988,35.125992],[136.885937,35.125991],[136.885293,35.125989],[136.88529,35.125984],[136.885219,35.125984],[136.885091,35.125985],[136.884929,35.125985],[136.884857,35.125983],[136.884107,35.125956],[136.884074,35.125727],[136.884066,35.125684],[136.884093,35.125648],[136.88404,35.125415],[136.884006,35.125188],[136.883951,35.124838],[136.883906,35.124589],[136.883886,35.124481],[136.883857,35.124324],[136.883765,35.123831],[136.883732,35.123812],[136.88365,35.123307],[136.883607,35.123047],[136.883569,35.122822],[136.883553,35.122721],[136.883488,35.122349],[136.883427,35.121966],[136.883381,35.121661],[136.883314,35.121267],[136.883245,35.120893],[136.883217,35.120727],[136.883139,35.12023],[136.883065,35.119841],[136.882995,35.119445],[136.882892,35.118869],[136.882841,35.118552],[136.882842,35.11855],[136.88284,35.118547],[136.882836,35.118538]]]}},{"type":"Feature","properties":{"name":"花町","city":"名古屋市熱田区","code":"109","setai":397,"jinko":693,"n":1,"towns":["231090720"],"lx":136.901396,"ly":35.138643},"geometry":{"type":"Polygon","coordinates":[[[136.902581,35.137614],[136.902674,35.137219],[136.90242,35.137151],[136.902241,35.137107],[136.902206,35.137213],[136.901672,35.137274],[136.901693,35.137375],[136.900857,35.137588],[136.900734,35.13755],[136.900643,35.137744],[136.900517,35.138014],[136.900463,35.13858],[136.900445,35.138808],[136.900421,35.139089],[136.900438,35.139384],[136.900523,35.140163],[136.900861,35.140148],[136.900909,35.140146],[136.901094,35.140139],[136.901884,35.140109],[136.901876,35.139645],[136.901872,35.139518],[136.901972,35.13921],[136.902121,35.138771],[136.90221,35.13855],[136.90227,35.138407],[136.90241,35.138075],[136.90255,35.137714],[136.902581,35.137614]]]}},{"type":"Feature","properties":{"name":"花表町","city":"名古屋市熱田区","code":"109","setai":608,"jinko":1263,"n":1,"towns":["231090730"],"lx":136.915381,"ly":35.124251},"geometry":{"type":"Polygon","coordinates":[[[136.914902,35.119817],[136.914672,35.119717],[136.914639,35.119789],[136.914593,35.119889],[136.914457,35.120184],[136.914316,35.120509],[136.913845,35.121431],[136.913675,35.121822],[136.91327,35.122767],[136.913349,35.122807],[136.913568,35.122963],[136.913647,35.123327],[136.913678,35.123588],[136.913603,35.124365],[136.913775,35.124575],[136.914047,35.124931],[136.914392,35.12536],[136.914645,35.12566],[136.914874,35.125919],[136.91496,35.126046],[136.915156,35.126308],[136.91528,35.126316],[136.915472,35.126754],[136.915574,35.127002],[136.915767,35.127548],[136.915938,35.127992],[136.915949,35.12809],[136.916248,35.128541],[136.916313,35.128601],[136.916383,35.128606],[136.916966,35.128577],[136.917028,35.128573],[136.917183,35.128567],[136.917186,35.128543],[136.917215,35.128192],[136.917259,35.127781],[136.917304,35.127236],[136.917312,35.126993],[136.917251,35.126526],[136.917194,35.126232],[136.916852,35.125141],[136.916429,35.123867],[136.916402,35.123797],[136.916156,35.123021],[136.915867,35.12214],[136.915686,35.121599],[136.915552,35.121174],[136.915433,35.120795],[136.915295,35.120327],[136.915238,35.120162],[136.915172,35.120053],[136.91503,35.1199],[136.914902,35.119817]]]}},{"type":"Feature","properties":{"name":"比々野町","city":"名古屋市熱田区","code":"109","setai":442,"jinko":964,"n":1,"towns":["231090740"],"lx":136.891846,"ly":35.133803},"geometry":{"type":"Polygon","coordinates":[[[136.892818,35.133773],[136.892826,35.133577],[136.892818,35.133578],[136.89282,35.133464],[136.892902,35.133466],[136.892901,35.133458],[136.892905,35.133379],[136.892908,35.133373],[136.892973,35.133375],[136.892972,35.133137],[136.892972,35.133117],[136.892772,35.133101],[136.89276,35.133089],[136.892785,35.13289],[136.892652,35.132934],[136.892558,35.132757],[136.892554,35.132759],[136.892503,35.132667],[136.892453,35.132685],[136.892208,35.13278],[136.892139,35.132665],[136.891458,35.132661],[136.891332,35.132672],[136.891291,35.13295],[136.89101,35.132918],[136.891002,35.133409],[136.890999,35.133683],[136.890992,35.133977],[136.890986,35.134353],[136.890975,35.134754],[136.890968,35.135147],[136.890963,35.135379],[136.891335,35.135154],[136.89194,35.134778],[136.892504,35.134403],[136.892907,35.134136],[136.893029,35.134075],[136.892989,35.134024],[136.892961,35.133998],[136.892968,35.133777],[136.892918,35.133775],[136.892818,35.133773]]]}},{"type":"Feature","properties":{"name":"南一番町","city":"名古屋市熱田区","code":"109","setai":572,"jinko":1161,"n":1,"towns":["231090750"],"lx":136.89624,"ly":35.117602},"geometry":{"type":"Polygon","coordinates":[[[136.896605,35.120195],[136.897211,35.120192],[136.897744,35.120194],[136.898074,35.120193],[136.898557,35.12019],[136.899115,35.120188],[136.89887,35.1197],[136.898487,35.118945],[136.898319,35.118623],[136.897897,35.117818],[136.897816,35.117672],[136.897642,35.117362],[136.897503,35.117113],[136.897497,35.117103],[136.897393,35.116913],[136.897252,35.116656],[136.897035,35.116258],[136.897015,35.116221],[136.896906,35.116022],[136.896676,35.115603],[136.896572,35.115393],[136.896517,35.115294],[136.896363,35.115015],[136.896015,35.114369],[136.895798,35.113968],[136.895651,35.11378],[136.895587,35.113698],[136.895336,35.113378],[136.895316,35.113351],[136.895211,35.113343],[136.89502,35.113328],[136.894853,35.113323],[136.894739,35.113319],[136.894736,35.113714],[136.894738,35.114136],[136.894735,35.114176],[136.894738,35.114511],[136.894737,35.114738],[136.894737,35.114759],[136.894737,35.115103],[136.894737,35.11513],[136.894734,35.115534],[136.894736,35.115938],[136.894736,35.115965],[136.894736,35.11638],[136.894741,35.116815],[136.894738,35.117277],[136.894739,35.117816],[136.894743,35.118118],[136.89474,35.118204],[136.894732,35.118425],[136.894732,35.118562],[136.894706,35.118561],[136.894701,35.119562],[136.894707,35.120202],[136.895814,35.120198],[136.896605,35.120195]]]}},{"type":"Feature","properties":{"name":"六野","city":"名古屋市熱田区","code":"109","setai":1099,"jinko":2514,"n":2,"towns":["23109077091","23109077092"],"lx":136.912257,"ly":35.134568},"geometry":{"type":"Polygon","coordinates":[[[136.906815,35.138439],[136.907324,35.13778],[136.907362,35.137721],[136.90755,35.137436],[136.907694,35.137229],[136.907827,35.136963],[136.907928,35.136774],[136.908332,35.135928],[136.90848,35.135566],[136.908692,35.135062],[136.908959,35.134397],[136.90918,35.133832],[136.909356,35.133367],[136.909703,35.132618],[136.910123,35.131723],[136.910411,35.131112],[136.910488,35.13095],[136.910493,35.130937],[136.910643,35.130611],[136.910682,35.130527],[136.910852,35.13054],[136.911139,35.130547],[136.911271,35.13055],[136.912698,35.130554],[136.9133,35.13056],[136.91443,35.130572],[136.914832,35.130578],[136.915226,35.130577],[136.915475,35.130574],[136.915672,35.13058],[136.915892,35.130574],[136.915978,35.13057],[136.916032,35.130567],[136.916301,35.130548],[136.916843,35.130491],[136.917011,35.130468],[136.917,35.130604],[136.916907,35.130637],[136.916895,35.13073],[136.916974,35.130747],[136.916956,35.130916],[136.916898,35.131182],[136.916819,35.131456],[136.916701,35.131824],[136.916556,35.132231],[136.916291,35.132942],[136.916083,35.133518],[136.915756,35.134468],[136.915707,35.134595],[136.915414,35.135368],[136.915176,35.135922],[136.914881,35.136631],[136.914581,35.137318],[136.914231,35.138126],[136.914078,35.138081],[136.914003,35.138256],[136.913884,35.13852],[136.912498,35.138508],[136.912439,35.138507],[136.911947,35.138498],[136.911392,35.138487],[136.911284,35.138474],[136.910492,35.138462],[136.910009,35.138457],[136.909633,35.138453],[136.908792,35.138436],[136.908594,35.138452],[136.907977,35.138447],[136.90763,35.138445],[136.907279,35.138444],[136.906997,35.138442],[136.906815,35.138439]]]}},{"type":"Feature","properties":{"name":"森後町","city":"名古屋市熱田区","code":"109","setai":0,"jinko":0,"n":1,"towns":["23109079002"],"lx":136.910275,"ly":35.129846},"geometry":{"type":"Polygon","coordinates":[[[136.910682,35.130527],[136.910407,35.130471],[136.910499,35.130154],[136.910632,35.129789],[136.910816,35.129322],[136.910066,35.129126],[136.90991,35.129488],[136.910052,35.12957],[136.909794,35.130211],[136.909914,35.130251],[136.909835,35.130448],[136.910245,35.130552],[136.910643,35.130611],[136.910682,35.130527]]]}},{"type":"Feature","properties":{"name":"森後町（字・丁目なし）","city":"名古屋市熱田区","code":"109","setai":361,"jinko":603,"n":1,"towns":["23109079090"],"lx":136.908101,"ly":35.129457},"geometry":{"type":"Polygon","coordinates":[[[136.909794,35.130211],[136.910052,35.12957],[136.90991,35.129488],[136.910066,35.129126],[136.909457,35.128967],[136.909572,35.128702],[136.909151,35.128581],[136.909075,35.128721],[136.908403,35.12873],[136.907894,35.128602],[136.907885,35.128621],[136.907652,35.128922],[136.907312,35.128639],[136.907169,35.128521],[136.907073,35.128436],[136.90696,35.128521],[136.9068,35.12864],[136.906737,35.128583],[136.906641,35.128699],[136.90652,35.128644],[136.906443,35.12874],[136.906564,35.128784],[136.906563,35.128808],[136.906573,35.128812],[136.906673,35.128846],[136.906616,35.128873],[136.906592,35.128885],[136.906803,35.129075],[136.906722,35.129146],[136.906643,35.129234],[136.906508,35.129603],[136.906206,35.129554],[136.906134,35.130075],[136.906089,35.130072],[136.906077,35.130114],[136.906052,35.130231],[136.906238,35.130263],[136.906269,35.130269],[136.906584,35.130284],[136.906826,35.130284],[136.907131,35.130288],[136.907287,35.130246],[136.907549,35.130142],[136.907767,35.130054],[136.908261,35.129918],[136.908425,35.129854],[136.908677,35.129782],[136.908949,35.129958],[136.909059,35.130013],[136.909021,35.130117],[136.909282,35.130237],[136.909756,35.130428],[136.909835,35.130448],[136.909914,35.130251],[136.909794,35.130211]]]}},{"type":"Feature","properties":{"name":"横田","city":"名古屋市熱田区","code":"109","setai":793,"jinko":1858,"n":2,"towns":["23109080091","23109080092"],"lx":136.908105,"ly":35.132517},"geometry":{"type":"Polygon","coordinates":[[[136.905682,35.133533],[136.905766,35.133251],[136.905883,35.132893],[136.905967,35.132685],[136.906103,35.132489],[136.906183,35.132376],[136.906282,35.132297],[136.906337,35.132245],[136.906727,35.131909],[136.906774,35.131842],[136.906865,35.131716],[136.907048,35.131471],[136.907068,35.131436],[136.907293,35.131143],[136.907399,35.131082],[136.907776,35.130956],[136.908042,35.1309],[136.908481,35.130898],[136.908742,35.130912],[136.908797,35.13076],[136.908861,35.13058],[136.908866,35.130568],[136.908869,35.130561],[136.908904,35.13046],[136.909021,35.130117],[136.909282,35.130237],[136.909756,35.130428],[136.909835,35.130448],[136.910245,35.130552],[136.910643,35.130611],[136.910493,35.130937],[136.910488,35.13095],[136.910411,35.131112],[136.910123,35.131723],[136.909703,35.132618],[136.909356,35.133367],[136.90918,35.133832],[136.908959,35.134397],[136.908588,35.134387],[136.907969,35.134371],[136.907417,35.134351],[136.906729,35.134334],[136.906721,35.134343],[136.906048,35.134297],[136.905921,35.134288],[136.905682,35.133533]]]}},{"type":"Feature","properties":{"name":"夜寒町","city":"名古屋市熱田区","code":"109","setai":256,"jinko":514,"n":1,"towns":["231090820"],"lx":136.904772,"ly":35.133352},"geometry":{"type":"Polygon","coordinates":[[[136.904787,35.134666],[136.905316,35.134611],[136.90534,35.134612],[136.905669,35.134582],[136.905666,35.13457],[136.90606,35.134526],[136.906201,35.134511],[136.906345,35.134515],[136.906586,35.134487],[136.906721,35.134343],[136.906048,35.134297],[136.905921,35.134288],[136.905682,35.133533],[136.905766,35.133251],[136.905883,35.132893],[136.905967,35.132685],[136.906103,35.132489],[136.906183,35.132376],[136.906282,35.132297],[136.906337,35.132245],[136.905556,35.131993],[136.905494,35.13212],[136.905078,35.132025],[136.904129,35.131798],[136.903962,35.132138],[136.903946,35.132169],[136.90392,35.132246],[136.903788,35.132636],[136.903713,35.132867],[136.903646,35.133051],[136.903574,35.133264],[136.903359,35.133766],[136.90332,35.133903],[136.903261,35.134305],[136.903616,35.134282],[136.903624,35.13447],[136.903636,35.134522],[136.903999,35.134585],[136.904266,35.134642],[136.904332,35.13466],[136.904608,35.134654],[136.904787,35.134666]]]}},{"type":"Feature","properties":{"name":"四番","city":"名古屋市熱田区","code":"109","setai":1187,"jinko":2079,"n":2,"towns":["23109083091","23109083092"],"lx":136.890834,"ly":35.122825},"geometry":{"type":"Polygon","coordinates":[[[136.888275,35.123854],[136.889561,35.123883],[136.889575,35.123323],[136.889578,35.122906],[136.889579,35.122475],[136.88959,35.122078],[136.889591,35.121834],[136.889594,35.12171],[136.889599,35.121266],[136.889601,35.120989],[136.889597,35.120894],[136.889602,35.120576],[136.889601,35.120218],[136.889607,35.119823],[136.889616,35.119433],[136.889632,35.118555],[136.89225,35.118557],[136.892254,35.119099],[136.892259,35.119383],[136.892258,35.119444],[136.892254,35.11966],[136.892253,35.119944],[136.892253,35.120217],[136.892247,35.120573],[136.892252,35.120647],[136.892246,35.1209],[136.89225,35.12126],[136.892634,35.121271],[136.892631,35.121609],[136.892634,35.122235],[136.892634,35.122503],[136.892017,35.122498],[136.892053,35.122938],[136.892084,35.123073],[136.892103,35.123402],[136.892182,35.12392],[136.89221,35.124422],[136.892234,35.124778],[136.892261,35.125066],[136.892278,35.12534],[136.892288,35.12581],[136.892292,35.12605],[136.892299,35.126208],[136.892298,35.12637],[136.892313,35.126628],[136.89231,35.126707],[136.892309,35.126858],[136.892318,35.127021],[136.891684,35.126943],[136.891356,35.126901],[136.890436,35.126768],[136.890422,35.126745],[136.889749,35.126652],[136.889754,35.126661],[136.889513,35.126756],[136.889414,35.126794],[136.889368,35.126716],[136.889357,35.126697],[136.889397,35.126681],[136.889566,35.126613],[136.889738,35.126544],[136.88973,35.12653],[136.889694,35.126459],[136.889692,35.126456],[136.889392,35.125941],[136.888913,35.125046],[136.888906,35.125034],[136.888587,35.12444],[136.888546,35.124363],[136.888275,35.123854]]]}},{"type":"Feature","properties":{"name":"六番","city":"名古屋市熱田区","code":"109","setai":1630,"jinko":3104,"n":3,"towns":["23109085091","23109085092","23109085093"],"lx":136.887601,"ly":35.122146},"geometry":{"type":"Polygon","coordinates":[[[136.884734,35.118568],[136.884736,35.118531],[136.884906,35.118531],[136.884965,35.11853],[136.885118,35.11853],[136.885222,35.118529],[136.885463,35.118528],[136.886047,35.118525],[136.886254,35.118525],[136.886331,35.118521],[136.886335,35.118533],[136.886682,35.118535],[136.887108,35.118538],[136.887821,35.118542],[136.889632,35.118555],[136.889616,35.119433],[136.889607,35.119823],[136.889601,35.120218],[136.889602,35.120576],[136.889597,35.120894],[136.889601,35.120989],[136.889599,35.121266],[136.889594,35.12171],[136.889591,35.121834],[136.88959,35.122078],[136.889579,35.122475],[136.889578,35.122906],[136.889575,35.123323],[136.889561,35.123883],[136.888275,35.123854],[136.888546,35.124363],[136.888587,35.12444],[136.888906,35.125034],[136.888913,35.125046],[136.889392,35.125941],[136.889692,35.126456],[136.889694,35.126459],[136.88973,35.12653],[136.889738,35.126544],[136.889566,35.126613],[136.889465,35.1266],[136.889067,35.12654],[136.889071,35.126548],[136.888691,35.126483],[136.888237,35.126414],[136.887636,35.126322],[136.887441,35.126283],[136.887436,35.126287],[136.887109,35.126217],[136.885993,35.125992],[136.885988,35.125992],[136.885982,35.125598],[136.885977,35.125553],[136.885973,35.125266],[136.885962,35.124928],[136.885954,35.124469],[136.885998,35.123788],[136.88597,35.123244],[136.885899,35.12282],[136.885822,35.1224],[136.88582,35.122008],[136.885823,35.121677],[136.885824,35.121281],[136.885828,35.120899],[136.885827,35.120592],[136.885825,35.120229],[136.885826,35.119842],[136.885825,35.119436],[136.884737,35.119443],[136.884735,35.118885],[136.884734,35.118568]]]}},{"type":"Feature","properties":{"name":"中野新町","city":"名古屋市熱田区","code":"109","setai":1,"jinko":4,"n":1,"towns":["231090860"],"lx":136.884653,"ly":35.128386},"geometry":{"type":"Polygon","coordinates":[[[136.884657,35.127834],[136.884456,35.12783],[136.884517,35.128161],[136.884573,35.12847],[136.884592,35.128574],[136.884623,35.128574],[136.8847,35.129036],[136.884843,35.129025],[136.884761,35.128576],[136.88475,35.12847],[136.884712,35.128177],[136.884657,35.127834]]]}},{"type":"Feature","properties":{"name":"南八熊町","city":"名古屋市熱田区","code":"109","setai":2,"jinko":4,"n":1,"towns":["231090870"],"lx":136.891688,"ly":35.139986},"geometry":{"type":"Polygon","coordinates":[[[136.891698,35.139931],[136.891699,35.139931],[136.891804,35.139908],[136.891834,35.140016],[136.891842,35.140044],[136.89185,35.140043],[136.892028,35.140028],[136.892085,35.140024],[136.892059,35.139941],[136.892032,35.139842],[136.891804,35.139893],[136.891476,35.139966],[136.891429,35.139976],[136.891147,35.140047],[136.891157,35.140111],[136.891476,35.140072],[136.891466,35.139983],[136.891476,35.139977],[136.891478,35.139979],[136.891611,35.13995],[136.891641,35.140049],[136.89173,35.140032],[136.891698,35.139931]]]}}]}