{"type":"FeatureCollection","features":[{"type":"Feature","properties":{"name":"葵","city":"名古屋市中区","code":"106","setai":360,"jinko":416,"n":3,"towns":["23106001091","23106001092","23106001093"],"lx":136.922776,"ly":35.170146},"geometry":{"type":"Polygon","coordinates":[[[136.919249,35.170181],[136.9193,35.169722],[136.920213,35.169781],[136.920218,35.169781],[136.920941,35.169824],[136.920993,35.169828],[136.921439,35.169858],[136.922065,35.169891],[136.922484,35.169912],[136.92282,35.169902],[136.923657,35.169848],[136.924256,35.169806],[136.925047,35.169751],[136.925624,35.169722],[136.926076,35.169662],[136.926054,35.16962],[136.926616,35.1695],[136.927302,35.169353],[136.927366,35.169344],[136.927395,35.169491],[136.927473,35.169718],[136.926917,35.169832],[136.926548,35.169908],[136.926546,35.169908],[136.926192,35.169982],[136.925972,35.17004],[136.925982,35.170084],[136.925995,35.17014],[136.925683,35.1702],[136.925664,35.170139],[136.925648,35.170104],[136.925647,35.170098],[136.925639,35.170098],[136.925457,35.170109],[136.925209,35.170117],[136.925213,35.170478],[136.925071,35.170478],[136.925006,35.170479],[136.924989,35.170479],[136.924986,35.170267],[136.924995,35.170186],[136.92499,35.170187],[136.92499,35.170112],[136.924883,35.170115],[136.924666,35.170122],[136.924353,35.170133],[136.924287,35.170135],[136.924262,35.170135],[136.92404,35.170136],[136.923941,35.170133],[136.923944,35.170233],[136.923946,35.170295],[136.923759,35.170301],[136.923752,35.170173],[136.923744,35.17003],[136.92374,35.169965],[136.923695,35.169973],[136.923594,35.169988],[136.923611,35.170225],[136.92332,35.170231],[136.923285,35.170233],[136.922995,35.170249],[136.922995,35.170298],[136.922994,35.170485],[136.922788,35.170482],[136.922745,35.170482],[136.92266,35.170481],[136.922568,35.170481],[136.922568,35.170458],[136.922565,35.170363],[136.922564,35.170316],[136.922564,35.17029],[136.922534,35.170291],[136.922535,35.170171],[136.922506,35.170169],[136.92235,35.170159],[136.922341,35.170295],[136.922109,35.17029],[136.922024,35.170292],[136.921857,35.170288],[136.921856,35.17029],[136.921855,35.170312],[136.92189,35.170314],[136.921882,35.170429],[136.921674,35.170419],[136.921676,35.170256],[136.921437,35.170241],[136.921418,35.17021],[136.92143,35.170113],[136.921397,35.170113],[136.921348,35.170111],[136.92134,35.170191],[136.921161,35.17018],[136.921156,35.170238],[136.921136,35.170237],[136.92113,35.170295],[136.920963,35.170285],[136.920977,35.170137],[136.921137,35.170147],[136.921141,35.170106],[136.920801,35.170097],[136.920811,35.170292],[136.92064,35.170318],[136.920537,35.170131],[136.920339,35.170177],[136.920312,35.170159],[136.920272,35.170065],[136.920117,35.170102],[136.920131,35.170193],[136.919505,35.170167],[136.919505,35.170179],[136.919318,35.170233],[136.919275,35.170243],[136.919249,35.170181]]]}},{"type":"Feature","properties":{"name":"伊勢山","city":"名古屋市中区","code":"106","setai":1562,"jinko":2381,"n":2,"towns":["23106004091","23106004092"],"lx":136.90176,"ly":35.148848},"geometry":{"type":"Polygon","coordinates":[[[136.899217,35.151155],[136.899335,35.151144],[136.899409,35.15095],[136.899492,35.150953],[136.899493,35.150953],[136.89949,35.150909],[136.899593,35.150909],[136.899689,35.15091],[136.899705,35.150685],[136.89957,35.150688],[136.899554,35.150688],[136.899591,35.150086],[136.899612,35.149779],[136.899717,35.149777],[136.899746,35.14953],[136.899769,35.149313],[136.899518,35.149304],[136.899522,35.149049],[136.899608,35.149044],[136.89961,35.149075],[136.899703,35.149075],[136.899712,35.148982],[136.899653,35.148979],[136.899659,35.148819],[136.899686,35.148497],[136.900082,35.148513],[136.900083,35.148439],[136.900107,35.148439],[136.900119,35.148315],[136.900092,35.14829],[136.900122,35.147764],[136.900171,35.147202],[136.900841,35.14712],[136.901304,35.147066],[136.902179,35.146964],[136.902302,35.146944],[136.903082,35.146849],[136.90318,35.147301],[136.903305,35.147917],[136.903327,35.147989],[136.903391,35.148344],[136.903504,35.14884],[136.903586,35.149222],[136.903614,35.149365],[136.903738,35.149919],[136.903738,35.149946],[136.903641,35.149983],[136.903619,35.149941],[136.90304,35.150168],[136.902483,35.150392],[136.902439,35.15041],[136.901891,35.150624],[136.901603,35.150737],[136.901089,35.150926],[136.900528,35.151156],[136.900329,35.151231],[136.900036,35.151256],[136.899616,35.151309],[136.899253,35.151353],[136.899217,35.151155]]]}},{"type":"Feature","properties":{"name":"大井町","city":"名古屋市中区","code":"106","setai":631,"jinko":1139,"n":1,"towns":["231060060"],"lx":136.90507,"ly":35.150808},"geometry":{"type":"Polygon","coordinates":[[[136.904711,35.151884],[136.905532,35.151548],[136.905746,35.151465],[136.906225,35.151397],[136.907309,35.151253],[136.907916,35.151163],[136.90865,35.151069],[136.908926,35.151047],[136.908914,35.150943],[136.908961,35.150461],[136.908989,35.150293],[136.90907,35.15006],[136.908846,35.150051],[136.907604,35.150014],[136.907088,35.150003],[136.906877,35.149998],[136.906169,35.149982],[136.905921,35.149975],[136.905316,35.149956],[136.904745,35.149938],[136.904539,35.149932],[136.904493,35.149931],[136.903738,35.149919],[136.903738,35.149946],[136.903641,35.149983],[136.904053,35.150738],[136.904647,35.151836],[136.904697,35.151828],[136.904711,35.151884]]]}},{"type":"Feature","properties":{"name":"大須","city":"名古屋市中区","code":"106","setai":6573,"jinko":9323,"n":4,"towns":["23106007091","23106007092","23106007093","23106007094"],"lx":136.907078,"ly":35.159898},"geometry":{"type":"Polygon","coordinates":[[[136.892567,35.162252],[136.892707,35.161594],[136.892711,35.161562],[136.892912,35.159977],[136.893008,35.15927],[136.8932,35.159228],[136.894166,35.159019],[136.894342,35.158989],[136.894916,35.158848],[136.895461,35.158703],[136.895973,35.158577],[136.896539,35.158472],[136.897245,35.158346],[136.897377,35.158331],[136.898452,35.158207],[136.898462,35.158205],[136.898613,35.158176],[136.898969,35.158097],[136.899413,35.158007],[136.899808,35.157922],[136.900491,35.157782],[136.900518,35.157778],[136.901281,35.157711],[136.901272,35.157668],[136.901933,35.157629],[136.902278,35.157604],[136.902323,35.1576],[136.902355,35.157599],[136.903297,35.157553],[136.903317,35.157552],[136.904468,35.157461],[136.904747,35.157439],[136.905044,35.157417],[136.905876,35.157353],[136.90595,35.157369],[136.905965,35.157372],[136.906235,35.157325],[136.906816,35.157236],[136.906823,35.157235],[136.907266,35.157158],[136.907804,35.157071],[136.907817,35.157069],[136.909234,35.156845],[136.909239,35.156845],[136.909577,35.156794],[136.909578,35.156804],[136.909765,35.158214],[136.909921,35.159498],[136.910045,35.160589],[136.910057,35.160651],[136.910028,35.160699],[136.909678,35.160698],[136.909618,35.160725],[136.909666,35.161419],[136.909658,35.161826],[136.90964,35.162246],[136.909645,35.162303],[136.908659,35.16241],[136.907676,35.162518],[136.907135,35.16258],[136.906756,35.162617],[136.90602,35.162634],[136.905503,35.162631],[136.90398,35.162663],[136.903978,35.16265],[136.902996,35.16268],[136.902286,35.162691],[136.902205,35.162692],[136.90221,35.162733],[136.901775,35.162753],[136.900979,35.16279],[136.900957,35.16269],[136.900922,35.16269],[136.900051,35.162693],[136.899168,35.162687],[136.899167,35.162719],[136.898233,35.162689],[136.898159,35.162687],[136.897736,35.162677],[136.896937,35.162675],[136.896904,35.162673],[136.896429,35.162667],[136.896044,35.162662],[136.895472,35.162655],[136.894093,35.162628],[136.893405,35.162609],[136.892691,35.162592],[136.892777,35.162256],[136.892567,35.162252]]]}},{"type":"Feature","properties":{"name":"金山","city":"名古屋市中区","code":"106","setai":2677,"jinko":4050,"n":5,"towns":["23106011091","23106011092","23106011093","23106011094","23106011095"],"lx":136.901188,"ly":35.144996},"geometry":{"type":"Polygon","coordinates":[[[136.899095,35.14675],[136.899104,35.146289],[136.899108,35.146093],[136.899114,35.145556],[136.899114,35.145485],[136.899115,35.144915],[136.899122,35.144488],[136.899117,35.144157],[136.899117,35.144126],[136.899122,35.143711],[136.899126,35.143361],[136.900938,35.142689],[136.90098,35.142879],[136.901586,35.142963],[136.901654,35.142972],[136.901679,35.142965],[136.902399,35.142742],[136.902515,35.142789],[136.902778,35.142751],[136.903216,35.14278],[136.903437,35.142807],[136.903731,35.142843],[136.903955,35.142877],[136.903977,35.142882],[136.904108,35.142912],[136.904324,35.142962],[136.904404,35.142981],[136.904831,35.143125],[136.905018,35.143203],[136.905181,35.143282],[136.905518,35.143455],[136.905779,35.143626],[136.905988,35.143778],[136.905991,35.143754],[136.906145,35.143791],[136.906152,35.143793],[136.906253,35.143819],[136.906298,35.143788],[136.90645,35.143782],[136.906765,35.14377],[136.906788,35.14377],[136.906968,35.143764],[136.907541,35.143743],[136.907821,35.143693],[136.907816,35.143661],[136.908182,35.143649],[136.908177,35.143268],[136.908198,35.143267],[136.90823,35.14321],[136.908789,35.143189],[136.908835,35.143188],[136.908897,35.143172],[136.909923,35.143168],[136.911898,35.143175],[136.91203,35.143171],[136.91204,35.14326],[136.912244,35.143295],[136.911869,35.144175],[136.911849,35.144221],[136.911667,35.144648],[136.91075,35.146796],[136.910751,35.146814],[136.910162,35.14815],[136.91019,35.148184],[136.910149,35.148175],[136.909936,35.147936],[136.90984,35.147836],[136.909081,35.147012],[136.908865,35.146793],[136.908377,35.146796],[136.907644,35.146811],[136.907181,35.146817],[136.906673,35.146823],[136.905715,35.146837],[136.904851,35.146838],[136.903954,35.146851],[136.903929,35.146851],[136.903283,35.146846],[136.903082,35.146849],[136.902302,35.146944],[136.902179,35.146964],[136.901304,35.147066],[136.900841,35.14712],[136.900171,35.147202],[136.89914,35.147312],[136.899103,35.147286],[136.899099,35.147019],[136.899095,35.14675]]]}},{"type":"Feature","properties":{"name":"金山町","city":"名古屋市中区","code":"106","setai":0,"jinko":0,"n":1,"towns":["231060160"],"lx":136.899527,"ly":35.142786},"geometry":{"type":"Polygon","coordinates":[[[136.900938,35.142689],[136.90087,35.142376],[136.900642,35.142467],[136.900493,35.142275],[136.900283,35.142184],[136.900157,35.142177],[136.900003,35.142232],[136.899659,35.142383],[136.899128,35.1424],[136.899128,35.14319],[136.899126,35.143361],[136.900938,35.142689]]]}},{"type":"Feature","properties":{"name":"上前津","city":"名古屋市中区","code":"106","setai":2395,"jinko":3698,"n":2,"towns":["23106017091","23106017092"],"lx":136.905944,"ly":35.155934},"geometry":{"type":"Polygon","coordinates":[[[136.901865,35.15553],[136.902214,35.155433],[136.902296,35.15541],[136.902813,35.155266],[136.904321,35.154838],[136.904792,35.154706],[136.905341,35.154554],[136.906326,35.154482],[136.906326,35.154481],[136.907587,35.154383],[136.907588,35.154395],[136.907781,35.154382],[136.908209,35.154354],[136.908427,35.154339],[136.908968,35.154303],[136.909295,35.15428],[136.909445,35.155598],[136.909457,35.155702],[136.909541,35.156444],[136.909577,35.156794],[136.909239,35.156845],[136.909234,35.156845],[136.907817,35.157069],[136.907804,35.157071],[136.907266,35.157158],[136.906823,35.157235],[136.906816,35.157236],[136.906235,35.157325],[136.905965,35.157372],[136.90595,35.157369],[136.905876,35.157353],[136.905044,35.157417],[136.904747,35.157439],[136.904468,35.157461],[136.903317,35.157552],[136.903297,35.157553],[136.902355,35.157599],[136.902323,35.1576],[136.902278,35.157604],[136.902277,35.157484],[136.902278,35.157444],[136.902251,35.156857],[136.902239,35.156783],[136.902228,35.156755],[136.902214,35.156729],[136.902062,35.156241],[136.90204,35.156171],[136.90207,35.156165],[136.90195,35.155779],[136.901865,35.15553]]]}},{"type":"Feature","properties":{"name":"栄","city":"名古屋市中区","code":"106","setai":8721,"jinko":11959,"n":5,"towns":["23106019091","23106019092","23106019093","23106019094","23106019095"],"lx":136.911506,"ly":35.165664},"geometry":{"type":"Polygon","coordinates":[[[136.89209,35.167456],[136.892193,35.165952],[136.892283,35.164545],[136.892392,35.162839],[136.892567,35.162252],[136.892777,35.162256],[136.892691,35.162592],[136.893405,35.162609],[136.894093,35.162628],[136.895472,35.162655],[136.896044,35.162662],[136.896429,35.162667],[136.896904,35.162673],[136.896937,35.162675],[136.897736,35.162677],[136.898159,35.162687],[136.898233,35.162689],[136.899167,35.162719],[136.899168,35.162687],[136.900051,35.162693],[136.900922,35.16269],[136.900957,35.16269],[136.900979,35.16279],[136.901775,35.162753],[136.90221,35.162733],[136.902205,35.162692],[136.902286,35.162691],[136.902996,35.16268],[136.903978,35.16265],[136.90398,35.162663],[136.905503,35.162631],[136.90602,35.162634],[136.906756,35.162617],[136.907135,35.16258],[136.907676,35.162518],[136.908659,35.16241],[136.909645,35.162303],[136.909655,35.162342],[136.910415,35.162249],[136.911194,35.162161],[136.912424,35.16203],[136.912895,35.16198],[136.914595,35.161794],[136.915374,35.1617],[136.915519,35.161688],[136.915544,35.161652],[136.915414,35.162717],[136.915367,35.162763],[136.915269,35.163524],[136.915328,35.163531],[136.915232,35.164327],[136.915196,35.164596],[136.91515,35.164929],[136.915127,35.165097],[136.914999,35.166078],[136.914905,35.166758],[136.914885,35.166903],[136.914837,35.167202],[136.914723,35.168146],[136.914717,35.168188],[136.914555,35.169403],[136.912904,35.169291],[136.912848,35.169292],[136.911864,35.169211],[136.910607,35.16913],[136.909272,35.169024],[136.909137,35.169014],[136.906905,35.168867],[136.905718,35.168778],[136.905723,35.168823],[136.904552,35.168734],[136.903388,35.16865],[136.903363,35.168623],[136.902223,35.168557],[136.902183,35.168541],[136.901024,35.16847],[136.899861,35.168387],[136.899834,35.168397],[136.898681,35.168311],[136.898692,35.168297],[136.897517,35.16823],[136.897502,35.168238],[136.896784,35.168189],[136.896309,35.168161],[136.89629,35.16816],[136.894913,35.168073],[136.894905,35.168072],[136.893482,35.167969],[136.893478,35.167974],[136.892344,35.167909],[136.892319,35.167894],[136.892166,35.167884],[136.89211,35.167646],[136.89209,35.167456]]]}},{"type":"Feature","properties":{"name":"三の丸","city":"名古屋市中区","code":"106","setai":238,"jinko":313,"n":4,"towns":["23106024091","23106024092","23106024093","23106024094"],"lx":136.897137,"ly":35.180286},"geometry":{"type":"Polygon","coordinates":[[[136.893779,35.177518],[136.893951,35.177516],[136.894541,35.177481],[136.894811,35.177479],[136.895088,35.177488],[136.895274,35.177508],[136.895439,35.177519],[136.895685,35.177534],[136.89651,35.177574],[136.896513,35.177552],[136.897739,35.177653],[136.898877,35.177749],[136.900078,35.177836],[136.901138,35.177927],[136.901221,35.177934],[136.902431,35.178],[136.903629,35.178067],[136.904798,35.178146],[136.90583,35.178197],[136.905879,35.178199],[136.907086,35.178225],[136.907085,35.178338],[136.90826,35.178395],[136.909501,35.178468],[136.909334,35.179961],[136.909113,35.179942],[136.90884,35.182105],[136.909188,35.182137],[136.909089,35.182901],[136.909083,35.183009],[136.908796,35.183002],[136.908604,35.183005],[136.908539,35.183852],[136.908523,35.184153],[136.908591,35.184216],[136.908588,35.184248],[136.908565,35.18449],[136.908503,35.18514],[136.908476,35.185395],[136.908441,35.185653],[136.90737,35.185729],[136.907377,35.185767],[136.907394,35.185862],[136.907432,35.186206],[136.907219,35.186228],[136.906819,35.186283],[136.906701,35.186377],[136.906631,35.186377],[136.906602,35.186461],[136.906403,35.186459],[136.906133,35.186456],[136.904831,35.186445],[136.904921,35.185599],[136.904973,35.185593],[136.904974,35.185588],[136.904983,35.185492],[136.904735,35.185481],[136.904707,35.185479],[136.904724,35.185314],[136.904729,35.185269],[136.904769,35.184781],[136.904807,35.184564],[136.904911,35.18386],[136.905035,35.183258],[136.905138,35.182636],[136.905239,35.18229],[136.905264,35.182102],[136.905156,35.182076],[136.904795,35.182013],[136.904397,35.181927],[136.903904,35.181844],[136.903632,35.181817],[136.903086,35.181764],[136.901936,35.181684],[136.900203,35.181564],[136.899992,35.183155],[136.89813,35.183032],[136.895968,35.182889],[136.895623,35.182725],[136.895476,35.182655],[136.89531,35.182601],[136.895041,35.182649],[136.895034,35.182627],[136.895042,35.182549],[136.895087,35.182525],[136.894872,35.181935],[136.894711,35.181457],[136.894515,35.180904],[136.894308,35.180269],[136.894088,35.179405],[136.893823,35.177855],[136.893779,35.177518]]]}},{"type":"Feature","properties":{"name":"新栄町","city":"名古屋市中区","code":"106","setai":9,"jinko":11,"n":3,"towns":["23106028091","23106028092","23106028093"],"lx":136.911012,"ly":35.169598},"geometry":{"type":"Polygon","coordinates":[[[136.909216,35.169647],[136.909272,35.169024],[136.910607,35.16913],[136.911864,35.169211],[136.912848,35.169292],[136.912904,35.169291],[136.914555,35.169403],[136.914534,35.169713],[136.913867,35.169677],[136.913856,35.169765],[136.912992,35.169712],[136.912962,35.169886],[136.912962,35.16989],[136.91243,35.169837],[136.912383,35.170118],[136.910541,35.170012],[136.910568,35.169655],[136.909962,35.169616],[136.909924,35.169951],[136.909654,35.169942],[136.909671,35.169684],[136.909216,35.169647]]]}},{"type":"Feature","properties":{"name":"新栄","city":"名古屋市中区","code":"106","setai":10211,"jinko":13591,"n":3,"towns":["23106029091","23106029092","23106029093"],"lx":136.920186,"ly":35.165496},"geometry":{"type":"Polygon","coordinates":[[[136.914555,35.169403],[136.914717,35.168188],[136.914723,35.168146],[136.914837,35.167202],[136.914885,35.166903],[136.914905,35.166758],[136.914999,35.166078],[136.915127,35.165097],[136.91515,35.164929],[136.915196,35.164596],[136.915232,35.164327],[136.915328,35.163531],[136.915269,35.163524],[136.915367,35.162763],[136.915414,35.162717],[136.915544,35.161652],[136.916493,35.161567],[136.917779,35.161436],[136.918126,35.161407],[136.91849,35.161367],[136.918813,35.161333],[136.919077,35.161304],[136.920395,35.161186],[136.920729,35.161146],[136.9217,35.161067],[136.921901,35.16104],[136.921911,35.16105],[136.922244,35.161414],[136.92284,35.162065],[136.923589,35.162882],[136.9242,35.163549],[136.924232,35.163584],[136.925189,35.164616],[136.925366,35.164807],[136.925584,35.165047],[136.925722,35.165194],[136.925993,35.16546],[136.925912,35.165513],[136.925946,35.165545],[136.925947,35.165546],[136.926277,35.165885],[136.926941,35.166604],[136.926606,35.16683],[136.926844,35.167098],[136.926868,35.167082],[136.927064,35.167281],[136.927271,35.167514],[136.927237,35.167538],[136.927741,35.168103],[136.927856,35.168198],[136.928342,35.168535],[136.928719,35.168804],[136.928824,35.168883],[136.928997,35.169012],[136.929219,35.169194],[136.929184,35.169216],[136.929703,35.16976],[136.929833,35.169894],[136.929464,35.169874],[136.929142,35.169814],[136.928821,35.169705],[136.928524,35.169575],[136.928377,35.16952],[136.928363,35.169485],[136.928036,35.169422],[136.927931,35.16942],[136.927836,35.16942],[136.927395,35.169491],[136.927366,35.169344],[136.927302,35.169353],[136.926616,35.1695],[136.926054,35.16962],[136.926076,35.169662],[136.925624,35.169722],[136.925047,35.169751],[136.924256,35.169806],[136.923657,35.169848],[136.92282,35.169902],[136.922484,35.169912],[136.922065,35.169891],[136.921439,35.169858],[136.920993,35.169828],[136.920941,35.169824],[136.920218,35.169781],[136.920213,35.169781],[136.9193,35.169722],[136.9193,35.169717],[136.918497,35.169661],[136.918308,35.169648],[136.918229,35.169642],[136.91744,35.169591],[136.917401,35.169588],[136.91696,35.169563],[136.916844,35.169549],[136.915542,35.169466],[136.915495,35.169464],[136.914555,35.169403]]]}},{"type":"Feature","properties":{"name":"橘","city":"名古屋市中区","code":"106","setai":1754,"jinko":2783,"n":2,"towns":["23106032091","23106032092"],"lx":136.902525,"ly":35.152902},"geometry":{"type":"Polygon","coordinates":[[[136.898542,35.15651],[136.898575,35.15583],[136.898578,35.15579],[136.898611,35.155201],[136.898641,35.154854],[136.898648,35.154606],[136.898666,35.154415],[136.898696,35.153906],[136.898728,35.153289],[136.898742,35.152836],[136.89878,35.152169],[136.898798,35.152],[136.898814,35.151823],[136.898826,35.151404],[136.89888,35.151394],[136.899253,35.151353],[136.899616,35.151309],[136.900036,35.151256],[136.900329,35.151231],[136.900528,35.151156],[136.901089,35.150926],[136.901603,35.150737],[136.901891,35.150624],[136.902439,35.15041],[136.902483,35.150392],[136.90304,35.150168],[136.903619,35.149941],[136.903641,35.149983],[136.904053,35.150738],[136.904647,35.151836],[136.904697,35.151828],[136.904711,35.151884],[136.904801,35.152296],[136.904878,35.152572],[136.904901,35.152717],[136.904977,35.153026],[136.905075,35.153434],[136.905138,35.153663],[136.905189,35.1539],[136.905239,35.15412],[136.905341,35.154554],[136.904792,35.154706],[136.904321,35.154838],[136.902813,35.155266],[136.902296,35.15541],[136.902214,35.155433],[136.901865,35.15553],[136.901564,35.155611],[136.90155,35.155581],[136.900751,35.155813],[136.900168,35.155991],[136.900199,35.156074],[136.899514,35.156257],[136.899392,35.156286],[136.898768,35.156458],[136.898542,35.15651]]]}},{"type":"Feature","properties":{"name":"千代田","city":"名古屋市中区","code":"106","setai":10450,"jinko":15798,"n":5,"towns":["23106034091","23106034092","23106034093","23106034094","23106034095"],"lx":136.91388,"ly":35.158},"geometry":{"type":"Polygon","coordinates":[[[136.90923,35.151051],[136.909245,35.150641],[136.909316,35.150212],[136.909345,35.150066],[136.909496,35.149734],[136.909992,35.148637],[136.91,35.148619],[136.909784,35.148446],[136.909753,35.148372],[136.909936,35.147936],[136.910149,35.148175],[136.91019,35.148184],[136.910283,35.148203],[136.910308,35.148369],[136.910556,35.148637],[136.911294,35.149438],[136.911908,35.150104],[136.911894,35.150136],[136.911896,35.150138],[136.913333,35.151705],[136.913432,35.151793],[136.913469,35.151834],[136.913851,35.152249],[136.913911,35.152315],[136.914304,35.15275],[136.914634,35.153114],[136.915493,35.154064],[136.915528,35.154102],[136.915541,35.154116],[136.916383,35.155034],[136.916697,35.155377],[136.916791,35.155476],[136.91691,35.155403],[136.916998,35.1555],[136.917257,35.155787],[136.918981,35.157698],[136.919,35.157719],[136.920318,35.159203],[136.920335,35.159222],[136.920276,35.159258],[136.92077,35.159796],[136.921248,35.160325],[136.921291,35.160372],[136.921901,35.16104],[136.9217,35.161067],[136.920729,35.161146],[136.920395,35.161186],[136.919077,35.161304],[136.918813,35.161333],[136.91849,35.161367],[136.918126,35.161407],[136.917779,35.161436],[136.916493,35.161567],[136.915544,35.161652],[136.915519,35.161688],[136.915374,35.1617],[136.914595,35.161794],[136.912895,35.16198],[136.912424,35.16203],[136.911194,35.162161],[136.910415,35.162249],[136.909655,35.162342],[136.909645,35.162303],[136.90964,35.162246],[136.909658,35.161826],[136.909666,35.161419],[136.909618,35.160725],[136.909678,35.160698],[136.910028,35.160699],[136.910262,35.160676],[136.910276,35.160649],[136.910249,35.160368],[136.910236,35.160231],[136.910163,35.159447],[136.910031,35.15821],[136.909956,35.1576],[136.909934,35.157396],[136.909857,35.156674],[136.909879,35.156672],[136.909823,35.156196],[136.909806,35.156049],[136.90971,35.155231],[136.909693,35.155089],[136.909676,35.154954],[136.909661,35.154831],[136.909598,35.154262],[136.909387,35.152423],[136.909355,35.152142],[136.90923,35.151051]]]}},{"type":"Feature","properties":{"name":"錦","city":"名古屋市中区","code":"106","setai":1346,"jinko":1844,"n":3,"towns":["23106039091","23106039092","23106039093"],"lx":136.901808,"ly":35.17095},"geometry":{"type":"Polygon","coordinates":[[[136.892162,35.167908],[136.892166,35.167884],[136.892319,35.167894],[136.892344,35.167909],[136.893478,35.167974],[136.893482,35.167969],[136.894905,35.168072],[136.894913,35.168073],[136.89629,35.16816],[136.896309,35.168161],[136.896784,35.168189],[136.897502,35.168238],[136.897517,35.16823],[136.898692,35.168297],[136.898681,35.168311],[136.899834,35.168397],[136.899861,35.168387],[136.901024,35.16847],[136.902183,35.168541],[136.902223,35.168557],[136.903363,35.168623],[136.903388,35.16865],[136.904552,35.168734],[136.905723,35.168823],[136.905718,35.168778],[136.906905,35.168867],[136.909137,35.169014],[136.909272,35.169024],[136.909216,35.169647],[136.909194,35.169919],[136.909179,35.170063],[136.909095,35.170886],[136.909077,35.171061],[136.908986,35.171859],[136.90889,35.172779],[136.908889,35.172785],[136.908791,35.173798],[136.906411,35.173644],[136.906409,35.173676],[136.905254,35.173599],[136.905238,35.173561],[136.90406,35.173481],[136.902911,35.17341],[136.902853,35.173438],[136.901682,35.173375],[136.900524,35.173286],[136.899363,35.173194],[136.899328,35.173162],[136.898183,35.173079],[136.897016,35.17299],[136.896984,35.172987],[136.895791,35.172872],[136.895783,35.172872],[136.894833,35.172761],[136.894532,35.172727],[136.894118,35.172682],[136.893167,35.172579],[136.892927,35.172561],[136.892921,35.172534],[136.892762,35.171852],[136.89278,35.171776],[136.892716,35.171561],[136.892597,35.170886],[136.892527,35.170409],[136.892492,35.169892],[136.89249,35.169581],[136.892491,35.169422],[136.892456,35.169411],[136.892424,35.169115],[136.892331,35.168603],[136.892241,35.168263],[136.892162,35.167908]]]}},{"type":"Feature","properties":{"name":"二の丸","city":"名古屋市中区","code":"106","setai":0,"jinko":0,"n":1,"towns":["231060420"],"lx":136.902962,"ly":35.183712},"geometry":{"type":"Polygon","coordinates":[[[136.904707,35.185479],[136.904724,35.185314],[136.904729,35.185269],[136.904769,35.184781],[136.904807,35.184564],[136.904911,35.18386],[136.905035,35.183258],[136.905138,35.182636],[136.905239,35.18229],[136.905264,35.182102],[136.905156,35.182076],[136.904795,35.182013],[136.904397,35.181927],[136.903904,35.181844],[136.903632,35.181817],[136.903086,35.181764],[136.901936,35.181684],[136.900203,35.181564],[136.899992,35.183155],[136.900151,35.183169],[136.900104,35.183529],[136.900606,35.183596],[136.900559,35.184051],[136.900955,35.184059],[136.900885,35.184939],[136.901495,35.184997],[136.901378,35.185922],[136.902001,35.186048],[136.904391,35.18607],[136.904469,35.185465],[136.904707,35.185479]]]}},{"type":"Feature","properties":{"name":"東桜","city":"名古屋市中区","code":"106","setai":156,"jinko":199,"n":1,"towns":["231060430"],"lx":136.916817,"ly":35.169832},"geometry":{"type":"Polygon","coordinates":[[[136.919249,35.170181],[136.9193,35.169722],[136.9193,35.169717],[136.918497,35.169661],[136.918308,35.169648],[136.918229,35.169642],[136.91744,35.169591],[136.917401,35.169588],[136.91696,35.169563],[136.916844,35.169549],[136.915542,35.169466],[136.915495,35.169464],[136.914555,35.169403],[136.914534,35.169713],[136.914526,35.169835],[136.914757,35.169867],[136.915129,35.169887],[136.915107,35.170121],[136.915206,35.170134],[136.915206,35.170135],[136.915226,35.170184],[136.915382,35.170193],[136.91543,35.170196],[136.915441,35.170126],[136.915482,35.169854],[136.915483,35.169854],[136.91554,35.169843],[136.915648,35.169822],[136.915662,35.169819],[136.915742,35.170027],[136.916064,35.169968],[136.916113,35.169961],[136.916121,35.169961],[136.916123,35.169943],[136.916355,35.169956],[136.916357,35.169912],[136.916501,35.169926],[136.91655,35.16993],[136.916541,35.170035],[136.916531,35.170152],[136.916526,35.170205],[136.917007,35.170214],[136.91703,35.170214],[136.917028,35.170024],[136.917387,35.170019],[136.917394,35.170008],[136.917595,35.169951],[136.917668,35.170119],[136.917747,35.170299],[136.917763,35.170328],[136.918022,35.170319],[136.918136,35.170284],[136.918201,35.170245],[136.918265,35.170212],[136.918191,35.170116],[136.918113,35.170028],[136.91824,35.169954],[136.918387,35.17012],[136.918448,35.170115],[136.918583,35.170103],[136.918663,35.170102],[136.918677,35.170102],[136.918667,35.170201],[136.918666,35.170206],[136.918875,35.170232],[136.918867,35.170529],[136.918866,35.170589],[136.919159,35.170606],[136.919165,35.170274],[136.919275,35.170243],[136.919249,35.170181]]]}},{"type":"Feature","properties":{"name":"富士見町","city":"名古屋市中区","code":"106","setai":1927,"jinko":3076,"n":1,"towns":["231060440"],"lx":136.907542,"ly":35.152809},"geometry":{"type":"Polygon","coordinates":[[[136.906326,35.154481],[136.907587,35.154383],[136.907588,35.154395],[136.907781,35.154382],[136.908209,35.154354],[136.908427,35.154339],[136.908968,35.154303],[136.909295,35.15428],[136.909191,35.153365],[136.909124,35.152785],[136.90912,35.152749],[136.908926,35.151047],[136.90865,35.151069],[136.907916,35.151163],[136.907309,35.151253],[136.906225,35.151397],[136.905746,35.151465],[136.905532,35.151548],[136.904711,35.151884],[136.904801,35.152296],[136.904878,35.152572],[136.904901,35.152717],[136.904977,35.153026],[136.905075,35.153434],[136.905138,35.153663],[136.905189,35.1539],[136.905239,35.15412],[136.905341,35.154554],[136.906326,35.154482],[136.906326,35.154481]]]}},{"type":"Feature","properties":{"name":"古渡町","city":"名古屋市中区","code":"106","setai":316,"jinko":581,"n":1,"towns":["231060450"],"lx":136.898803,"ly":35.150567},"geometry":{"type":"Polygon","coordinates":[[[136.899335,35.151144],[136.899409,35.15095],[136.899492,35.150953],[136.899493,35.150953],[136.89949,35.150909],[136.899593,35.150909],[136.899689,35.15091],[136.899705,35.150685],[136.89957,35.150688],[136.899554,35.150688],[136.899591,35.150086],[136.899612,35.149779],[136.899717,35.149777],[136.899746,35.14953],[136.899769,35.149313],[136.899518,35.149304],[136.899522,35.149049],[136.899608,35.149044],[136.89961,35.149075],[136.899703,35.149075],[136.899712,35.148982],[136.899653,35.148979],[136.899659,35.148819],[136.899686,35.148497],[136.900082,35.148513],[136.900083,35.148439],[136.900107,35.148439],[136.900119,35.148315],[136.900092,35.14829],[136.900122,35.147764],[136.900171,35.147202],[136.89914,35.147312],[136.899103,35.147286],[136.898581,35.147373],[136.89856,35.147376],[136.898604,35.14756],[136.898606,35.147574],[136.898637,35.147576],[136.898835,35.14758],[136.898814,35.147809],[136.898246,35.14779],[136.898185,35.147787],[136.898182,35.147829],[136.898169,35.148109],[136.898156,35.148397],[136.898212,35.148396],[136.898357,35.148399],[136.898405,35.148401],[136.898405,35.148412],[136.898404,35.148581],[136.898339,35.148582],[136.89833,35.148943],[136.898325,35.149122],[136.898353,35.149123],[136.898401,35.149124],[136.898543,35.14913],[136.898545,35.14913],[136.898542,35.14914],[136.898525,35.149212],[136.898569,35.149212],[136.898568,35.149305],[136.898813,35.149284],[136.898801,35.149448],[136.898447,35.149414],[136.898414,35.149761],[136.898391,35.149924],[136.898379,35.149989],[136.89837,35.149989],[136.898068,35.14998],[136.898059,35.150329],[136.898101,35.150751],[136.898135,35.150939],[136.898186,35.151479],[136.898826,35.151404],[136.89888,35.151394],[136.899253,35.151353],[136.899217,35.151155],[136.899335,35.151144]]]}},{"type":"Feature","properties":{"name":"平和","city":"名古屋市中区","code":"106","setai":1987,"jinko":2891,"n":2,"towns":["23106046091","23106046092"],"lx":136.907991,"ly":35.148415},"geometry":{"type":"Polygon","coordinates":[[[136.903082,35.146849],[136.903283,35.146846],[136.903929,35.146851],[136.903954,35.146851],[136.904851,35.146838],[136.905715,35.146837],[136.906673,35.146823],[136.907181,35.146817],[136.907644,35.146811],[136.908377,35.146796],[136.908865,35.146793],[136.909081,35.147012],[136.90984,35.147836],[136.909936,35.147936],[136.909753,35.148372],[136.909706,35.148486],[136.909498,35.148987],[136.909189,35.149733],[136.90907,35.15006],[136.908846,35.150051],[136.907604,35.150014],[136.907088,35.150003],[136.906877,35.149998],[136.906169,35.149982],[136.905921,35.149975],[136.905316,35.149956],[136.904745,35.149938],[136.904539,35.149932],[136.904493,35.149931],[136.903738,35.149919],[136.903614,35.149365],[136.903586,35.149222],[136.903504,35.14884],[136.903391,35.148344],[136.903327,35.147989],[136.903305,35.147917],[136.90318,35.147301],[136.903082,35.146849]]]}},{"type":"Feature","properties":{"name":"本丸","city":"名古屋市中区","code":"106","setai":0,"jinko":0,"n":1,"towns":["231060480"],"lx":136.898232,"ly":35.18507},"geometry":{"type":"Polygon","coordinates":[[[136.902001,35.186048],[136.901378,35.185922],[136.901495,35.184997],[136.900885,35.184939],[136.900955,35.184059],[136.900559,35.184051],[136.900606,35.183596],[136.900104,35.183529],[136.900151,35.183169],[136.899992,35.183155],[136.89813,35.183032],[136.895968,35.182889],[136.895992,35.182901],[136.895917,35.183399],[136.8959,35.183622],[136.895857,35.184328],[136.895843,35.184594],[136.895911,35.184639],[136.896211,35.184687],[136.896234,35.18472],[136.896222,35.184795],[136.896134,35.185432],[136.896047,35.186126],[136.895964,35.186671],[136.895888,35.187236],[136.897375,35.187357],[136.898027,35.187408],[136.898626,35.18745],[136.899141,35.187477],[136.899144,35.187449],[136.899382,35.187458],[136.899451,35.18669],[136.900586,35.186776],[136.901917,35.186292],[136.901972,35.186239],[136.902001,35.186048]]]}},{"type":"Feature","properties":{"name":"正木","city":"名古屋市中区","code":"106","setai":3357,"jinko":5823,"n":4,"towns":["23106049091","23106049092","23106049093","23106049094"],"lx":136.896945,"ly":35.145934},"geometry":{"type":"Polygon","coordinates":[[[136.893829,35.152011],[136.893868,35.151782],[136.894034,35.150501],[136.894047,35.150377],[136.894075,35.150121],[136.894129,35.149617],[136.894189,35.148874],[136.894267,35.148304],[136.894369,35.147698],[136.89445,35.14712],[136.89449,35.146845],[136.894533,35.146627],[136.894542,35.14654],[136.894566,35.146439],[136.894582,35.146373],[136.894676,35.146007],[136.894707,35.145875],[136.894773,35.145642],[136.8949,35.145216],[136.894903,35.145206],[136.894945,35.145074],[136.895025,35.144826],[136.895052,35.14474],[136.895107,35.144659],[136.895185,35.144425],[136.895269,35.14418],[136.89541,35.143769],[136.895565,35.143327],[136.895806,35.142677],[136.895826,35.142609],[136.895845,35.142612],[136.896012,35.142609],[136.896311,35.142586],[136.89663,35.142562],[136.896826,35.142552],[136.897212,35.142529],[136.897611,35.1425],[136.89826,35.142469],[136.898678,35.142436],[136.899128,35.1424],[136.899128,35.14319],[136.899126,35.143361],[136.899122,35.143711],[136.899117,35.144126],[136.899117,35.144157],[136.899122,35.144488],[136.899115,35.144915],[136.899114,35.145485],[136.899114,35.145556],[136.899108,35.146093],[136.899104,35.146289],[136.899095,35.14675],[136.899099,35.147019],[136.899103,35.147286],[136.898581,35.147373],[136.89856,35.147376],[136.898604,35.14756],[136.898606,35.147574],[136.898637,35.147576],[136.898835,35.14758],[136.898814,35.147809],[136.898246,35.14779],[136.898185,35.147787],[136.898182,35.147829],[136.898169,35.148109],[136.898156,35.148397],[136.898212,35.148396],[136.898357,35.148399],[136.898405,35.148401],[136.898405,35.148412],[136.898404,35.148581],[136.898339,35.148582],[136.89833,35.148943],[136.898325,35.149122],[136.898353,35.149123],[136.898401,35.149124],[136.898543,35.14913],[136.898545,35.14913],[136.898542,35.14914],[136.898525,35.149212],[136.898569,35.149212],[136.898568,35.149305],[136.898813,35.149284],[136.898801,35.149448],[136.898447,35.149414],[136.898414,35.149761],[136.898391,35.149924],[136.898379,35.149989],[136.89837,35.149989],[136.898068,35.14998],[136.898059,35.150329],[136.898101,35.150751],[136.898135,35.150939],[136.898186,35.151479],[136.897813,35.151523],[136.89705,35.151613],[136.896895,35.151635],[136.896633,35.15167],[136.896111,35.151728],[136.895651,35.151787],[136.895194,35.151842],[136.895147,35.151847],[136.894089,35.151974],[136.894015,35.151983],[136.893829,35.152011]]]}},{"type":"Feature","properties":{"name":"松原","city":"名古屋市中区","code":"106","setai":2978,"jinko":5083,"n":3,"towns":["23106053091","23106053092","23106053093"],"lx":136.895979,"ly":35.155939},"geometry":{"type":"Polygon","coordinates":[[[136.893008,35.15927],[136.893035,35.159069],[136.893122,35.158182],[136.89325,35.157104],[136.893316,35.156406],[136.893515,35.15475],[136.893603,35.15376],[136.893652,35.153264],[136.893829,35.152011],[136.894015,35.151983],[136.894089,35.151974],[136.895147,35.151847],[136.895194,35.151842],[136.895651,35.151787],[136.896111,35.151728],[136.896633,35.15167],[136.896895,35.151635],[136.89705,35.151613],[136.897813,35.151523],[136.898186,35.151479],[136.898826,35.151404],[136.898814,35.151823],[136.898798,35.152],[136.89878,35.152169],[136.898742,35.152836],[136.898728,35.153289],[136.898696,35.153906],[136.898666,35.154415],[136.898648,35.154606],[136.898641,35.154854],[136.898611,35.155201],[136.898578,35.15579],[136.898575,35.15583],[136.898542,35.15651],[136.898466,35.157779],[136.898462,35.158205],[136.898452,35.158207],[136.897377,35.158331],[136.897245,35.158346],[136.896539,35.158472],[136.895973,35.158577],[136.895461,35.158703],[136.894916,35.158848],[136.894342,35.158989],[136.894166,35.159019],[136.8932,35.159228],[136.893008,35.15927]]]}},{"type":"Feature","properties":{"name":"丸の内","city":"名古屋市中区","code":"106","setai":4857,"jinko":7113,"n":3,"towns":["23106056091","23106056092","23106056093"],"lx":136.895778,"ly":35.175208},"geometry":{"type":"Polygon","coordinates":[[[136.892927,35.172561],[136.893167,35.172579],[136.894118,35.172682],[136.894532,35.172727],[136.894833,35.172761],[136.895783,35.172872],[136.895791,35.172872],[136.896984,35.172987],[136.897016,35.17299],[136.898183,35.173079],[136.899328,35.173162],[136.899363,35.173194],[136.900524,35.173286],[136.901682,35.173375],[136.902853,35.173438],[136.902911,35.17341],[136.90406,35.173481],[136.905238,35.173561],[136.905254,35.173599],[136.906409,35.173676],[136.906411,35.173644],[136.908791,35.173798],[136.90872,35.173977],[136.908645,35.174754],[136.908645,35.174758],[136.9086,35.175195],[136.908582,35.175318],[136.908542,35.175754],[136.908501,35.176184],[136.908488,35.176389],[136.908423,35.177076],[136.908299,35.17818],[136.907086,35.178207],[136.907086,35.178225],[136.905879,35.178199],[136.90583,35.178197],[136.904798,35.178146],[136.903629,35.178067],[136.902431,35.178],[136.901221,35.177934],[136.901138,35.177927],[136.900078,35.177836],[136.898877,35.177749],[136.897739,35.177653],[136.896513,35.177552],[136.89651,35.177574],[136.895685,35.177534],[136.895439,35.177519],[136.895274,35.177508],[136.895088,35.177488],[136.894811,35.177479],[136.894541,35.177481],[136.893951,35.177516],[136.893779,35.177518],[136.89377,35.177462],[136.893556,35.176058],[136.893144,35.173712],[136.892927,35.172561]]]}},{"type":"Feature","properties":{"name":"門前町","city":"名古屋市中区","code":"106","setai":654,"jinko":1028,"n":1,"towns":["231060590"],"lx":136.901185,"ly":35.1567},"geometry":{"type":"Polygon","coordinates":[[[136.90195,35.155779],[136.901865,35.15553],[136.901564,35.155611],[136.90155,35.155581],[136.900751,35.155813],[136.900168,35.155991],[136.900199,35.156074],[136.899514,35.156257],[136.899392,35.156286],[136.898768,35.156458],[136.898542,35.15651],[136.898466,35.157779],[136.898462,35.158205],[136.898613,35.158176],[136.898969,35.158097],[136.899413,35.158007],[136.899808,35.157922],[136.900491,35.157782],[136.900518,35.157778],[136.901281,35.157711],[136.901272,35.157668],[136.901933,35.157629],[136.902278,35.157604],[136.902277,35.157484],[136.902278,35.157444],[136.902251,35.156857],[136.902239,35.156783],[136.902228,35.156755],[136.902214,35.156729],[136.902062,35.156241],[136.90204,35.156171],[136.90207,35.156165],[136.90195,35.155779]]]}}]}