{"type":"FeatureCollection","features":[{"type":"Feature","properties":{"name":"相生町","city":"名古屋市東区","code":"102","setai":350,"jinko":589,"n":1,"towns":["231020010"],"lx":136.921881,"ly":35.180873},"geometry":{"type":"Polygon","coordinates":[[[136.92235,35.182564],[136.922548,35.182511],[136.922614,35.182542],[136.923151,35.182372],[136.923154,35.182367],[136.923157,35.182363],[136.922906,35.181842],[136.922733,35.181434],[136.922471,35.180875],[136.922324,35.180564],[136.922148,35.180188],[136.92213,35.180149],[136.922005,35.179847],[136.921773,35.179318],[136.921749,35.179284],[136.921056,35.179186],[136.921042,35.179181],[136.920818,35.179172],[136.92076,35.179163],[136.920727,35.179396],[136.920776,35.179443],[136.920756,35.179571],[136.920741,35.179737],[136.920876,35.179753],[136.920863,35.179992],[136.920931,35.179997],[136.920925,35.180196],[136.921137,35.180202],[136.921127,35.180208],[136.921104,35.180557],[136.921051,35.180566],[136.921028,35.180832],[136.921408,35.180851],[136.921406,35.180971],[136.921342,35.18098],[136.921331,35.181205],[136.921446,35.181218],[136.921443,35.181422],[136.921498,35.181432],[136.921807,35.181432],[136.921807,35.181694],[136.921764,35.181707],[136.921879,35.181959],[136.921955,35.182567],[136.922271,35.182585],[136.922325,35.182571],[136.922348,35.182564],[136.92235,35.182564]]]}},{"type":"Feature","properties":{"name":"葵","city":"名古屋市東区","code":"102","setai":3504,"jinko":5536,"n":3,"towns":["23102002091","23102002092","23102002093"],"lx":136.925288,"ly":35.172015},"geometry":{"type":"Polygon","coordinates":[[[136.919318,35.170233],[136.919505,35.170179],[136.919505,35.170167],[136.920131,35.170193],[136.920117,35.170102],[136.920272,35.170065],[136.920312,35.170159],[136.920339,35.170177],[136.920537,35.170131],[136.92064,35.170318],[136.920811,35.170292],[136.920801,35.170097],[136.921141,35.170106],[136.921137,35.170147],[136.920977,35.170137],[136.920963,35.170285],[136.92113,35.170295],[136.921136,35.170237],[136.921156,35.170238],[136.921161,35.17018],[136.92134,35.170191],[136.921348,35.170111],[136.921397,35.170113],[136.92143,35.170113],[136.921418,35.17021],[136.921437,35.170241],[136.921676,35.170256],[136.921674,35.170419],[136.921882,35.170429],[136.92189,35.170314],[136.921855,35.170312],[136.921856,35.17029],[136.921857,35.170288],[136.922024,35.170292],[136.922109,35.17029],[136.922341,35.170295],[136.92235,35.170159],[136.922506,35.170169],[136.922535,35.170171],[136.922534,35.170291],[136.922564,35.17029],[136.922564,35.170316],[136.922565,35.170363],[136.922568,35.170458],[136.922568,35.170481],[136.92266,35.170481],[136.922745,35.170482],[136.922788,35.170482],[136.922994,35.170485],[136.922995,35.170298],[136.922995,35.170249],[136.923285,35.170233],[136.92332,35.170231],[136.923611,35.170225],[136.923594,35.169988],[136.923695,35.169973],[136.92374,35.169965],[136.923744,35.17003],[136.923752,35.170173],[136.923759,35.170301],[136.923946,35.170295],[136.923944,35.170233],[136.923941,35.170133],[136.92404,35.170136],[136.924262,35.170135],[136.924287,35.170135],[136.924353,35.170133],[136.924666,35.170122],[136.924883,35.170115],[136.92499,35.170112],[136.92499,35.170187],[136.924995,35.170186],[136.924986,35.170267],[136.924989,35.170479],[136.925006,35.170479],[136.925071,35.170478],[136.925213,35.170478],[136.925209,35.170117],[136.925457,35.170109],[136.925639,35.170098],[136.925647,35.170098],[136.925648,35.170104],[136.925664,35.170139],[136.925683,35.1702],[136.925995,35.17014],[136.925982,35.170084],[136.925972,35.17004],[136.926192,35.169982],[136.926546,35.169908],[136.926548,35.169908],[136.926917,35.169832],[136.927473,35.169718],[136.927395,35.169491],[136.927836,35.16942],[136.927931,35.16942],[136.928036,35.169422],[136.928363,35.169485],[136.928377,35.16952],[136.928524,35.169575],[136.928821,35.169705],[136.929142,35.169814],[136.929464,35.169874],[136.929833,35.169894],[136.930183,35.170255],[136.930525,35.170608],[136.931146,35.171248],[136.931713,35.171832],[136.932187,35.17232],[136.9327,35.172849],[136.932493,35.172911],[136.932065,35.173075],[136.93186,35.173104],[136.930901,35.173247],[136.93066,35.173282],[136.929797,35.173418],[136.929425,35.173475],[136.929438,35.173506],[136.92914,35.173517],[136.928498,35.173617],[136.928267,35.173644],[136.928247,35.173646],[136.928193,35.173654],[136.927987,35.173683],[136.927927,35.173701],[136.927737,35.17373],[136.92773,35.173715],[136.927408,35.17376],[136.927158,35.173806],[136.926396,35.17391],[136.925885,35.173983],[136.925817,35.173992],[136.925374,35.174061],[136.92527,35.174072],[136.925131,35.174094],[136.924893,35.174133],[136.92483,35.174141],[136.924396,35.174144],[136.92363,35.174162],[136.923534,35.174162],[136.923015,35.174173],[136.922587,35.174182],[136.922516,35.174183],[136.921967,35.174195],[136.921214,35.174199],[136.920685,35.174203],[136.920526,35.1742],[136.920254,35.174203],[136.919469,35.174206],[136.919421,35.173303],[136.919423,35.173108],[136.9194,35.172515],[136.919385,35.172056],[136.919336,35.170728],[136.919318,35.170233]]]}},{"type":"Feature","properties":{"name":"赤塚町","city":"名古屋市東区","code":"102","setai":148,"jinko":280,"n":2,"towns":["23102005000","23102005090"],"lx":136.923293,"ly":35.183827},"geometry":{"type":"Polygon","coordinates":[[[136.922302,35.183788],[136.922332,35.182905],[136.922382,35.182891],[136.922389,35.18289],[136.922383,35.182793],[136.922415,35.182793],[136.922417,35.182689],[136.922414,35.182689],[136.922351,35.182688],[136.922325,35.182571],[136.922348,35.182564],[136.92235,35.182564],[136.922548,35.182511],[136.922614,35.182542],[136.923151,35.182372],[136.923154,35.182367],[136.92318,35.182377],[136.923402,35.182848],[136.923614,35.183339],[136.923738,35.183594],[136.923702,35.18359],[136.924387,35.1843],[136.924357,35.184493],[136.924275,35.185021],[136.923429,35.185228],[136.923168,35.18482],[136.923184,35.184807],[136.922942,35.184294],[136.922729,35.183816],[136.922559,35.183837],[136.922318,35.183812],[136.922302,35.183788]]]}},{"type":"Feature","properties":{"name":"飯田町","city":"名古屋市東区","code":"102","setai":110,"jinko":210,"n":1,"towns":["231020060"],"lx":136.918281,"ly":35.179175},"geometry":{"type":"Polygon","coordinates":[[[136.919038,35.179606],[136.919076,35.179279],[136.919201,35.1793],[136.919195,35.1794],[136.919713,35.17943],[136.919721,35.179374],[136.92014,35.1794],[136.920138,35.179454],[136.920357,35.179467],[136.920354,35.179525],[136.920756,35.179571],[136.920776,35.179443],[136.920727,35.179396],[136.92076,35.179163],[136.920389,35.179111],[136.919821,35.179032],[136.918824,35.1789],[136.918607,35.178869],[136.918371,35.178856],[136.917961,35.178834],[136.91712,35.178795],[136.916842,35.178776],[136.916143,35.178734],[136.916119,35.179157],[136.9168,35.179207],[136.916778,35.179451],[136.918152,35.179547],[136.919038,35.179606]]]}},{"type":"Feature","properties":{"name":"泉","city":"名古屋市東区","code":"102","setai":8145,"jinko":12622,"n":3,"towns":["23102007091","23102007092","23102007093"],"lx":136.914682,"ly":35.176542},"geometry":{"type":"Polygon","coordinates":[[[136.90826,35.178395],[136.908299,35.17818],[136.908423,35.177076],[136.908488,35.176389],[136.908501,35.176184],[136.908542,35.175754],[136.908582,35.175318],[136.9086,35.175195],[136.908645,35.174758],[136.908645,35.174754],[136.90872,35.173977],[136.909348,35.174016],[136.910106,35.174074],[136.91044,35.174087],[136.9116,35.174159],[136.912141,35.174189],[136.912352,35.174209],[136.91244,35.174218],[136.912986,35.174256],[136.914264,35.174331],[136.914442,35.174327],[136.915164,35.174347],[136.916322,35.174361],[136.916658,35.174362],[136.917187,35.174364],[136.917332,35.174365],[136.917336,35.174201],[136.917843,35.174201],[136.917843,35.174189],[136.918212,35.174195],[136.918295,35.174196],[136.918571,35.174199],[136.919164,35.174198],[136.919469,35.174206],[136.919471,35.174255],[136.919714,35.174781],[136.919848,35.175079],[136.920029,35.175452],[136.920037,35.175476],[136.920274,35.176013],[136.920366,35.176197],[136.920495,35.176495],[136.920646,35.176832],[136.92092,35.177431],[136.921142,35.177918],[136.921115,35.177921],[136.921134,35.17797],[136.92119,35.177997],[136.921392,35.178457],[136.921616,35.178964],[136.921674,35.179105],[136.921749,35.179284],[136.921056,35.179186],[136.921042,35.179181],[136.920818,35.179172],[136.92076,35.179163],[136.920389,35.179111],[136.919821,35.179032],[136.918824,35.1789],[136.918607,35.178869],[136.918371,35.178856],[136.917961,35.178834],[136.91712,35.178795],[136.916842,35.178776],[136.916143,35.178734],[136.91602,35.178731],[136.915802,35.178718],[136.915461,35.178697],[136.914901,35.178676],[136.913971,35.178616],[136.912621,35.178536],[136.912049,35.178493],[136.911209,35.178429],[136.910465,35.178378],[136.910454,35.178383],[136.909768,35.178325],[136.909514,35.178308],[136.909501,35.178468],[136.90826,35.178395]]]}},{"type":"Feature","properties":{"name":"大曽根","city":"名古屋市東区","code":"102","setai":116,"jinko":185,"n":2,"towns":["23102010091","23102010092"],"lx":136.928788,"ly":35.188768},"geometry":{"type":"MultiPolygon","coordinates":[[[[136.926641,35.188446],[136.92672,35.188446],[136.9274,35.188448],[136.928479,35.188451],[136.928788,35.188768],[136.928236,35.188869],[136.92752,35.189001],[136.927151,35.189031],[136.927122,35.188719],[136.926842,35.188723],[136.926717,35.188708],[136.926643,35.18869],[136.926642,35.188477],[136.926641,35.188446]]],[[[136.930275,35.188438],[136.931919,35.188432],[136.931911,35.18879],[136.931919,35.189277],[136.931924,35.189408],[136.931616,35.18924],[136.931517,35.189245],[136.931395,35.189252],[136.931351,35.189248],[136.931343,35.189073],[136.931226,35.189074],[136.93119,35.189074],[136.931173,35.188932],[136.930973,35.188946],[136.930981,35.188801],[136.930979,35.188767],[136.930529,35.188772],[136.930529,35.18874],[136.930528,35.18851],[136.930419,35.18851],[136.930275,35.188513],[136.930275,35.188438]]]]}},{"type":"Feature","properties":{"name":"大松町","city":"名古屋市東区","code":"102","setai":190,"jinko":429,"n":1,"towns":["231020120"],"lx":136.936263,"ly":35.179806},"geometry":{"type":"Polygon","coordinates":[[[136.936942,35.180145],[136.936935,35.17963],[136.936971,35.179675],[136.936961,35.179163],[136.936961,35.179161],[136.93696,35.179125],[136.936885,35.178583],[136.936739,35.178605],[136.936745,35.178629],[136.936042,35.178717],[136.935347,35.178828],[136.935421,35.179223],[136.935494,35.17947],[136.935526,35.179609],[136.935548,35.179704],[136.93557,35.179854],[136.935627,35.180066],[136.935694,35.180391],[136.935761,35.180737],[136.93583,35.181128],[136.936672,35.180999],[136.936961,35.180945],[136.936942,35.180145]]]}},{"type":"Feature","properties":{"name":"上竪杉町","city":"名古屋市東区","code":"102","setai":25,"jinko":54,"n":1,"towns":["231020130"],"lx":136.910891,"ly":35.179784},"geometry":{"type":"Polygon","coordinates":[[[136.910984,35.180747],[136.911009,35.180508],[136.911402,35.180525],[136.911411,35.180404],[136.911617,35.180407],[136.911627,35.180226],[136.911041,35.180186],[136.911098,35.179583],[136.911313,35.179604],[136.91134,35.179607],[136.911354,35.179438],[136.911399,35.179442],[136.911409,35.179354],[136.911562,35.179359],[136.911569,35.179252],[136.91158,35.179074],[136.911146,35.179045],[136.911197,35.178552],[136.911047,35.178546],[136.911029,35.1787],[136.910849,35.178691],[136.91083,35.17884],[136.910639,35.178822],[136.910621,35.179048],[136.910596,35.1792],[136.910554,35.179522],[136.910483,35.179533],[136.910492,35.179554],[136.910457,35.17989],[136.910619,35.179902],[136.910611,35.1801],[136.910588,35.180109],[136.910297,35.180089],[136.910227,35.180642],[136.910243,35.180696],[136.910984,35.180747]]]}},{"type":"Feature","properties":{"name":"車道町","city":"名古屋市東区","code":"102","setai":130,"jinko":262,"n":3,"towns":["23102014001","23102014002","23102014003"],"lx":136.93059,"ly":35.178155},"geometry":{"type":"Polygon","coordinates":[[[136.929457,35.176924],[136.929703,35.176861],[136.9298,35.177038],[136.929896,35.177006],[136.929922,35.17706],[136.930065,35.177326],[136.930131,35.17732],[136.930398,35.177264],[136.930576,35.177819],[136.930689,35.178015],[136.93074,35.178168],[136.930979,35.178124],[136.930969,35.178095],[136.931675,35.177954],[136.931715,35.178043],[136.931831,35.178453],[136.931848,35.178585],[136.931227,35.178672],[136.930521,35.178739],[136.930592,35.179043],[136.93076,35.179016],[136.930801,35.179331],[136.93086,35.17937],[136.930987,35.179354],[136.931009,35.179452],[136.930634,35.17951],[136.930429,35.179074],[136.930206,35.1786],[136.930136,35.178453],[136.929909,35.177947],[136.929742,35.177567],[136.929678,35.177414],[136.929457,35.176924]]]}},{"type":"Feature","properties":{"name":"黒門町","city":"名古屋市東区","code":"102","setai":472,"jinko":945,"n":1,"towns":["231020150"],"lx":136.932902,"ly":35.178048},"geometry":{"type":"Polygon","coordinates":[[[136.933052,35.179093],[136.933733,35.178991],[136.933861,35.178972],[136.934434,35.178906],[136.934611,35.178887],[136.93534,35.178794],[136.93525,35.178383],[136.935202,35.178134],[136.935162,35.177928],[136.934485,35.178037],[136.934423,35.177782],[136.934371,35.17779],[136.934395,35.177887],[136.934224,35.177911],[136.934166,35.177629],[136.93366,35.177707],[136.933742,35.177247],[136.933842,35.176846],[136.933605,35.176551],[136.933583,35.176556],[136.933274,35.17664],[136.93316,35.176663],[136.932778,35.176753],[136.932459,35.176828],[136.932334,35.176284],[136.931629,35.176396],[136.931697,35.176639],[136.931841,35.176983],[136.931842,35.177008],[136.931617,35.177054],[136.931653,35.177136],[136.931477,35.177172],[136.93158,35.1776],[136.931675,35.177954],[136.931715,35.178043],[136.931831,35.178453],[136.931848,35.178585],[136.931227,35.178672],[136.930521,35.178739],[136.930592,35.179043],[136.93076,35.179016],[136.930801,35.179331],[136.93086,35.17937],[136.930987,35.179354],[136.931966,35.179233],[136.932381,35.179181],[136.932696,35.179143],[136.933052,35.179093]]]}},{"type":"Feature","properties":{"name":"古出来","city":"名古屋市東区","code":"102","setai":473,"jinko":1006,"n":3,"towns":["23102016091","23102016092","23102016093"],"lx":136.939841,"ly":35.181738},"geometry":{"type":"Polygon","coordinates":[[[136.936935,35.17963],[136.936971,35.179675],[136.936979,35.180118],[136.937316,35.180401],[136.938361,35.180248],[136.938991,35.180072],[136.939192,35.180016],[136.940216,35.179728],[136.940318,35.180081],[136.940446,35.180486],[136.940404,35.180488],[136.940422,35.180549],[136.940476,35.180742],[136.940549,35.181009],[136.940559,35.181044],[136.940723,35.181559],[136.940724,35.181563],[136.940818,35.181913],[136.940875,35.182094],[136.940912,35.182212],[136.94099,35.182449],[136.941023,35.182548],[136.941051,35.182646],[136.941114,35.182869],[136.941253,35.183309],[136.941383,35.183285],[136.941722,35.183217],[136.941818,35.183216],[136.94183,35.183216],[136.941832,35.183197],[136.941854,35.183167],[136.942145,35.183173],[136.942116,35.183731],[136.941898,35.18371],[136.941912,35.183774],[136.941418,35.183759],[136.941463,35.183928],[136.941571,35.184271],[136.940446,35.184346],[136.940418,35.183934],[136.940393,35.183579],[136.940388,35.18351],[136.940351,35.182964],[136.940328,35.182636],[136.940324,35.18257],[136.939573,35.182612],[136.939548,35.182433],[136.939503,35.182114],[136.939447,35.181676],[136.938618,35.181762],[136.938567,35.181271],[136.938501,35.180751],[136.937325,35.180899],[136.937262,35.180907],[136.936961,35.180945],[136.936942,35.180145],[136.936935,35.17963]]]}},{"type":"Feature","properties":{"name":"三の丸","city":"名古屋市東区","code":"102","setai":26,"jinko":47,"n":2,"towns":["231020190","231020190"],"lx":136.908588,"ly":35.184248},"geometry":{"type":"MultiPolygon","coordinates":[[[[136.90737,35.185729],[136.908441,35.185653],[136.908501,35.185665],[136.908484,35.185777],[136.90848,35.186142],[136.908351,35.18615],[136.907761,35.186186],[136.907574,35.186197],[136.907432,35.186206],[136.907394,35.185862],[136.907377,35.185767],[136.90737,35.185729]]],[[[136.908523,35.184153],[136.908539,35.183852],[136.908604,35.183005],[136.908796,35.183002],[136.908778,35.183164],[136.90866,35.184219],[136.908648,35.184257],[136.908588,35.184248],[136.908591,35.184216],[136.908523,35.184153]]]]}},{"type":"Feature","properties":{"name":"橦木町","city":"名古屋市東区","code":"102","setai":764,"jinko":1709,"n":3,"towns":["23102020001","23102020002","23102020003"],"lx":136.916205,"ly":35.17992},"geometry":{"type":"Polygon","coordinates":[[[136.911041,35.180186],[136.911098,35.179583],[136.911313,35.179604],[136.91134,35.179607],[136.911354,35.179438],[136.911399,35.179442],[136.911409,35.179354],[136.911562,35.179359],[136.911569,35.179252],[136.91158,35.179074],[136.912589,35.17914],[136.913905,35.179234],[136.913899,35.179389],[136.914486,35.17942],[136.914506,35.179076],[136.915434,35.179117],[136.915775,35.179141],[136.916119,35.179157],[136.9168,35.179207],[136.916778,35.179451],[136.918152,35.179547],[136.919038,35.179606],[136.919076,35.179279],[136.919201,35.1793],[136.919195,35.1794],[136.919713,35.17943],[136.919721,35.179374],[136.92014,35.1794],[136.920138,35.179454],[136.920357,35.179467],[136.920354,35.179525],[136.920756,35.179571],[136.920741,35.179737],[136.920876,35.179753],[136.920863,35.179992],[136.920931,35.179997],[136.920925,35.180196],[136.921137,35.180202],[136.921127,35.180208],[136.921104,35.180557],[136.921051,35.180566],[136.921028,35.180832],[136.920292,35.180787],[136.920292,35.180777],[136.919838,35.180759],[136.919593,35.180744],[136.919554,35.180741],[136.919543,35.180747],[136.919205,35.180725],[136.919077,35.18072],[136.919035,35.180718],[136.919055,35.180521],[136.918941,35.180513],[136.918924,35.180713],[136.918452,35.180692],[136.918436,35.180633],[136.91807,35.180617],[136.918058,35.180725],[136.917707,35.180696],[136.917703,35.180626],[136.917381,35.1806],[136.917358,35.180712],[136.917197,35.180703],[136.917196,35.180575],[136.917055,35.180568],[136.917048,35.18044],[136.916683,35.18041],[136.91667,35.180542],[136.91614,35.180506],[136.915602,35.180469],[136.915296,35.180451],[136.913831,35.180361],[136.913392,35.180336],[136.913215,35.180318],[136.912192,35.180263],[136.911627,35.180226],[136.911041,35.180186]]]}},{"type":"Feature","properties":{"name":"白壁","city":"名古屋市東区","code":"102","setai":2756,"jinko":5886,"n":5,"towns":["23102021091","23102021092","23102021093","23102021094","23102021095"],"lx":136.914617,"ly":35.183666},"geometry":{"type":"Polygon","coordinates":[[[136.908441,35.185653],[136.908476,35.185395],[136.908503,35.18514],[136.908565,35.18449],[136.908588,35.184248],[136.908648,35.184257],[136.90866,35.184219],[136.908778,35.183164],[136.908796,35.183002],[136.909083,35.183009],[136.909089,35.182901],[136.909188,35.182137],[136.909199,35.182138],[136.909253,35.181706],[136.909303,35.181087],[136.909537,35.180678],[136.910251,35.180709],[136.910243,35.180696],[136.910984,35.180747],[136.911188,35.180761],[136.91117,35.181032],[136.911502,35.181058],[136.911493,35.181216],[136.912063,35.181249],[136.912053,35.181332],[136.912379,35.181364],[136.912368,35.181415],[136.913113,35.181461],[136.913707,35.181497],[136.916548,35.181694],[136.917063,35.181723],[136.917072,35.18156],[136.917306,35.181562],[136.917306,35.181563],[136.917712,35.181573],[136.917735,35.181573],[136.917722,35.181785],[136.91802,35.181794],[136.918029,35.181794],[136.918033,35.18176],[136.918737,35.181812],[136.918753,35.181813],[136.919184,35.181845],[136.919754,35.18188],[136.919793,35.181882],[136.920212,35.181908],[136.920223,35.181865],[136.920656,35.181887],[136.920646,35.181968],[136.92069,35.181971],[136.92068,35.182089],[136.920751,35.182122],[136.920925,35.182122],[136.920948,35.181901],[136.921438,35.181919],[136.921396,35.181764],[136.921764,35.181707],[136.921879,35.181959],[136.921955,35.182567],[136.922271,35.182585],[136.922325,35.182571],[136.922351,35.182688],[136.922414,35.182689],[136.922417,35.182689],[136.922415,35.182793],[136.922383,35.182793],[136.922389,35.18289],[136.922382,35.182891],[136.922332,35.182905],[136.922302,35.183788],[136.922318,35.183812],[136.921975,35.18379],[136.92087,35.183717],[136.919894,35.183658],[136.919239,35.183594],[136.919222,35.183595],[136.919375,35.184247],[136.919393,35.184248],[136.91941,35.184362],[136.919464,35.184748],[136.919495,35.185262],[136.919534,35.185828],[136.919557,35.186003],[136.919528,35.186005],[136.919556,35.186537],[136.919577,35.186983],[136.919597,35.187769],[136.919386,35.187666],[136.919321,35.187564],[136.919357,35.187522],[136.919333,35.187395],[136.919304,35.18707],[136.919047,35.187083],[136.918989,35.187085],[136.91873,35.187056],[136.918608,35.18662],[136.918525,35.186637],[136.918472,35.186614],[136.918308,35.186464],[136.918326,35.186427],[136.918168,35.18637],[136.918148,35.186294],[136.918137,35.186282],[136.918105,35.186244],[136.918021,35.186156],[136.917735,35.185922],[136.917562,35.185726],[136.91729,35.18555],[136.917112,35.185449],[136.917064,35.185423],[136.916656,35.185386],[136.916653,35.185408],[136.916583,35.185403],[136.916584,35.185389],[136.916521,35.185387],[136.916522,35.185377],[136.916522,35.185375],[136.91653,35.18525],[136.916527,35.18525],[136.916118,35.185221],[136.91608,35.185512],[136.916057,35.185682],[136.916032,35.185682],[136.915677,35.18567],[136.915646,35.185664],[136.915636,35.185756],[136.915206,35.185737],[136.915207,35.185608],[136.914875,35.185578],[136.914668,35.185568],[136.914646,35.185567],[136.914477,35.185559],[136.914509,35.18573],[136.913991,35.185832],[136.913458,35.185914],[136.913305,35.185931],[136.91324,35.185915],[136.912763,35.186011],[136.912729,35.185892],[136.912477,35.18593],[136.912453,35.185834],[136.912448,35.185813],[136.912266,35.185872],[136.912265,35.185874],[136.912291,35.185932],[136.912295,35.186014],[136.912077,35.186026],[136.911954,35.185859],[136.911954,35.185858],[136.911951,35.18584],[136.911813,35.185926],[136.9118,35.185934],[136.911555,35.185917],[136.911534,35.185954],[136.911404,35.18602],[136.911201,35.186123],[136.911153,35.186121],[136.911144,35.186226],[136.910997,35.186223],[136.910975,35.18622],[136.910948,35.186112],[136.910428,35.18609],[136.910012,35.186074],[136.909309,35.186064],[136.90921,35.186061],[136.90892,35.186055],[136.908864,35.186054],[136.908832,35.186075],[136.908814,35.186086],[136.908813,35.186087],[136.908777,35.18611],[136.908632,35.186098],[136.908498,35.186088],[136.90848,35.186142],[136.908484,35.185777],[136.908501,35.185665],[136.908441,35.185653]]]}},{"type":"Feature","properties":{"name":"新出来","city":"名古屋市東区","code":"102","setai":741,"jinko":1485,"n":2,"towns":["23102026091","23102026092"],"lx":136.931348,"ly":35.181805},"geometry":{"type":"Polygon","coordinates":[[[136.928803,35.180968],[136.93035,35.180666],[136.930463,35.180647],[136.930684,35.18061],[136.931111,35.180537],[136.93114,35.180533],[136.931861,35.180424],[136.933045,35.180245],[136.933326,35.180203],[136.93348,35.180737],[136.9335,35.180806],[136.933607,35.181219],[136.933719,35.181584],[136.933773,35.181794],[136.933902,35.182235],[136.933981,35.18249],[136.933965,35.1825],[136.933602,35.182551],[136.933574,35.182543],[136.9336,35.182737],[136.932175,35.182948],[136.93192,35.182983],[136.931905,35.182985],[136.931697,35.183015],[136.930315,35.183196],[136.930314,35.183213],[136.929509,35.183322],[136.929453,35.18333],[136.929034,35.183397],[136.928985,35.183206],[136.928899,35.182794],[136.929268,35.182749],[136.929069,35.181981],[136.92889,35.181335],[136.928886,35.181319],[136.928803,35.180968]]]}},{"type":"Feature","properties":{"name":"砂田橋","city":"名古屋市東区","code":"102","setai":3552,"jinko":7514,"n":5,"towns":["23102028091","23102028092","23102028093","23102028094","23102028095"],"lx":136.960378,"ly":35.188904},"geometry":{"type":"Polygon","coordinates":[[[136.954745,35.187354],[136.955221,35.187259],[136.955228,35.187282],[136.955965,35.187139],[136.956253,35.187084],[136.956634,35.18701],[136.957246,35.186892],[136.958021,35.186742],[136.958146,35.186709],[136.958202,35.186694],[136.958778,35.186615],[136.959461,35.186523],[136.959703,35.186491],[136.959984,35.186452],[136.960623,35.186361],[136.961276,35.186278],[136.961851,35.1862],[136.962531,35.186105],[136.963183,35.186007],[136.96432,35.185853],[136.964323,35.185867],[136.964979,35.185779],[136.964988,35.185765],[136.964916,35.185358],[136.96508,35.185438],[136.965434,35.185564],[136.96568,35.185632],[136.965648,35.185797],[136.964969,35.186286],[136.964954,35.186343],[136.96509,35.187123],[136.965283,35.188039],[136.965487,35.18911],[136.965529,35.189367],[136.96553,35.189372],[136.965566,35.189558],[136.965786,35.190787],[136.963004,35.190879],[136.962615,35.190912],[136.962009,35.190996],[136.961359,35.191086],[136.959719,35.191479],[136.958933,35.19173],[136.956341,35.19254],[136.956133,35.191733],[136.956062,35.191514],[136.955961,35.19119],[136.955864,35.190845],[136.955746,35.190478],[136.955627,35.190078],[136.955497,35.189624],[136.955361,35.189212],[136.955195,35.188683],[136.955163,35.188689],[136.955154,35.188632],[136.95505,35.188295],[136.954913,35.18784],[136.954844,35.187583],[136.954745,35.187354]]]}},{"type":"Feature","properties":{"name":"代官町","city":"名古屋市東区","code":"102","setai":2091,"jinko":4200,"n":1,"towns":["231020330"],"lx":136.922747,"ly":35.176528},"geometry":{"type":"Polygon","coordinates":[[[136.923414,35.179268],[136.923676,35.179261],[136.923877,35.179261],[136.924299,35.179232],[136.92436,35.17923],[136.924797,35.179082],[136.925395,35.178878],[136.925262,35.178591],[136.925218,35.178497],[136.925066,35.178146],[136.925056,35.178133],[136.925008,35.178067],[136.924998,35.178016],[136.924965,35.177845],[136.924956,35.177819],[136.924906,35.177546],[136.924932,35.17746],[136.925106,35.177434],[136.925077,35.177264],[136.925065,35.177112],[136.924994,35.176303],[136.924927,35.175811],[136.924907,35.175616],[136.924861,35.175169],[136.924834,35.174215],[136.92483,35.174141],[136.924396,35.174144],[136.92363,35.174162],[136.923534,35.174162],[136.923015,35.174173],[136.922587,35.174182],[136.922516,35.174183],[136.921967,35.174195],[136.921214,35.174199],[136.920685,35.174203],[136.920526,35.1742],[136.920254,35.174203],[136.919469,35.174206],[136.919471,35.174255],[136.919714,35.174781],[136.919848,35.175079],[136.920029,35.175452],[136.920037,35.175476],[136.920274,35.176013],[136.920366,35.176197],[136.920495,35.176495],[136.920646,35.176832],[136.92092,35.177431],[136.921142,35.177918],[136.921115,35.177921],[136.921134,35.17797],[136.92119,35.177997],[136.921392,35.178457],[136.921616,35.178964],[136.921674,35.179105],[136.921749,35.179284],[136.921773,35.179318],[136.92275,35.179272],[136.923414,35.179268]]]}},{"type":"Feature","properties":{"name":"大幸","city":"名古屋市東区","code":"102","setai":2021,"jinko":3702,"n":4,"towns":["23102034091","23102034092","23102034093","23102034094"],"lx":136.951177,"ly":35.191702},"geometry":{"type":"Polygon","coordinates":[[[136.945628,35.192144],[136.946166,35.192038],[136.946677,35.191937],[136.946535,35.191507],[136.9464,35.191086],[136.946247,35.190529],[136.946693,35.190431],[136.947436,35.190282],[136.948969,35.189964],[136.948963,35.189944],[136.949564,35.189828],[136.950163,35.189712],[136.950244,35.189705],[136.951518,35.189455],[136.952712,35.189203],[136.953901,35.188934],[136.955163,35.188689],[136.955195,35.188683],[136.955361,35.189212],[136.955497,35.189624],[136.955627,35.190078],[136.955746,35.190478],[136.955864,35.190845],[136.955961,35.19119],[136.956062,35.191514],[136.956133,35.191733],[136.956341,35.19254],[136.955986,35.192645],[136.955005,35.192967],[136.954072,35.19333],[136.953493,35.193559],[136.95311,35.193615],[136.951902,35.193825],[136.95139,35.193904],[136.950964,35.194018],[136.950694,35.19416],[136.950468,35.194326],[136.950045,35.194647],[136.949552,35.194276],[136.949484,35.194224],[136.949426,35.19419],[136.949265,35.194278],[136.949261,35.194104],[136.949198,35.194071],[136.949225,35.194028],[136.949085,35.193966],[136.948854,35.193915],[136.94875,35.193959],[136.948436,35.194009],[136.947857,35.194147],[136.9473,35.194285],[136.947035,35.194347],[136.946885,35.194322],[136.946747,35.19422],[136.946697,35.194079],[136.946609,35.19383],[136.946487,35.193505],[136.946331,35.193065],[136.946272,35.192853],[136.946111,35.192434],[136.94598,35.192333],[136.945665,35.192163],[136.945628,35.192144]]]}},{"type":"Feature","properties":{"name":"大幸南","city":"名古屋市東区","code":"102","setai":647,"jinko":1124,"n":2,"towns":["23102038091","23102038092"],"lx":136.949792,"ly":35.187398},"geometry":{"type":"Polygon","coordinates":[[[136.945184,35.184769],[136.945218,35.184726],[136.945752,35.184748],[136.946486,35.184774],[136.946942,35.184784],[136.947262,35.1848],[136.948004,35.184818],[136.948248,35.184819],[136.948492,35.184802],[136.948682,35.184799],[136.948919,35.184745],[136.949028,35.184745],[136.949426,35.184801],[136.949577,35.184814],[136.950155,35.184863],[136.950331,35.184882],[136.950597,35.184819],[136.950715,35.185167],[136.950865,35.185677],[136.951049,35.186287],[136.951734,35.186138],[136.95238,35.186002],[136.952482,35.185975],[136.953032,35.185869],[136.953427,35.185774],[136.953587,35.185743],[136.953797,35.185695],[136.954225,35.185605],[136.954388,35.186185],[136.954448,35.186403],[136.95448,35.186404],[136.954594,35.186818],[136.954603,35.186849],[136.954621,35.186912],[136.95463,35.186946],[136.954661,35.187056],[136.954745,35.187354],[136.954844,35.187583],[136.954913,35.18784],[136.95505,35.188295],[136.955154,35.188632],[136.955163,35.188689],[136.953901,35.188934],[136.952712,35.189203],[136.951518,35.189455],[136.950244,35.189705],[136.950163,35.189712],[136.949564,35.189828],[136.948963,35.189944],[136.948969,35.189964],[136.947436,35.190282],[136.946693,35.190431],[136.946563,35.18998],[136.946365,35.189313],[136.946262,35.188965],[136.946343,35.188614],[136.946385,35.188616],[136.945559,35.185965],[136.945455,35.185616],[136.945337,35.185241],[136.945235,35.184922],[136.945184,35.184769]]]}},{"type":"Feature","properties":{"name":"主税町","city":"名古屋市東区","code":"102","setai":451,"jinko":1024,"n":3,"towns":["23102040002","23102040003","23102040004"],"lx":136.916425,"ly":35.181094},"geometry":{"type":"Polygon","coordinates":[[[136.910984,35.180747],[136.911009,35.180508],[136.911402,35.180525],[136.911411,35.180404],[136.911617,35.180407],[136.911627,35.180226],[136.912192,35.180263],[136.913215,35.180318],[136.913392,35.180336],[136.913831,35.180361],[136.915296,35.180451],[136.915602,35.180469],[136.91614,35.180506],[136.91667,35.180542],[136.916683,35.18041],[136.917048,35.18044],[136.917055,35.180568],[136.917196,35.180575],[136.917197,35.180703],[136.917358,35.180712],[136.917381,35.1806],[136.917703,35.180626],[136.917707,35.180696],[136.918058,35.180725],[136.91807,35.180617],[136.918436,35.180633],[136.918452,35.180692],[136.918924,35.180713],[136.918941,35.180513],[136.919055,35.180521],[136.919035,35.180718],[136.919077,35.18072],[136.919205,35.180725],[136.919543,35.180747],[136.919554,35.180741],[136.919593,35.180744],[136.919838,35.180759],[136.920292,35.180777],[136.920292,35.180787],[136.921028,35.180832],[136.921408,35.180851],[136.921406,35.180971],[136.921342,35.18098],[136.921331,35.181205],[136.921446,35.181218],[136.921443,35.181422],[136.921498,35.181432],[136.921807,35.181432],[136.921807,35.181694],[136.921764,35.181707],[136.921396,35.181764],[136.921438,35.181919],[136.920948,35.181901],[136.920925,35.182122],[136.920751,35.182122],[136.92068,35.182089],[136.92069,35.181971],[136.920646,35.181968],[136.920656,35.181887],[136.920223,35.181865],[136.920212,35.181908],[136.919793,35.181882],[136.919754,35.18188],[136.919184,35.181845],[136.918753,35.181813],[136.918737,35.181812],[136.918033,35.18176],[136.918029,35.181794],[136.91802,35.181794],[136.917722,35.181785],[136.917735,35.181573],[136.917712,35.181573],[136.917306,35.181563],[136.917306,35.181562],[136.917072,35.18156],[136.917063,35.181723],[136.916548,35.181694],[136.913707,35.181497],[136.913113,35.181461],[136.912368,35.181415],[136.912379,35.181364],[136.912053,35.181332],[136.912063,35.181249],[136.911493,35.181216],[136.911502,35.181058],[136.91117,35.181032],[136.911188,35.180761],[136.910984,35.180747]]]}},{"type":"Feature","properties":{"name":"筒井町","city":"名古屋市東区","code":"102","setai":127,"jinko":218,"n":1,"towns":["231020410"],"lx":136.930882,"ly":35.177178},"geometry":{"type":"Polygon","coordinates":[[[136.93158,35.1776],[136.931477,35.177172],[136.931653,35.177136],[136.931617,35.177054],[136.931842,35.177008],[136.931841,35.176983],[136.931697,35.176639],[136.931629,35.176396],[136.931276,35.176454],[136.930773,35.176543],[136.930461,35.176596],[136.929385,35.176777],[136.929457,35.176924],[136.929703,35.176861],[136.9298,35.177038],[136.929896,35.177006],[136.929922,35.17706],[136.930065,35.177326],[136.930131,35.17732],[136.930398,35.177264],[136.930576,35.177819],[136.930689,35.178015],[136.93074,35.178168],[136.930979,35.178124],[136.930969,35.178095],[136.931675,35.177954],[136.93158,35.1776]]]}},{"type":"Feature","properties":{"name":"筒井","city":"名古屋市東区","code":"102","setai":2785,"jinko":4945,"n":3,"towns":["23102042091","23102042092","23102042093"],"lx":136.928871,"ly":35.176666},"geometry":{"type":"Polygon","coordinates":[[[136.92483,35.174141],[136.924893,35.174133],[136.925131,35.174094],[136.92527,35.174072],[136.925374,35.174061],[136.925817,35.173992],[136.925885,35.173983],[136.926396,35.17391],[136.927158,35.173806],[136.927408,35.17376],[136.92773,35.173715],[136.927737,35.17373],[136.927927,35.173701],[136.927987,35.173683],[136.928193,35.173654],[136.928247,35.173646],[136.928267,35.173644],[136.928498,35.173617],[136.92914,35.173517],[136.929438,35.173506],[136.929425,35.173475],[136.929797,35.173418],[136.93066,35.173282],[136.930901,35.173247],[136.93186,35.173104],[136.932065,35.173075],[136.932493,35.172911],[136.9327,35.172849],[136.933495,35.173686],[136.933502,35.173694],[136.934272,35.174504],[136.934327,35.17456],[136.935123,35.175364],[136.93454,35.17559],[136.934223,35.175721],[136.933534,35.176003],[136.933447,35.176081],[136.933113,35.176139],[136.932719,35.176205],[136.932334,35.176284],[136.931629,35.176396],[136.931276,35.176454],[136.930773,35.176543],[136.930461,35.176596],[136.929385,35.176777],[136.929457,35.176924],[136.929678,35.177414],[136.929742,35.177567],[136.929909,35.177947],[136.930136,35.178453],[136.930206,35.1786],[136.930429,35.179074],[136.930634,35.17951],[136.93072,35.179679],[136.930992,35.180255],[136.931111,35.180537],[136.930684,35.18061],[136.930463,35.180647],[136.93035,35.180666],[136.928803,35.180968],[136.928582,35.181011],[136.928023,35.181119],[136.926593,35.181411],[136.926555,35.181418],[136.926037,35.180284],[136.925552,35.179221],[136.925414,35.17892],[136.925395,35.178878],[136.925262,35.178591],[136.925218,35.178497],[136.925066,35.178146],[136.925056,35.178133],[136.925008,35.178067],[136.924998,35.178016],[136.924965,35.177845],[136.924956,35.177819],[136.924906,35.177546],[136.924932,35.17746],[136.925106,35.177434],[136.925077,35.177264],[136.925065,35.177112],[136.924994,35.176303],[136.924927,35.175811],[136.924907,35.175616],[136.924861,35.175169],[136.924834,35.174215],[136.92483,35.174141]]]}},{"type":"Feature","properties":{"name":"出来町","city":"名古屋市東区","code":"102","setai":1163,"jinko":2293,"n":3,"towns":["23102045091","23102045092","23102045093"],"lx":136.937101,"ly":35.182747},"geometry":{"type":"Polygon","coordinates":[[[136.933326,35.180203],[136.933333,35.180201],[136.934191,35.18007],[136.935362,35.179891],[136.93557,35.179854],[136.935627,35.180066],[136.935694,35.180391],[136.935761,35.180737],[136.93583,35.181128],[136.936672,35.180999],[136.936961,35.180945],[136.937262,35.180907],[136.937325,35.180899],[136.938501,35.180751],[136.938567,35.181271],[136.938618,35.181762],[136.939447,35.181676],[136.939503,35.182114],[136.939548,35.182433],[136.939573,35.182612],[136.940324,35.18257],[136.940328,35.182636],[136.940351,35.182964],[136.940388,35.18351],[136.940393,35.183579],[136.940418,35.183934],[136.940446,35.184346],[136.940432,35.184347],[136.939439,35.184607],[136.939572,35.184972],[136.938889,35.185154],[136.938854,35.185165],[136.938881,35.185225],[136.938427,35.185181],[136.938375,35.185318],[136.938231,35.185395],[136.938117,35.185419],[136.937884,35.18541],[136.937362,35.18539],[136.937353,35.186032],[136.937244,35.186063],[136.937226,35.18601],[136.936904,35.186095],[136.936915,35.185877],[136.936922,35.185743],[136.936922,35.185707],[136.936924,35.185579],[136.936786,35.185577],[136.936788,35.185632],[136.936371,35.185636],[136.93635,35.18551],[136.936322,35.185245],[136.936295,35.184841],[136.936263,35.18464],[136.936234,35.184292],[136.936156,35.183707],[136.936132,35.183435],[136.936106,35.183135],[136.936092,35.182981],[136.936054,35.182724],[136.936051,35.182699],[136.936021,35.182465],[136.934516,35.182636],[136.934561,35.18281],[136.934469,35.182832],[136.934106,35.182874],[136.933965,35.1825],[136.933981,35.18249],[136.933902,35.182235],[136.933773,35.181794],[136.933719,35.181584],[136.933607,35.181219],[136.9335,35.180806],[136.93348,35.180737],[136.933326,35.180203]]]}},{"type":"Feature","properties":{"name":"徳川町","city":"名古屋市東区","code":"102","setai":1040,"jinko":2363,"n":1,"towns":["231020480"],"lx":136.931812,"ly":35.184578},"geometry":{"type":"Polygon","coordinates":[[[136.931916,35.186275],[136.93346,35.186094],[136.933476,35.186096],[136.93412,35.186018],[136.93471,35.185951],[136.934722,35.185949],[136.935032,35.185914],[136.936372,35.185763],[136.936392,35.185761],[136.936371,35.185636],[136.93635,35.18551],[136.936322,35.185245],[136.936295,35.184841],[136.936263,35.18464],[136.936234,35.184292],[136.935412,35.184334],[136.934667,35.184377],[136.934596,35.183832],[136.93453,35.183309],[136.934469,35.182832],[136.934106,35.182874],[136.933965,35.1825],[136.933602,35.182551],[136.933574,35.182543],[136.9336,35.182737],[136.932175,35.182948],[136.93192,35.182983],[136.931905,35.182985],[136.931697,35.183015],[136.930315,35.183196],[136.930314,35.183213],[136.929509,35.183322],[136.929453,35.18333],[136.929034,35.183397],[136.928985,35.183206],[136.928899,35.182794],[136.928188,35.18287],[136.927999,35.182888],[136.927256,35.182964],[136.927097,35.182984],[136.927394,35.183459],[136.927443,35.183531],[136.927478,35.183586],[136.927608,35.183793],[136.927622,35.183833],[136.927858,35.184203],[136.927929,35.184311],[136.928009,35.184447],[136.928228,35.184793],[136.928481,35.185196],[136.928931,35.185649],[136.928977,35.185698],[136.929257,35.18596],[136.929328,35.186034],[136.929816,35.186505],[136.92984,35.18652],[136.930821,35.186403],[136.930822,35.186393],[136.931899,35.186277],[136.931916,35.186275]]]}},{"type":"Feature","properties":{"name":"徳川","city":"名古屋市東区","code":"102","setai":1902,"jinko":3891,"n":2,"towns":["23102049091","23102049092"],"lx":136.925574,"ly":35.184198},"geometry":{"type":"Polygon","coordinates":[[[136.921773,35.179318],[136.92275,35.179272],[136.923414,35.179268],[136.923676,35.179261],[136.923877,35.179261],[136.924299,35.179232],[136.92436,35.17923],[136.924797,35.179082],[136.925395,35.178878],[136.925414,35.17892],[136.925552,35.179221],[136.926037,35.180284],[136.926555,35.181418],[136.926593,35.181411],[136.928023,35.181119],[136.928582,35.181011],[136.928803,35.180968],[136.928886,35.181319],[136.92889,35.181335],[136.929069,35.181981],[136.929268,35.182749],[136.928899,35.182794],[136.928188,35.18287],[136.927999,35.182888],[136.927256,35.182964],[136.927097,35.182984],[136.926922,35.183011],[136.926875,35.182791],[136.926312,35.182871],[136.925525,35.182997],[136.924705,35.183124],[136.924655,35.183082],[136.924633,35.182996],[136.924603,35.182887],[136.924439,35.182916],[136.924447,35.18294],[136.924302,35.18297],[136.924356,35.183156],[136.924089,35.183222],[136.92418,35.183492],[136.924306,35.183462],[136.924468,35.183749],[136.924711,35.183646],[136.924684,35.183615],[136.924878,35.183458],[136.925231,35.183837],[136.925574,35.184198],[136.925991,35.184615],[136.926274,35.184912],[136.926528,35.18518],[136.926794,35.18546],[136.927321,35.185211],[136.928228,35.184793],[136.928481,35.185196],[136.928931,35.185649],[136.928977,35.185698],[136.929257,35.18596],[136.929328,35.186034],[136.929816,35.186505],[136.92984,35.18652],[136.929985,35.186721],[136.930036,35.186917],[136.930092,35.187073],[136.930144,35.187289],[136.930144,35.187308],[136.93016,35.187818],[136.93017,35.188159],[136.930175,35.188388],[136.930176,35.188416],[136.930176,35.188476],[136.930177,35.188493],[136.930177,35.188526],[136.930178,35.188569],[136.929802,35.188569],[136.929296,35.188566],[136.929056,35.188683],[136.928818,35.188759],[136.928788,35.188768],[136.928479,35.188451],[136.928236,35.188201],[136.9279,35.187856],[136.927552,35.187504],[136.927517,35.187509],[136.926988,35.186964],[136.926342,35.186298],[136.926268,35.186188],[136.925854,35.185751],[136.925742,35.185632],[136.925215,35.18509],[136.92472,35.18459],[136.924486,35.184354],[136.924387,35.1843],[136.923702,35.18359],[136.923738,35.183594],[136.923614,35.183339],[136.923402,35.182848],[136.92318,35.182377],[136.923154,35.182367],[136.923157,35.182363],[136.922906,35.181842],[136.922733,35.181434],[136.922471,35.180875],[136.922324,35.180564],[136.922148,35.180188],[136.92213,35.180149],[136.922005,35.179847],[136.921773,35.179318]]]}},{"type":"Feature","properties":{"name":"豊前町","city":"名古屋市東区","code":"102","setai":710,"jinko":1403,"n":3,"towns":["23102051001","23102051002","23102051003"],"lx":136.934965,"ly":35.177068},"geometry":{"type":"Polygon","coordinates":[[[136.932334,35.176284],[136.932719,35.176205],[136.933113,35.176139],[136.933447,35.176081],[136.933534,35.176003],[136.934223,35.175721],[136.93454,35.17559],[136.935123,35.175364],[136.935369,35.175699],[136.935685,35.176129],[136.936213,35.176848],[136.936241,35.176885],[136.936278,35.176936],[136.936411,35.177226],[136.936444,35.1773],[136.9365,35.177423],[136.93662,35.177686],[136.936745,35.178134],[136.936854,35.178524],[136.936885,35.178583],[136.936739,35.178605],[136.936745,35.178629],[136.936042,35.178717],[136.935347,35.178828],[136.93534,35.178794],[136.93525,35.178383],[136.935202,35.178134],[136.935162,35.177928],[136.934485,35.178037],[136.934423,35.177782],[136.934371,35.17779],[136.934395,35.177887],[136.934224,35.177911],[136.934166,35.177629],[136.93366,35.177707],[136.933742,35.177247],[136.933842,35.176846],[136.933605,35.176551],[136.933583,35.176556],[136.933274,35.17664],[136.93316,35.176663],[136.932778,35.176753],[136.932459,35.176828],[136.932334,35.176284]]]}},{"type":"Feature","properties":{"name":"西新町","city":"名古屋市東区","code":"102","setai":0,"jinko":0,"n":1,"towns":["231020520"],"lx":136.912699,"ly":35.170005},"geometry":{"type":"Polygon","coordinates":[[[136.913038,35.170156],[136.912962,35.16989],[136.91243,35.169837],[136.912383,35.170118],[136.913038,35.170156]]]}},{"type":"Feature","properties":{"name":"東大曽根町","city":"名古屋市東区","code":"102","setai":1757,"jinko":3064,"n":1,"towns":["231020530"],"lx":136.934036,"ly":35.187887},"geometry":{"type":"Polygon","coordinates":[[[136.937042,35.190179],[136.937042,35.188939],[136.937017,35.187797],[136.936961,35.187794],[136.936952,35.187975],[136.936908,35.187975],[136.936911,35.187362],[136.936904,35.186095],[136.936915,35.185877],[136.936922,35.185743],[136.936922,35.185707],[136.936924,35.185579],[136.936786,35.185577],[136.936788,35.185632],[136.936371,35.185636],[136.936392,35.185761],[136.936372,35.185763],[136.935032,35.185914],[136.934722,35.185949],[136.93471,35.185951],[136.93412,35.186018],[136.933476,35.186096],[136.93346,35.186094],[136.931916,35.186275],[136.931899,35.186277],[136.930822,35.186393],[136.930821,35.186403],[136.92984,35.18652],[136.929985,35.186721],[136.930036,35.186917],[136.930092,35.187073],[136.930144,35.187289],[136.930144,35.187308],[136.93016,35.187818],[136.93017,35.188159],[136.930175,35.188388],[136.930276,35.188386],[136.930275,35.188438],[136.931919,35.188432],[136.931911,35.18879],[136.931919,35.189277],[136.931924,35.189408],[136.932559,35.189755],[136.932631,35.189794],[136.93278,35.189871],[136.932878,35.189893],[136.932932,35.189905],[136.933064,35.189924],[136.933543,35.189923],[136.93461,35.189846],[136.935243,35.189799],[136.935474,35.189773],[136.935561,35.189768],[136.935595,35.189766],[136.936042,35.189731],[136.936201,35.18993],[136.936219,35.189954],[136.936403,35.190196],[136.936515,35.1906],[136.936533,35.190664],[136.93654,35.190868],[136.936867,35.190877],[136.937,35.190884],[136.937038,35.190883],[136.937042,35.190179]]]}},{"type":"Feature","properties":{"name":"東片端町","city":"名古屋市東区","code":"102","setai":222,"jinko":328,"n":1,"towns":["231020580"],"lx":136.913263,"ly":35.178856},"geometry":{"type":"Polygon","coordinates":[[[136.914486,35.17942],[136.914506,35.179076],[136.915434,35.179117],[136.915775,35.179141],[136.916119,35.179157],[136.916143,35.178734],[136.91602,35.178731],[136.915802,35.178718],[136.915461,35.178697],[136.914901,35.178676],[136.913971,35.178616],[136.912621,35.178536],[136.912049,35.178493],[136.911209,35.178429],[136.910465,35.178378],[136.910442,35.178488],[136.910414,35.178799],[136.910639,35.178822],[136.91083,35.17884],[136.910849,35.178691],[136.911029,35.1787],[136.911047,35.178546],[136.911197,35.178552],[136.911146,35.179045],[136.91158,35.179074],[136.912589,35.17914],[136.913905,35.179234],[136.913899,35.179389],[136.914486,35.17942]]]}},{"type":"Feature","properties":{"name":"東桜","city":"名古屋市東区","code":"102","setai":2365,"jinko":3458,"n":2,"towns":["23102059091","23102059092"],"lx":136.914183,"ly":35.172175},"geometry":{"type":"Polygon","coordinates":[[[136.90872,35.173977],[136.908791,35.173798],[136.908889,35.172785],[136.90889,35.172779],[136.908986,35.171859],[136.909077,35.171061],[136.909095,35.170886],[136.909179,35.170063],[136.909194,35.169919],[136.909654,35.169942],[136.909924,35.169951],[136.910541,35.170012],[136.912383,35.170118],[136.913038,35.170156],[136.913067,35.170158],[136.914502,35.170275],[136.914526,35.169835],[136.914757,35.169867],[136.915129,35.169887],[136.915107,35.170121],[136.915206,35.170134],[136.915206,35.170135],[136.915226,35.170184],[136.915382,35.170193],[136.91543,35.170196],[136.915441,35.170126],[136.915482,35.169854],[136.915483,35.169854],[136.91554,35.169843],[136.915648,35.169822],[136.915662,35.169819],[136.915742,35.170027],[136.916064,35.169968],[136.916113,35.169961],[136.916121,35.169961],[136.916123,35.169943],[136.916355,35.169956],[136.916357,35.169912],[136.916501,35.169926],[136.91655,35.16993],[136.916541,35.170035],[136.916531,35.170152],[136.916526,35.170205],[136.917007,35.170214],[136.91703,35.170214],[136.917028,35.170024],[136.917387,35.170019],[136.917394,35.170008],[136.917595,35.169951],[136.917668,35.170119],[136.917747,35.170299],[136.917763,35.170328],[136.918022,35.170319],[136.918136,35.170284],[136.918201,35.170245],[136.918265,35.170212],[136.918191,35.170116],[136.918113,35.170028],[136.91824,35.169954],[136.918387,35.17012],[136.918448,35.170115],[136.918583,35.170103],[136.918663,35.170102],[136.918677,35.170102],[136.918667,35.170201],[136.918666,35.170206],[136.918875,35.170232],[136.918867,35.170529],[136.918866,35.170589],[136.919159,35.170606],[136.919165,35.170274],[136.919275,35.170243],[136.919318,35.170233],[136.919336,35.170728],[136.919385,35.172056],[136.9194,35.172515],[136.919423,35.173108],[136.919421,35.173303],[136.919469,35.174206],[136.919164,35.174198],[136.918571,35.174199],[136.918295,35.174196],[136.918212,35.174195],[136.917843,35.174189],[136.917843,35.174201],[136.917336,35.174201],[136.917332,35.174365],[136.917187,35.174364],[136.916658,35.174362],[136.916322,35.174361],[136.915164,35.174347],[136.914442,35.174327],[136.914264,35.174331],[136.912986,35.174256],[136.91244,35.174218],[136.912352,35.174209],[136.912141,35.174189],[136.9116,35.174159],[136.91044,35.174087],[136.910106,35.174074],[136.909348,35.174016],[136.90872,35.173977]]]}},{"type":"Feature","properties":{"name":"東新町","city":"名古屋市東区","code":"102","setai":0,"jinko":0,"n":1,"towns":["231020610"],"lx":136.913796,"ly":35.169965},"geometry":{"type":"Polygon","coordinates":[[[136.914526,35.169835],[136.914534,35.169713],[136.913867,35.169677],[136.913856,35.169765],[136.912992,35.169712],[136.912962,35.169886],[136.912962,35.16989],[136.913038,35.170156],[136.913067,35.170158],[136.914502,35.170275],[136.914526,35.169835]]]}},{"type":"Feature","properties":{"name":"東外堀町","city":"名古屋市東区","code":"102","setai":117,"jinko":196,"n":1,"towns":["231020620"],"lx":136.909756,"ly":35.179867},"geometry":{"type":"Polygon","coordinates":[[[136.909303,35.181087],[136.909537,35.180678],[136.910251,35.180709],[136.910243,35.180696],[136.910227,35.180642],[136.910297,35.180089],[136.910588,35.180109],[136.910611,35.1801],[136.910619,35.179902],[136.910457,35.17989],[136.910492,35.179554],[136.910483,35.179533],[136.910554,35.179522],[136.910596,35.1792],[136.910621,35.179048],[136.910639,35.178822],[136.910414,35.178799],[136.910442,35.178488],[136.910465,35.178378],[136.910454,35.178383],[136.909768,35.178325],[136.909514,35.178308],[136.909501,35.178468],[136.909334,35.179961],[136.909113,35.179942],[136.90884,35.182105],[136.909188,35.182137],[136.909199,35.182138],[136.909253,35.181706],[136.909303,35.181087]]]}},{"type":"Feature","properties":{"name":"久屋町","city":"名古屋市東区","code":"102","setai":1,"jinko":3,"n":1,"towns":["231020630"],"lx":136.909432,"ly":35.169798},"geometry":{"type":"Polygon","coordinates":[[[136.909654,35.169942],[136.909671,35.169684],[136.909216,35.169647],[136.909194,35.169919],[136.909654,35.169942]]]}},{"type":"Feature","properties":{"name":"百人町","city":"名古屋市東区","code":"102","setai":380,"jinko":704,"n":1,"towns":["231020640"],"lx":136.933139,"ly":35.17965},"geometry":{"type":"Polygon","coordinates":[[[136.935347,35.178828],[136.93534,35.178794],[136.934611,35.178887],[136.934434,35.178906],[136.933861,35.178972],[136.933733,35.178991],[136.933052,35.179093],[136.932696,35.179143],[136.932381,35.179181],[136.931966,35.179233],[136.930987,35.179354],[136.931009,35.179452],[136.930634,35.17951],[136.93072,35.179679],[136.930992,35.180255],[136.931111,35.180537],[136.93114,35.180533],[136.931861,35.180424],[136.933045,35.180245],[136.933326,35.180203],[136.933333,35.180201],[136.934191,35.18007],[136.935362,35.179891],[136.93557,35.179854],[136.935548,35.179704],[136.935526,35.179609],[136.935494,35.17947],[136.935421,35.179223],[136.935347,35.178828]]]}},{"type":"Feature","properties":{"name":"武平町","city":"名古屋市東区","code":"102","setai":0,"jinko":0,"n":1,"towns":["231020650"],"lx":136.910252,"ly":35.169809},"geometry":{"type":"Polygon","coordinates":[[[136.910541,35.170012],[136.910568,35.169655],[136.909962,35.169616],[136.909924,35.169951],[136.910541,35.170012]]]}},{"type":"Feature","properties":{"name":"前浪町","city":"名古屋市東区","code":"102","setai":428,"jinko":806,"n":1,"towns":["231020660"],"lx":136.95242,"ly":35.185215},"geometry":{"type":"Polygon","coordinates":[[[136.953927,35.184493],[136.953844,35.184161],[136.953275,35.184274],[136.952974,35.184334],[136.952663,35.184396],[136.952022,35.184523],[136.95142,35.184642],[136.951265,35.184673],[136.950597,35.184819],[136.950715,35.185167],[136.950865,35.185677],[136.951049,35.186287],[136.951734,35.186138],[136.95238,35.186002],[136.952482,35.185975],[136.953032,35.185869],[136.953427,35.185774],[136.953587,35.185743],[136.953797,35.185695],[136.954225,35.185605],[136.954216,35.185569],[136.954091,35.185106],[136.954002,35.184819],[136.953927,35.184493]]]}},{"type":"Feature","properties":{"name":"明倫町","city":"名古屋市東区","code":"102","setai":233,"jinko":610,"n":1,"towns":["231020670"],"lx":136.935352,"ly":35.183444},"geometry":{"type":"Polygon","coordinates":[[[136.936051,35.182699],[136.936021,35.182465],[136.934516,35.182636],[136.934561,35.18281],[136.934469,35.182832],[136.93453,35.183309],[136.934596,35.183832],[136.934667,35.184377],[136.935412,35.184334],[136.936234,35.184292],[136.936156,35.183707],[136.936132,35.183435],[136.936106,35.183135],[136.936092,35.182981],[136.936054,35.182724],[136.936051,35.182699]]]}},{"type":"Feature","properties":{"name":"矢田町","city":"名古屋市東区","code":"102","setai":0,"jinko":0,"n":1,"towns":["231020680"],"lx":136.94692,"ly":35.196601},"geometry":{"type":"Polygon","coordinates":[[[136.944005,35.199238],[136.94409,35.199154],[136.944438,35.198875],[136.944623,35.198743],[136.944934,35.198558],[136.945354,35.198303],[136.945596,35.198165],[136.946601,35.197555],[136.947089,35.197182],[136.94773,35.19654],[136.948109,35.196177],[136.948235,35.196067],[136.949042,35.19545],[136.94955,35.195068],[136.950045,35.194647],[136.949552,35.194276],[136.949484,35.194224],[136.949426,35.19419],[136.949265,35.194278],[136.94876,35.194554],[136.947676,35.19528],[136.946546,35.196106],[136.946795,35.196322],[136.946716,35.196459],[136.946488,35.196863],[136.946324,35.197064],[136.946133,35.19722],[136.946002,35.197304],[136.945772,35.197388],[136.945768,35.197387],[136.94577,35.197392],[136.944657,35.197798],[136.944397,35.197897],[136.943486,35.198994],[136.943938,35.199305],[136.944005,35.199238]]]}},{"type":"Feature","properties":{"name":"矢田東","city":"名古屋市東区","code":"102","setai":264,"jinko":488,"n":1,"towns":["231020690"],"lx":136.945457,"ly":35.191332},"geometry":{"type":"Polygon","coordinates":[[[136.9464,35.191086],[136.946247,35.190529],[136.945899,35.190601],[136.945734,35.190635],[136.945338,35.190732],[136.944938,35.190808],[136.944739,35.190836],[136.943649,35.191063],[136.943651,35.191065],[136.943823,35.191167],[136.944682,35.191634],[136.944803,35.191699],[136.945243,35.191936],[136.945281,35.191957],[136.945628,35.192144],[136.946166,35.192038],[136.946677,35.191937],[136.946535,35.191507],[136.9464,35.191086]]]}},{"type":"Feature","properties":{"name":"矢田南","city":"名古屋市東区","code":"102","setai":910,"jinko":1916,"n":5,"towns":["23102070091","23102070092","23102070093","23102070094","23102070095"],"lx":136.941503,"ly":35.187922},"geometry":{"type":"Polygon","coordinates":[[[136.93654,35.190868],[136.936867,35.190877],[136.937,35.190884],[136.937038,35.190883],[136.937042,35.190179],[136.937042,35.188939],[136.937017,35.187797],[136.936961,35.187794],[136.936952,35.187975],[136.936908,35.187975],[136.936911,35.187362],[136.936904,35.186095],[136.937226,35.18601],[136.937244,35.186063],[136.937353,35.186032],[136.937362,35.18539],[136.937884,35.18541],[136.938117,35.185419],[136.938231,35.185395],[136.938375,35.185318],[136.938427,35.185181],[136.938881,35.185225],[136.938854,35.185165],[136.938889,35.185154],[136.939572,35.184972],[136.939439,35.184607],[136.940432,35.184347],[136.940446,35.184346],[136.941571,35.184271],[136.941463,35.183928],[136.941418,35.183759],[136.941912,35.183774],[136.941898,35.18371],[136.942116,35.183731],[136.942145,35.183173],[136.942522,35.183181],[136.942565,35.183182],[136.94292,35.183192],[136.943329,35.183203],[136.943369,35.183204],[136.943881,35.183206],[136.944042,35.183236],[136.944233,35.183239],[136.944443,35.183242],[136.94484,35.18326],[136.944991,35.183825],[136.94511,35.184297],[136.945218,35.184726],[136.945184,35.184769],[136.945235,35.184922],[136.945337,35.185241],[136.945455,35.185616],[136.945559,35.185965],[136.946385,35.188616],[136.946343,35.188614],[136.946262,35.188965],[136.946365,35.189313],[136.946563,35.18998],[136.946693,35.190431],[136.946247,35.190529],[136.945899,35.190601],[136.945734,35.190635],[136.945338,35.190732],[136.944938,35.190808],[136.944739,35.190836],[136.943649,35.191063],[136.943633,35.191016],[136.943266,35.191094],[136.943256,35.191096],[136.942864,35.19118],[136.942477,35.191263],[136.942046,35.191356],[136.942041,35.191357],[136.941592,35.191455],[136.941336,35.19151],[136.941115,35.191542],[136.940793,35.191588],[136.940238,35.191677],[136.940093,35.191698],[136.939653,35.191791],[136.938692,35.191993],[136.938686,35.191994],[136.938223,35.192066],[136.937981,35.192103],[136.937983,35.192111],[136.937918,35.192124],[136.937836,35.192141],[136.937835,35.192138],[136.937317,35.192248],[136.937095,35.192295],[136.936914,35.192334],[136.936593,35.192402],[136.936567,35.191636],[136.936562,35.191511],[136.936542,35.190916],[136.93654,35.190868]]]}},{"type":"Feature","properties":{"name":"山口町","city":"名古屋市東区","code":"102","setai":353,"jinko":737,"n":2,"towns":["23102075000","23102075090"],"lx":136.926425,"ly":35.183958},"geometry":{"type":"Polygon","coordinates":[[[136.924089,35.183222],[136.924356,35.183156],[136.924302,35.18297],[136.924447,35.18294],[136.924439,35.182916],[136.924603,35.182887],[136.924633,35.182996],[136.924655,35.183082],[136.924705,35.183124],[136.925525,35.182997],[136.926312,35.182871],[136.926875,35.182791],[136.926922,35.183011],[136.927097,35.182984],[136.927394,35.183459],[136.927443,35.183531],[136.927478,35.183586],[136.927608,35.183793],[136.927622,35.183833],[136.927858,35.184203],[136.927929,35.184311],[136.928009,35.184447],[136.928228,35.184793],[136.927321,35.185211],[136.926794,35.18546],[136.926528,35.18518],[136.926274,35.184912],[136.925991,35.184615],[136.925574,35.184198],[136.925231,35.183837],[136.924878,35.183458],[136.924684,35.183615],[136.924711,35.183646],[136.924468,35.183749],[136.924306,35.183462],[136.92418,35.183492],[136.924089,35.183222]]]}},{"type":"Feature","properties":{"name":"芳野","city":"名古屋市東区","code":"102","setai":1549,"jinko":3141,"n":3,"towns":["23102077091","23102077092","23102077093"],"lx":136.92281,"ly":35.186282},"geometry":{"type":"Polygon","coordinates":[[[136.919222,35.183595],[136.919239,35.183594],[136.919894,35.183658],[136.92087,35.183717],[136.921975,35.18379],[136.922318,35.183812],[136.922559,35.183837],[136.922729,35.183816],[136.922942,35.184294],[136.923184,35.184807],[136.923168,35.18482],[136.923429,35.185228],[136.924275,35.185021],[136.924357,35.184493],[136.924387,35.1843],[136.924486,35.184354],[136.92472,35.18459],[136.925215,35.18509],[136.925742,35.185632],[136.925854,35.185751],[136.926268,35.186188],[136.926342,35.186298],[136.926988,35.186964],[136.927517,35.187509],[136.927552,35.187504],[136.9279,35.187856],[136.928236,35.188201],[136.928479,35.188451],[136.9274,35.188448],[136.92672,35.188446],[136.926715,35.188222],[136.926715,35.188204],[136.927113,35.188194],[136.927129,35.187929],[136.927066,35.187914],[136.927052,35.187914],[136.926894,35.187918],[136.926693,35.187933],[136.926691,35.187913],[136.926679,35.18783],[136.926673,35.187786],[136.926662,35.187709],[136.926653,35.187711],[136.92643,35.18773],[136.92643,35.187807],[136.926429,35.187812],[136.926429,35.187818],[136.926341,35.187821],[136.926341,35.187823],[136.92631,35.187822],[136.925637,35.187797],[136.925624,35.187868],[136.925599,35.18787],[136.925153,35.187896],[136.925055,35.187906],[136.925024,35.187909],[136.924491,35.187932],[136.924458,35.187934],[136.924457,35.188064],[136.924457,35.188066],[136.9243,35.188071],[136.924279,35.187942],[136.924237,35.187943],[136.924231,35.188013],[136.924196,35.188014],[136.923461,35.188032],[136.923439,35.188048],[136.923411,35.188146],[136.923361,35.188181],[136.923241,35.18817],[136.923068,35.188273],[136.923067,35.1882],[136.922736,35.188345],[136.922475,35.188349],[136.921656,35.188362],[136.920986,35.188389],[136.920507,35.188342],[136.920507,35.188206],[136.920444,35.188213],[136.920444,35.188187],[136.920445,35.188143],[136.920446,35.188107],[136.920375,35.188105],[136.920365,35.188057],[136.920264,35.188034],[136.920238,35.187991],[136.919947,35.187932],[136.919653,35.187796],[136.919597,35.187769],[136.919577,35.186983],[136.919556,35.186537],[136.919528,35.186005],[136.919557,35.186003],[136.919534,35.185828],[136.919495,35.185262],[136.919464,35.184748],[136.91941,35.184362],[136.919393,35.184248],[136.919375,35.184247],[136.919222,35.183595]]]}},{"type":"Feature","properties":{"name":"丸の内","city":"名古屋市東区","code":"102","setai":0,"jinko":0,"n":1,"towns":["231020800"],"lx":136.907731,"ly":35.17828},"geometry":{"type":"Polygon","coordinates":[[[136.90826,35.178395],[136.908299,35.17818],[136.907086,35.178207],[136.907086,35.178225],[136.907085,35.178338],[136.90826,35.178395]]]}},{"type":"Feature","properties":{"name":"矢田","city":"名古屋市東区","code":"102","setai":2744,"jinko":5019,"n":5,"towns":["23102081091","23102081092","23102081093","23102081094","23102081095"],"lx":136.942612,"ly":35.194556},"geometry":{"type":"Polygon","coordinates":[[[136.936534,35.192557],[136.936597,35.192494],[136.936593,35.192402],[136.936914,35.192334],[136.937095,35.192295],[136.937317,35.192248],[136.937835,35.192138],[136.937836,35.192141],[136.937918,35.192124],[136.937983,35.192111],[136.937981,35.192103],[136.938223,35.192066],[136.938686,35.191994],[136.938692,35.191993],[136.939653,35.191791],[136.940093,35.191698],[136.940238,35.191677],[136.940793,35.191588],[136.941115,35.191542],[136.941336,35.19151],[136.941592,35.191455],[136.942041,35.191357],[136.942046,35.191356],[136.942477,35.191263],[136.942864,35.19118],[136.943256,35.191096],[136.943266,35.191094],[136.943633,35.191016],[136.943649,35.191063],[136.943651,35.191065],[136.943823,35.191167],[136.944682,35.191634],[136.944803,35.191699],[136.945243,35.191936],[136.945281,35.191957],[136.945628,35.192144],[136.945665,35.192163],[136.94598,35.192333],[136.946111,35.192434],[136.946272,35.192853],[136.946331,35.193065],[136.946487,35.193505],[136.946609,35.19383],[136.946697,35.194079],[136.946747,35.19422],[136.946885,35.194322],[136.947035,35.194347],[136.9473,35.194285],[136.947857,35.194147],[136.948436,35.194009],[136.94875,35.193959],[136.948854,35.193915],[136.949085,35.193966],[136.949225,35.194028],[136.949198,35.194071],[136.949261,35.194104],[136.949265,35.194278],[136.94876,35.194554],[136.947676,35.19528],[136.946546,35.196106],[136.946795,35.196322],[136.946716,35.196459],[136.946488,35.196863],[136.946324,35.197064],[136.946133,35.19722],[136.946002,35.197304],[136.945772,35.197388],[136.945768,35.197387],[136.94577,35.197392],[136.944657,35.197798],[136.944397,35.197897],[136.943486,35.198994],[136.943283,35.198858],[136.94323,35.198822],[136.943151,35.198767],[136.94291,35.198607],[136.942909,35.198607],[136.942752,35.198502],[136.942692,35.19846],[136.942691,35.19846],[136.94264,35.198425],[136.942401,35.198271],[136.9423,35.198196],[136.941941,35.197964],[136.94172,35.19782],[136.941633,35.197763],[136.941381,35.197582],[136.940706,35.197166],[136.94065,35.197171],[136.940559,35.197179],[136.940558,35.197179],[136.940504,35.197127],[136.939927,35.196756],[136.939813,35.196683],[136.939571,35.196478],[136.939263,35.196191],[136.938555,35.195498],[136.938491,35.195418],[136.938403,35.195311],[136.938006,35.194759],[136.937901,35.1946],[136.937674,35.194209],[136.937512,35.193891],[136.937404,35.193656],[136.937374,35.193592],[136.937332,35.193485],[136.937224,35.193209],[136.937218,35.193209],[136.937118,35.193218],[136.936948,35.193211],[136.936886,35.193171],[136.936778,35.193074],[136.936534,35.192557]]]}}]}