{"type":"FeatureCollection","features":[{"type":"Feature","properties":{"name":"沓掛町小廻間","city":"豊明市","code":"229","setai":567,"jinko":1699,"n":1,"towns":["23229001001"],"lx":137.014121,"ly":35.076236},"geometry":{"type":"Polygon","coordinates":[[[137.01581,35.078439],[137.016714,35.077368],[137.017258,35.076734],[137.017533,35.076412],[137.017207,35.076374],[137.016979,35.076325],[137.016962,35.076195],[137.016923,35.075965],[137.016924,35.075832],[137.016943,35.075472],[137.016957,35.07534],[137.017175,35.075029],[137.016815,35.074857],[137.016544,35.074724],[137.016421,35.07508],[137.01616,35.075015],[137.015659,35.074829],[137.015602,35.074805],[137.015454,35.074772],[137.015265,35.074713],[137.015015,35.074601],[137.014866,35.074529],[137.014723,35.074496],[137.014512,35.074457],[137.014621,35.074356],[137.015027,35.07404],[137.015291,35.073865],[137.015324,35.073772],[137.015267,35.073643],[137.015165,35.073557],[137.015056,35.073501],[137.014918,35.073468],[137.014561,35.073419],[137.014412,35.073516],[137.014279,35.073492],[137.013522,35.073703],[137.013481,35.073871],[137.013062,35.07392],[137.012819,35.073892],[137.012748,35.074048],[137.012688,35.074247],[137.012694,35.074366],[137.012673,35.074568],[137.012615,35.074643],[137.012599,35.074742],[137.012603,35.075017],[137.012584,35.075163],[137.012532,35.075322],[137.012458,35.075491],[137.012384,35.075623],[137.01229,35.07573],[137.012156,35.075882],[137.011922,35.076159],[137.011283,35.075761],[137.010513,35.075321],[137.009962,35.075006],[137.009848,35.075202],[137.00969,35.075366],[137.009322,35.075681],[137.009427,35.075821],[137.009481,35.076088],[137.009613,35.076408],[137.009804,35.076753],[137.010061,35.077163],[137.010181,35.077322],[137.010329,35.077522],[137.01046,35.077788],[137.010597,35.078161],[137.010684,35.078299],[137.011199,35.078147],[137.011495,35.078075],[137.011905,35.078013],[137.012244,35.077995],[137.012475,35.078005],[137.012738,35.078048],[137.013048,35.078116],[137.013171,35.078115],[137.013338,35.078062],[137.013493,35.078018],[137.013618,35.078021],[137.013992,35.078116],[137.014062,35.078102],[137.014152,35.078057],[137.014531,35.078419],[137.015301,35.079076],[137.015638,35.078646],[137.01581,35.078439]]]}},{"type":"Feature","properties":{"name":"沓掛町寺内","city":"豊明市","code":"229","setai":2245,"jinko":6746,"n":1,"towns":["23229001002"],"lx":137.028763,"ly":35.070058},"geometry":{"type":"Polygon","coordinates":[[[137.018619,35.095063],[137.019119,35.094841],[137.019166,35.094862],[137.019533,35.095026],[137.019918,35.094587],[137.01998,35.094497],[137.020011,35.094453],[137.020158,35.094256],[137.02034,35.094063],[137.020484,35.09382],[137.020512,35.0937],[137.020531,35.093645],[137.020601,35.093537],[137.020526,35.093473],[137.020635,35.093315],[137.020656,35.093249],[137.020691,35.093026],[137.020667,35.092655],[137.02066,35.092546],[137.020635,35.09247],[137.020541,35.092082],[137.020523,35.091919],[137.020527,35.091587],[137.020617,35.091221],[137.020606,35.091035],[137.020577,35.09096],[137.020607,35.090939],[137.020659,35.090904],[137.021176,35.090979],[137.021404,35.091021],[137.021452,35.09103],[137.02222,35.090055],[137.022236,35.090038],[137.022565,35.089677],[137.022684,35.089547],[137.023031,35.089089],[137.023086,35.089017],[137.02309,35.089012],[137.02338,35.089338],[137.023421,35.089327],[137.02356,35.089293],[137.023573,35.08929],[137.023913,35.089271],[137.024095,35.089273],[137.024501,35.089353],[137.024666,35.089411],[137.024948,35.089544],[137.025185,35.089699],[137.025366,35.089839],[137.025369,35.089842],[137.025574,35.09005],[137.025597,35.089875],[137.025594,35.089799],[137.025608,35.089771],[137.025613,35.08976],[137.025619,35.089749],[137.025644,35.089772],[137.025852,35.089919],[137.025867,35.089929],[137.025925,35.089954],[137.026114,35.090013],[137.026192,35.090048],[137.026239,35.090069],[137.026567,35.090541],[137.026608,35.0906],[137.026689,35.090717],[137.026732,35.090739],[137.026957,35.090875],[137.027408,35.091147],[137.027481,35.091213],[137.027546,35.091301],[137.02765,35.091258],[137.027849,35.091084],[137.027939,35.090995],[137.028161,35.090832],[137.028184,35.090807],[137.028216,35.090774],[137.028422,35.090746],[137.028329,35.090591],[137.028278,35.090506],[137.028118,35.090334],[137.028088,35.090301],[137.027793,35.090167],[137.027736,35.090071],[137.027533,35.089729],[137.027512,35.089461],[137.027512,35.08946],[137.027502,35.089285],[137.027493,35.089253],[137.02747,35.089168],[137.027332,35.088669],[137.027352,35.088543],[137.027381,35.088361],[137.027366,35.088312],[137.027364,35.088307],[137.02731,35.088123],[137.027261,35.087944],[137.027248,35.087907],[137.027247,35.087905],[137.027228,35.087891],[137.027085,35.087788],[137.027024,35.087674],[137.026976,35.08749],[137.026922,35.087386],[137.0268,35.087151],[137.02675,35.087077],[137.026716,35.086988],[137.026723,35.086912],[137.026787,35.086807],[137.026921,35.086652],[137.026917,35.086607],[137.02717,35.086327],[137.027202,35.086333],[137.027285,35.08624],[137.027311,35.086211],[137.027312,35.086177],[137.027271,35.086167],[137.027283,35.085911],[137.027318,35.085908],[137.027291,35.085745],[137.027386,35.085301],[137.028058,35.085258],[137.028593,35.085177],[137.028681,35.085163],[137.028772,35.085133],[137.028851,35.085077],[137.028877,35.085028],[137.028884,35.08496],[137.028814,35.084732],[137.028816,35.08466],[137.028833,35.084558],[137.028885,35.084454],[137.028935,35.084371],[137.029124,35.084188],[137.0293,35.084044],[137.029348,35.084088],[137.02935,35.08409],[137.029394,35.08434],[137.029913,35.084562],[137.030222,35.084806],[137.030242,35.084799],[137.03073,35.084504],[137.030821,35.084522],[137.031211,35.084593],[137.032088,35.084743],[137.032108,35.084776],[137.03214,35.084829],[137.03307,35.084423],[137.033421,35.084269],[137.033518,35.084242],[137.033623,35.084229],[137.034219,35.084318],[137.034309,35.084316],[137.034317,35.084315],[137.034527,35.084298],[137.034831,35.084237],[137.035263,35.084069],[137.035418,35.083842],[137.035632,35.083553],[137.035687,35.083474],[137.035735,35.083365],[137.035762,35.083259],[137.035773,35.083173],[137.035792,35.083118],[137.035824,35.083072],[137.036021,35.082902],[137.036199,35.082678],[137.036261,35.082605],[137.036479,35.08244],[137.036552,35.082365],[137.036672,35.08219],[137.036703,35.082103],[137.036739,35.08198],[137.036773,35.081868],[137.036841,35.081655],[137.036949,35.081354],[137.036988,35.081281],[137.0371,35.081139],[137.03721,35.080977],[137.03725,35.080927],[137.037465,35.080769],[137.03771,35.080598],[137.038203,35.080289],[137.038576,35.080077],[137.038583,35.080073],[137.038716,35.079993],[137.039053,35.079834],[137.039344,35.0797],[137.039456,35.079646],[137.039568,35.079622],[137.040031,35.07962],[137.040362,35.079619],[137.040573,35.079561],[137.040948,35.079459],[137.04125,35.079379],[137.041378,35.07934],[137.041377,35.079246],[137.041462,35.079106],[137.041461,35.079097],[137.041459,35.079049],[137.041446,35.078937],[137.041402,35.078856],[137.041282,35.078758],[137.041228,35.078697],[137.041202,35.078667],[137.041131,35.07854],[137.041,35.078164],[137.04095,35.078053],[137.040848,35.077871],[137.040791,35.077768],[137.040759,35.0777],[137.040682,35.077574],[137.040783,35.077512],[137.040911,35.077395],[137.041157,35.077059],[137.041377,35.076776],[137.041616,35.076452],[137.041709,35.076344],[137.041547,35.076231],[137.041449,35.076166],[137.041227,35.076008],[137.040797,35.075697],[137.040674,35.075597],[137.040633,35.075539],[137.040612,35.075467],[137.040601,35.0754],[137.040618,35.075296],[137.040681,35.075193],[137.040754,35.075141],[137.040836,35.075106],[137.041315,35.074908],[137.041551,35.074931],[137.041629,35.074946],[137.041751,35.075015],[137.041887,35.075087],[137.041948,35.075119],[137.041974,35.075132],[137.042086,35.074983],[137.042171,35.07495],[137.042281,35.074917],[137.042396,35.074877],[137.042515,35.07485],[137.042666,35.074775],[137.042743,35.074717],[137.042716,35.074684],[137.042676,35.074614],[137.042631,35.074552],[137.042631,35.074551],[137.042635,35.074549],[137.042616,35.074507],[137.042607,35.074453],[137.042607,35.074383],[137.042581,35.07418],[137.042662,35.074006],[137.042655,35.07388],[137.042587,35.073758],[137.042489,35.073654],[137.042447,35.073621],[137.042439,35.073532],[137.042376,35.073463],[137.042233,35.07339],[137.042061,35.073297],[137.041829,35.07314],[137.041642,35.072963],[137.041498,35.072918],[137.041385,35.07289],[137.041055,35.072862],[137.041082,35.072793],[137.041154,35.072609],[137.04124,35.072359],[137.041278,35.072277],[137.041343,35.072137],[137.04148,35.071978],[137.041688,35.071837],[137.041879,35.071748],[137.042027,35.071716],[137.042309,35.071702],[137.042485,35.071656],[137.042552,35.071611],[137.042642,35.071539],[137.042721,35.071456],[137.042736,35.071394],[137.042716,35.071301],[137.042713,35.071218],[137.042752,35.071147],[137.042857,35.071065],[137.043006,35.070991],[137.043104,35.070934],[137.043143,35.070898],[137.043252,35.070654],[137.043313,35.070492],[137.043234,35.070396],[137.043181,35.070331],[137.043117,35.070231],[137.043045,35.070068],[137.042931,35.069844],[137.042882,35.069709],[137.042854,35.069586],[137.042848,35.06943],[137.042843,35.069292],[137.042793,35.068992],[137.042788,35.06881],[137.042791,35.068728],[137.042779,35.068462],[137.042792,35.068385],[137.043068,35.068075],[137.043053,35.068063],[137.042475,35.067587],[137.042071,35.067172],[137.041804,35.066911],[137.041525,35.066481],[137.041475,35.066267],[137.041476,35.066154],[137.041612,35.065766],[137.041651,35.065675],[137.041664,35.065642],[137.04169,35.065574],[137.041755,35.065448],[137.042029,35.06499],[137.04231,35.064509],[137.042475,35.064162],[137.04263,35.063748],[137.042752,35.063435],[137.042818,35.063129],[137.042842,35.062917],[137.042843,35.062734],[137.042785,35.062496],[137.042735,35.062362],[137.04268,35.062272],[137.042602,35.062136],[137.042373,35.061864],[137.042192,35.06161],[137.041937,35.061357],[137.041182,35.060589],[137.040785,35.06026],[137.040411,35.059913],[137.039959,35.059476],[137.039622,35.059157],[137.039541,35.059076],[137.039427,35.05897],[137.038984,35.058541],[137.0386,35.058164],[137.038222,35.057809],[137.038108,35.057735],[137.037965,35.057657],[137.03758,35.05752],[137.037375,35.057413],[137.037052,35.057224],[137.036925,35.057135],[137.036743,35.057018],[137.036457,35.056835],[137.03626,35.056615],[137.036217,35.056566],[137.035993,35.056305],[137.035892,35.056059],[137.035758,35.055741],[137.035659,35.055395],[137.035542,35.05507],[137.035399,35.054716],[137.035053,35.054127],[137.03505,35.054122],[137.034792,35.053832],[137.034615,35.053694],[137.034548,35.053671],[137.034462,35.053645],[137.03439,35.053623],[137.034145,35.053535],[137.033723,35.053394],[137.033651,35.053381],[137.033454,35.053346],[137.033273,35.053316],[137.033138,35.053294],[137.032933,35.053252],[137.032768,35.053216],[137.032548,35.053167],[137.032351,35.053132],[137.032108,35.053096],[137.031881,35.05306],[137.031672,35.053034],[137.031444,35.053036],[137.031267,35.053048],[137.031062,35.053025],[137.030796,35.053002],[137.030526,35.052976],[137.030325,35.052943],[137.030171,35.052911],[137.030028,35.052894],[137.029816,35.052827],[137.029597,35.05274],[137.029354,35.052647],[137.029154,35.052557],[137.028965,35.052477],[137.028752,35.052364],[137.028515,35.05263],[137.028886,35.052926],[137.02933,35.053277],[137.029519,35.053454],[137.02975,35.053702],[137.029851,35.053888],[137.029984,35.054152],[137.030251,35.054755],[137.027962,35.055618],[137.027943,35.055599],[137.027903,35.055606],[137.027745,35.055671],[137.027849,35.055778],[137.027416,35.056665],[137.026965,35.057578],[137.026584,35.057594],[137.026609,35.057219],[137.024501,35.05558],[137.023051,35.057336],[137.023002,35.057309],[137.021651,35.059001],[137.02075,35.060119],[137.020261,35.059764],[137.019647,35.059317],[137.019337,35.059098],[137.018518,35.058498],[137.017358,35.057654],[137.016269,35.056855],[137.015864,35.057228],[137.014925,35.058082],[137.014469,35.058531],[137.014364,35.058554],[137.014473,35.05882],[137.015043,35.059768],[137.015512,35.06055],[137.015129,35.060757],[137.015,35.060827],[137.015296,35.061448],[137.015685,35.061585],[137.016883,35.062033],[137.016773,35.06221],[137.016159,35.063251],[137.016013,35.063426],[137.015915,35.063525],[137.015849,35.063557],[137.015782,35.063601],[137.015721,35.06365],[137.0156,35.063787],[137.015513,35.063927],[137.015448,35.06413],[137.015394,35.064325],[137.015323,35.064447],[137.015202,35.064559],[137.015117,35.064665],[137.015048,35.064794],[137.01502,35.064907],[137.014851,35.06534],[137.014566,35.066004],[137.013765,35.065879],[137.01356,35.065847],[137.012818,35.065877],[137.012588,35.066033],[137.012458,35.066071],[137.012415,35.066097],[137.012375,35.066143],[137.0123,35.066238],[137.012148,35.066339],[137.011937,35.066463],[137.011859,35.066495],[137.011817,35.066585],[137.01183,35.06666],[137.011933,35.066773],[137.011933,35.06681],[137.011883,35.066864],[137.011828,35.066889],[137.011659,35.067026],[137.011536,35.067113],[137.011723,35.067224],[137.011861,35.067073],[137.012103,35.066782],[137.012707,35.066973],[137.012785,35.066844],[137.013152,35.06701],[137.013224,35.066942],[137.013602,35.067135],[137.014212,35.067451],[137.014381,35.067534],[137.014293,35.067674],[137.014254,35.067738],[137.014007,35.068189],[137.013976,35.068234],[137.01347,35.06855],[137.013226,35.068714],[137.013079,35.068822],[137.013398,35.069123],[137.013098,35.069504],[137.013568,35.069848],[137.013518,35.069912],[137.01322,35.070176],[137.013407,35.070305],[137.013049,35.071144],[137.01304,35.071214],[137.013033,35.071298],[137.013048,35.071388],[137.013087,35.071521],[137.013275,35.072112],[137.013296,35.07217],[137.01307,35.07221],[137.012889,35.072514],[137.012402,35.072339],[137.012453,35.072077],[137.010907,35.072225],[137.010791,35.072309],[137.01076,35.072239],[137.010554,35.072259],[137.010508,35.072096],[137.010335,35.072113],[137.010121,35.072031],[137.010129,35.071823],[137.010069,35.071809],[137.010156,35.07133],[137.010203,35.071296],[137.010631,35.070981],[137.010295,35.070721],[137.009834,35.070324],[137.010266,35.070184],[137.010062,35.069676],[137.009208,35.069826],[137.008576,35.069402],[137.008391,35.069277],[137.007996,35.069152],[137.007488,35.069113],[137.007328,35.069255],[137.007155,35.069351],[137.006224,35.069677],[137.006236,35.069201],[137.006107,35.068681],[137.00559,35.068758],[137.005267,35.068803],[137.004733,35.06902],[137.004479,35.069114],[137.004285,35.069174],[137.003989,35.068816],[137.003762,35.068538],[137.003598,35.06832],[137.004318,35.067916],[137.004449,35.067918],[137.00472,35.067833],[137.004736,35.067763],[137.00485,35.067639],[137.004981,35.067652],[137.004982,35.067567],[137.005081,35.067489],[137.005257,35.067316],[137.005337,35.06719],[137.005523,35.066877],[137.005545,35.066841],[137.005067,35.066824],[137.004663,35.066964],[137.004514,35.067049],[137.004208,35.06724],[137.004057,35.067352],[137.003573,35.067753],[137.003381,35.067861],[137.00331,35.067934],[137.003153,35.068026],[137.002983,35.068102],[137.002786,35.068479],[137.002689,35.068726],[137.002318,35.06913],[137.001518,35.068821],[137.001475,35.068798],[137.001435,35.068784],[137.001407,35.068791],[137.001389,35.068815],[137.001362,35.06885],[137.001323,35.068897],[137.00123,35.068921],[137.000698,35.069023],[137.000272,35.068837],[137.000042,35.068784],[136.99979,35.068746],[136.999693,35.068884],[136.999604,35.069227],[136.999541,35.069494],[136.999429,35.069723],[136.999292,35.070209],[136.999337,35.070416],[136.999403,35.070463],[136.999583,35.070493],[136.999654,35.070545],[136.999686,35.070612],[136.999685,35.070792],[136.99961,35.071039],[136.99945,35.071426],[136.999408,35.071798],[136.999498,35.071824],[136.999694,35.071904],[136.999797,35.071972],[137.000198,35.072095],[137.000318,35.072106],[137.000555,35.072119],[137.000603,35.072315],[137.000685,35.072413],[137.000632,35.072593],[137.000593,35.072677],[137.00068,35.072664],[137.00084,35.072637],[137.001118,35.072534],[137.001416,35.072404],[137.00182,35.072362],[137.002431,35.072145],[137.002727,35.07202],[137.002979,35.071897],[137.003023,35.071876],[137.003365,35.071872],[137.003653,35.071971],[137.003835,35.072063],[137.004413,35.072237],[137.004679,35.072274],[137.004902,35.072324],[137.005158,35.072418],[137.00549,35.072498],[137.005832,35.072541],[137.006047,35.07261],[137.006261,35.072679],[137.006324,35.072787],[137.006345,35.072827],[137.00639,35.072914],[137.006557,35.073232],[137.007098,35.073983],[137.007422,35.074361],[137.007501,35.074909],[137.007777,35.074959],[137.008034,35.07494],[137.008219,35.074892],[137.008613,35.074722],[137.008773,35.074871],[137.008994,35.07506],[137.009154,35.075227],[137.009213,35.075463],[137.009249,35.075565],[137.009308,35.075662],[137.009322,35.075681],[137.00969,35.075366],[137.009848,35.075202],[137.009962,35.075006],[137.010513,35.075321],[137.011283,35.075761],[137.011922,35.076159],[137.012156,35.075882],[137.01229,35.07573],[137.012384,35.075623],[137.012458,35.075491],[137.012532,35.075322],[137.012584,35.075163],[137.012603,35.075017],[137.012599,35.074742],[137.012615,35.074643],[137.012673,35.074568],[137.012694,35.074366],[137.012688,35.074247],[137.012748,35.074048],[137.012819,35.073892],[137.013062,35.07392],[137.013481,35.073871],[137.013522,35.073703],[137.014279,35.073492],[137.014412,35.073516],[137.014561,35.073419],[137.014918,35.073468],[137.015056,35.073501],[137.015165,35.073557],[137.015267,35.073643],[137.015324,35.073772],[137.015291,35.073865],[137.015027,35.07404],[137.014621,35.074356],[137.014512,35.074457],[137.014723,35.074496],[137.014866,35.074529],[137.015015,35.074601],[137.015265,35.074713],[137.015454,35.074772],[137.015602,35.074805],[137.015659,35.074829],[137.01616,35.075015],[137.016421,35.07508],[137.016544,35.074724],[137.016815,35.074857],[137.017175,35.075029],[137.016957,35.07534],[137.016943,35.075472],[137.016924,35.075832],[137.016923,35.075965],[137.016962,35.076195],[137.016979,35.076325],[137.017207,35.076374],[137.017533,35.076412],[137.017258,35.076734],[137.016714,35.077368],[137.01581,35.078439],[137.015638,35.078646],[137.015301,35.079076],[137.014531,35.078419],[137.014152,35.078057],[137.014062,35.078102],[137.013992,35.078116],[137.013618,35.078021],[137.013493,35.078018],[137.013338,35.078062],[137.013171,35.078115],[137.013048,35.078116],[137.012738,35.078048],[137.012475,35.078005],[137.012244,35.077995],[137.011905,35.078013],[137.011495,35.078075],[137.011199,35.078147],[137.010684,35.078299],[137.010691,35.07831],[137.011056,35.078854],[137.011221,35.079209],[137.011375,35.079564],[137.011498,35.079772],[137.011258,35.079856],[137.010957,35.080022],[137.010834,35.08007],[137.010249,35.08028],[137.009883,35.080443],[137.009785,35.080487],[137.009842,35.080787],[137.009883,35.080907],[137.009984,35.080995],[137.010376,35.081126],[137.010607,35.081184],[137.0107,35.081184],[137.010764,35.081154],[137.010836,35.080993],[137.010894,35.080898],[137.011151,35.080773],[137.011303,35.080775],[137.011477,35.080799],[137.011733,35.080893],[137.011805,35.080937],[137.011888,35.08103],[137.011939,35.081131],[137.011935,35.08123],[137.011834,35.08145],[137.011849,35.081607],[137.011784,35.082026],[137.011799,35.082188],[137.01185,35.082245],[137.011982,35.082098],[137.012241,35.08194],[137.012345,35.081865],[137.01237,35.081826],[137.01244,35.081543],[137.012708,35.08141],[137.012869,35.081345],[137.013031,35.081315],[137.013091,35.081346],[137.013115,35.081448],[137.013099,35.081694],[137.013097,35.081895],[137.013085,35.082091],[137.013185,35.082465],[137.013112,35.08256],[137.012924,35.08267],[137.012896,35.082871],[137.012932,35.083014],[137.01302,35.083106],[137.013116,35.083261],[137.013239,35.083438],[137.013281,35.083638],[137.013207,35.083974],[137.01308,35.084123],[137.012822,35.084217],[137.012649,35.084233],[137.012508,35.084272],[137.011773,35.084732],[137.011697,35.084788],[137.011604,35.084917],[137.01196,35.085329],[137.012085,35.085317],[137.01221,35.085265],[137.012384,35.08523],[137.012527,35.085267],[137.012587,35.085257],[137.012726,35.085146],[137.0129,35.085111],[137.013159,35.085173],[137.01336,35.085313],[137.013799,35.085582],[137.013817,35.085644],[137.013729,35.085844],[137.013723,35.086019],[137.013792,35.086153],[137.01394,35.086347],[137.014124,35.086685],[137.014433,35.086698],[137.014819,35.086715],[137.014888,35.08674],[137.01489,35.086916],[137.014759,35.087225],[137.01483,35.087249],[137.015304,35.087292],[137.015218,35.088279],[137.015633,35.089161],[137.016057,35.09006],[137.016493,35.08993],[137.016598,35.089914],[137.016679,35.090089],[137.016732,35.090154],[137.016733,35.090181],[137.016811,35.090329],[137.016701,35.090327],[137.016981,35.090826],[137.01688,35.09087],[137.017084,35.091298],[137.017161,35.09127],[137.017282,35.091582],[137.017491,35.092019],[137.017506,35.092145],[137.017465,35.09239],[137.017458,35.092518],[137.017292,35.092651],[137.0172,35.092678],[137.017031,35.092685],[137.01693,35.092805],[137.016907,35.092832],[137.016775,35.093091],[137.016474,35.093663],[137.016444,35.09372],[137.01623,35.094124],[137.016281,35.094138],[137.017182,35.094398],[137.017262,35.09443],[137.017501,35.094527],[137.017507,35.094532],[137.017766,35.094718],[137.017997,35.094925],[137.018487,35.095266],[137.018569,35.095391],[137.01858,35.095434],[137.018754,35.095366],[137.018629,35.095086],[137.018619,35.095063]]]}},{"type":"Feature","properties":{"name":"新田町","city":"豊明市","code":"229","setai":2996,"jinko":7310,"n":2,"towns":["232290020","232290020"],"lx":137.016654,"ly":35.052655},"geometry":{"type":"MultiPolygon","coordinates":[[[[137.006544,35.049859],[137.007485,35.049199],[137.007744,35.049177],[137.0082,35.048963],[137.008368,35.048687],[137.008406,35.048575],[137.008402,35.04854],[137.008354,35.04846],[137.008347,35.048424],[137.008357,35.048381],[137.00839,35.048339],[137.008456,35.048292],[137.008594,35.048233],[137.008692,35.048206],[137.008828,35.048162],[137.009072,35.048064],[137.009094,35.048087],[137.009315,35.048403],[137.009553,35.0488],[137.009659,35.048895],[137.009772,35.049005],[137.009871,35.04908],[137.009942,35.049083],[137.009968,35.049114],[137.009664,35.049326],[137.009849,35.049512],[137.009895,35.049583],[137.009768,35.049744],[137.009032,35.050328],[137.008951,35.05029],[137.008911,35.050257],[137.00834,35.050485],[137.007745,35.050967],[137.007256,35.050633],[137.006839,35.050251],[137.006544,35.049859]]],[[[137.009721,35.052252],[137.01003,35.052009],[137.010249,35.051854],[137.010557,35.051678],[137.01078,35.051587],[137.011189,35.051451],[137.011431,35.051404],[137.011738,35.051366],[137.011687,35.050519],[137.011697,35.05013],[137.011858,35.050116],[137.011917,35.050121],[137.011976,35.050128],[137.012401,35.05048],[137.012571,35.050591],[137.012697,35.050663],[137.012848,35.050714],[137.012974,35.050719],[137.013061,35.050787],[137.013214,35.050788],[137.013485,35.050616],[137.013648,35.050534],[137.013737,35.050509],[137.013617,35.050435],[137.013599,35.050402],[137.013626,35.050285],[137.013522,35.050123],[137.01343,35.050089],[137.013321,35.050052],[137.013171,35.050007],[137.01302,35.04995],[137.012828,35.049849],[137.012733,35.049781],[137.012609,35.049657],[137.012486,35.04951],[137.012334,35.049331],[137.012217,35.049168],[137.012193,35.049078],[137.012158,35.048874],[137.012132,35.048687],[137.01213,35.048669],[137.012118,35.048563],[137.012118,35.048388],[137.012432,35.048244],[137.012562,35.048171],[137.012781,35.048095],[137.013187,35.048014],[137.013075,35.047787],[137.012255,35.048112],[137.012141,35.04812],[137.01204,35.048078],[137.011912,35.047963],[137.011061,35.047153],[137.01212,35.046653],[137.0123,35.046535],[137.012957,35.046386],[137.013275,35.046313],[137.013565,35.046242],[137.013697,35.046201],[137.014068,35.046058],[137.015518,35.045496],[137.015695,35.045375],[137.016186,35.045014],[137.018406,35.04707],[137.018323,35.047147],[137.018219,35.047211],[137.018144,35.047288],[137.018117,35.047371],[137.018117,35.04745],[137.01813,35.047523],[137.018338,35.047693],[137.018714,35.047966],[137.018964,35.048151],[137.019085,35.04821],[137.019221,35.048245],[137.019355,35.048253],[137.019517,35.04823],[137.019703,35.048155],[137.019903,35.048049],[137.020103,35.047907],[137.020579,35.048342],[137.020686,35.048447],[137.021161,35.048642],[137.02141,35.048724],[137.021683,35.048605],[137.022322,35.048111],[137.02337,35.047365],[137.023455,35.047448],[137.023642,35.047658],[137.023971,35.048052],[137.024037,35.048136],[137.024387,35.048596],[137.024701,35.049013],[137.02493,35.049278],[137.025406,35.049708],[137.025782,35.049989],[137.026123,35.050267],[137.025397,35.050362],[137.024493,35.050495],[137.023697,35.0506],[137.02275,35.050738],[137.021497,35.050894],[137.02118,35.050929],[137.020783,35.05096],[137.02032,35.050981],[137.020178,35.050991],[137.021077,35.052226],[137.021244,35.052437],[137.020626,35.05251],[137.020274,35.052557],[137.0203,35.052969],[137.020318,35.053364],[137.020321,35.05344],[137.020277,35.053442],[137.020331,35.05399],[137.020357,35.054296],[137.020428,35.054911],[137.020463,35.055295],[137.020529,35.056013],[137.020609,35.056065],[137.02063,35.056343],[137.020652,35.05632],[137.020844,35.05612],[137.023002,35.057309],[137.021651,35.059001],[137.02075,35.060119],[137.020261,35.059764],[137.019647,35.059317],[137.019337,35.059098],[137.018518,35.058498],[137.017358,35.057654],[137.016269,35.056855],[137.016234,35.056829],[137.015037,35.055952],[137.014095,35.055278],[137.013111,35.054557],[137.011926,35.053691],[137.010981,35.053078],[137.009721,35.052252]]]]}},{"type":"Feature","properties":{"name":"三崎町","city":"豊明市","code":"229","setai":2217,"jinko":5136,"n":1,"towns":["232290030"],"lx":137.006411,"ly":35.054597},"geometry":{"type":"Polygon","coordinates":[[[137.005476,35.059585],[137.005888,35.059422],[137.006063,35.059494],[137.006274,35.059577],[137.006393,35.059517],[137.006743,35.059358],[137.006919,35.059503],[137.007632,35.059507],[137.007648,35.059401],[137.007681,35.059137],[137.007741,35.058785],[137.007824,35.05853],[137.007877,35.058403],[137.007995,35.058253],[137.008084,35.058151],[137.008184,35.058072],[137.00833,35.057971],[137.009006,35.057507],[137.00932,35.057301],[137.009747,35.056993],[137.010333,35.056567],[137.010682,35.056321],[137.0115,35.055722],[137.012671,35.054883],[137.013111,35.054557],[137.011926,35.053691],[137.010981,35.053078],[137.009721,35.052252],[137.01003,35.052009],[137.010249,35.051854],[137.010557,35.051678],[137.01078,35.051587],[137.011189,35.051451],[137.011431,35.051404],[137.011738,35.051366],[137.011687,35.050519],[137.011031,35.050449],[137.011032,35.050295],[137.011001,35.050288],[137.010718,35.050278],[137.010739,35.049801],[137.010775,35.049563],[137.010184,35.049364],[137.010149,35.049315],[137.010115,35.049269],[137.010059,35.049208],[137.009968,35.049114],[137.009664,35.049326],[137.009849,35.049512],[137.009895,35.049583],[137.009768,35.049744],[137.009032,35.050328],[137.008951,35.05029],[137.008911,35.050257],[137.00834,35.050485],[137.007745,35.050967],[137.007256,35.050633],[137.006839,35.050251],[137.006544,35.049859],[137.006388,35.049558],[137.006117,35.049015],[137.00603,35.048908],[137.005938,35.048664],[137.005856,35.048619],[137.005804,35.048504],[137.00548,35.048834],[137.005436,35.048913],[137.005398,35.049016],[137.005307,35.049311],[137.005191,35.049569],[137.005089,35.049753],[137.005033,35.049802],[137.004791,35.049974],[137.004709,35.050016],[137.004561,35.050017],[137.004367,35.050024],[137.004243,35.050066],[137.003995,35.050218],[137.003646,35.050423],[137.003257,35.050634],[137.003126,35.050711],[137.002897,35.050903],[137.00274,35.05106],[137.002976,35.051313],[137.002983,35.05136],[137.002998,35.051598],[137.002932,35.051753],[137.002968,35.051767],[137.003022,35.051877],[137.00304,35.051933],[137.003019,35.051993],[137.002916,35.052296],[137.00285,35.052917],[137.002751,35.053348],[137.002713,35.053406],[137.002682,35.053443],[137.002635,35.053553],[137.002499,35.053638],[137.002337,35.053685],[137.002171,35.053728],[137.002007,35.053891],[137.001775,35.054217],[137.001833,35.054243],[137.001991,35.054383],[137.00203,35.054511],[137.002098,35.054763],[137.001962,35.055073],[137.00195,35.055202],[137.001901,35.055324],[137.001928,35.055537],[137.001986,35.055638],[137.00213,35.055776],[137.002239,35.055876],[137.002282,35.055941],[137.002213,35.056513],[137.001952,35.056734],[137.00304,35.057545],[137.003099,35.057589],[137.004149,35.05835],[137.004448,35.058572],[137.004923,35.058921],[137.005074,35.059071],[137.005227,35.059238],[137.005386,35.059444],[137.005476,35.059585]]]}},{"type":"Feature","properties":{"name":"大久伝町","city":"豊明市","code":"229","setai":894,"jinko":2045,"n":1,"towns":["232290040"],"lx":137.025329,"ly":35.053057},"geometry":{"type":"Polygon","coordinates":[[[137.027903,35.055606],[137.027943,35.055599],[137.027962,35.055618],[137.030251,35.054755],[137.029984,35.054152],[137.029851,35.053888],[137.02975,35.053702],[137.029519,35.053454],[137.02933,35.053277],[137.028886,35.052926],[137.028515,35.05263],[137.028752,35.052364],[137.028735,35.052355],[137.028711,35.052343],[137.028654,35.052314],[137.028492,35.052218],[137.028312,35.05208],[137.028128,35.051946],[137.027955,35.05179],[137.027786,35.051662],[137.027625,35.051509],[137.027521,35.051416],[137.027323,35.051263],[137.027322,35.051263],[137.027061,35.051039],[137.026635,35.050704],[137.02636,35.05047],[137.02613,35.050273],[137.026123,35.050267],[137.025397,35.050362],[137.024493,35.050495],[137.023697,35.0506],[137.02275,35.050738],[137.021497,35.050894],[137.02118,35.050929],[137.020783,35.05096],[137.02032,35.050981],[137.020178,35.050991],[137.021077,35.052226],[137.021244,35.052437],[137.020626,35.05251],[137.020274,35.052557],[137.0203,35.052969],[137.020318,35.053364],[137.020321,35.05344],[137.020277,35.053442],[137.020331,35.05399],[137.020357,35.054296],[137.020428,35.054911],[137.020463,35.055295],[137.020529,35.056013],[137.020609,35.056065],[137.02063,35.056343],[137.020652,35.05632],[137.020844,35.05612],[137.023002,35.057309],[137.023051,35.057336],[137.024501,35.05558],[137.026609,35.057219],[137.026584,35.057594],[137.026965,35.057578],[137.027416,35.056665],[137.027849,35.055778],[137.027745,35.055671],[137.027903,35.055606]]]}},{"type":"Feature","properties":{"name":"阿野町","city":"豊明市","code":"229","setai":2832,"jinko":6353,"n":1,"towns":["232290050"],"lx":137.009129,"ly":35.041966},"geometry":{"type":"Polygon","coordinates":[[[137.002635,35.053553],[137.002682,35.053443],[137.002713,35.053406],[137.002751,35.053348],[137.00285,35.052917],[137.002916,35.052296],[137.003019,35.051993],[137.00304,35.051933],[137.003022,35.051877],[137.002968,35.051767],[137.002932,35.051753],[137.002998,35.051598],[137.002983,35.05136],[137.002976,35.051313],[137.00274,35.05106],[137.002897,35.050903],[137.003126,35.050711],[137.003257,35.050634],[137.003646,35.050423],[137.003995,35.050218],[137.004243,35.050066],[137.004367,35.050024],[137.004561,35.050017],[137.004709,35.050016],[137.004791,35.049974],[137.005033,35.049802],[137.005089,35.049753],[137.005191,35.049569],[137.005307,35.049311],[137.005398,35.049016],[137.005436,35.048913],[137.00548,35.048834],[137.005804,35.048504],[137.005856,35.048619],[137.005938,35.048664],[137.00603,35.048908],[137.006117,35.049015],[137.006388,35.049558],[137.006544,35.049859],[137.007485,35.049199],[137.007744,35.049177],[137.0082,35.048963],[137.008368,35.048687],[137.008406,35.048575],[137.008402,35.04854],[137.008354,35.04846],[137.008347,35.048424],[137.008357,35.048381],[137.00839,35.048339],[137.008456,35.048292],[137.008594,35.048233],[137.008692,35.048206],[137.008828,35.048162],[137.009072,35.048064],[137.009094,35.048087],[137.009315,35.048403],[137.009553,35.0488],[137.009659,35.048895],[137.009772,35.049005],[137.009871,35.04908],[137.009942,35.049083],[137.009968,35.049114],[137.010059,35.049208],[137.010115,35.049269],[137.010149,35.049315],[137.010184,35.049364],[137.010775,35.049563],[137.010739,35.049801],[137.010718,35.050278],[137.011001,35.050288],[137.011032,35.050295],[137.011031,35.050449],[137.011687,35.050519],[137.011697,35.05013],[137.011858,35.050116],[137.011917,35.050121],[137.011976,35.050128],[137.012401,35.05048],[137.012571,35.050591],[137.012697,35.050663],[137.012848,35.050714],[137.012974,35.050719],[137.013061,35.050787],[137.013214,35.050788],[137.013485,35.050616],[137.013648,35.050534],[137.013737,35.050509],[137.013617,35.050435],[137.013599,35.050402],[137.013626,35.050285],[137.013522,35.050123],[137.01343,35.050089],[137.013321,35.050052],[137.013171,35.050007],[137.01302,35.04995],[137.012828,35.049849],[137.012733,35.049781],[137.012609,35.049657],[137.012486,35.04951],[137.012334,35.049331],[137.012217,35.049168],[137.012193,35.049078],[137.012158,35.048874],[137.012132,35.048687],[137.01213,35.048669],[137.012118,35.048563],[137.012118,35.048388],[137.012432,35.048244],[137.012562,35.048171],[137.012781,35.048095],[137.013187,35.048014],[137.013075,35.047787],[137.012255,35.048112],[137.012141,35.04812],[137.01204,35.048078],[137.011912,35.047963],[137.011061,35.047153],[137.01212,35.046653],[137.0123,35.046535],[137.012957,35.046386],[137.013275,35.046313],[137.013565,35.046242],[137.013697,35.046201],[137.014068,35.046058],[137.015518,35.045496],[137.015695,35.045375],[137.016186,35.045014],[137.018406,35.04707],[137.018323,35.047147],[137.018219,35.047211],[137.018144,35.047288],[137.018117,35.047371],[137.018117,35.04745],[137.01813,35.047523],[137.018338,35.047693],[137.018714,35.047966],[137.018964,35.048151],[137.019085,35.04821],[137.019221,35.048245],[137.019355,35.048253],[137.019517,35.04823],[137.019703,35.048155],[137.019903,35.048049],[137.020103,35.047907],[137.020579,35.048342],[137.020686,35.048447],[137.021161,35.048642],[137.02141,35.048724],[137.021683,35.048605],[137.022322,35.048111],[137.02337,35.047365],[137.023352,35.047348],[137.023206,35.047224],[137.023048,35.047064],[137.022819,35.046833],[137.022516,35.046336],[137.022364,35.046026],[137.02227,35.04567],[137.022225,35.045261],[137.022197,35.045075],[137.022051,35.044829],[137.021948,35.044686],[137.021874,35.044588],[137.021724,35.04442],[137.021498,35.044149],[137.021311,35.043945],[137.020977,35.043607],[137.02065,35.04333],[137.020518,35.043231],[137.020474,35.043198],[137.020165,35.042954],[137.019655,35.042566],[137.018758,35.041878],[137.018405,35.041594],[137.018094,35.041332],[137.017728,35.04066],[137.017521,35.04011],[137.017444,35.039925],[137.017326,35.039708],[137.017278,35.039655],[137.01714,35.03947],[137.016887,35.039212],[137.0166,35.038997],[137.016319,35.038805],[137.015868,35.038599],[137.015692,35.038518],[137.0149,35.038281],[137.014032,35.038049],[137.013708,35.037964],[137.013418,35.037876],[137.012869,35.037707],[137.012592,35.037613],[137.012539,35.037583],[137.01252,35.037574],[137.012481,35.037555],[137.012349,35.037486],[137.012113,35.03732],[137.011674,35.036974],[137.011465,35.036787],[137.011216,35.036572],[137.01086,35.036268],[137.010436,35.035954],[137.009994,35.03566],[137.009548,35.035389],[137.009114,35.035144],[137.008818,35.034985],[137.008468,35.03483],[137.007843,35.034572],[137.007386,35.034439],[137.007183,35.0344],[137.007081,35.034727],[137.007025,35.034867],[137.006901,35.035041],[137.006686,35.035183],[137.006222,35.035408],[137.00587,35.035582],[137.005611,35.035707],[137.005438,35.035833],[137.005302,35.035974],[137.004524,35.037078],[137.004373,35.037296],[137.003614,35.038199],[137.003506,35.038324],[137.00347,35.038418],[137.003479,35.038527],[137.004049,35.039815],[137.003453,35.039986],[137.003417,35.04214],[137.002212,35.04213],[137.002196,35.04322],[137.002211,35.043388],[137.002258,35.043497],[137.002327,35.043609],[137.002172,35.043673],[137.002165,35.044065],[137.002206,35.044403],[137.002246,35.044628],[137.002328,35.044888],[137.002378,35.045113],[137.002263,35.045184],[137.00221,35.045235],[137.002158,35.045313],[137.001485,35.045843],[137.001128,35.046158],[137.000714,35.046552],[137.000588,35.046637],[137.000405,35.046759],[137.000242,35.04688],[137.000132,35.046982],[137.000047,35.047083],[136.999977,35.047194],[136.999941,35.047282],[136.999907,35.047388],[136.999889,35.047495],[136.999863,35.047678],[136.999831,35.047846],[136.999791,35.047965],[136.999726,35.048064],[136.999261,35.048738],[136.999116,35.049016],[136.999152,35.049183],[136.999195,35.049278],[136.999302,35.049417],[136.999407,35.04952],[136.998506,35.050137],[136.998375,35.050022],[136.998045,35.050257],[136.997557,35.049642],[136.997342,35.049759],[136.997083,35.049437],[136.996563,35.049702],[136.996222,35.049172],[136.99592,35.049544],[136.995784,35.049786],[136.995713,35.049915],[136.99541,35.050535],[136.996284,35.051722],[136.995747,35.052177],[136.996495,35.05276],[136.996893,35.05249],[136.997461,35.052145],[136.997969,35.051836],[136.998969,35.051197],[136.999613,35.050754],[137.000136,35.05039],[137.000459,35.050109],[137.000778,35.050347],[137.000947,35.050435],[137.001207,35.050618],[137.001037,35.050809],[137.000934,35.050934],[137.000827,35.051081],[137.000522,35.051291],[137.000447,35.051385],[137.000348,35.051522],[137.000336,35.051539],[137.000306,35.051596],[137.000325,35.051872],[137.000159,35.051905],[137.000059,35.052114],[137.000066,35.052184],[137.000115,35.052186],[137.000131,35.052343],[137.000129,35.052364],[136.99994,35.052389],[136.999927,35.052391],[136.999742,35.052778],[136.99967,35.053438],[136.999662,35.053668],[136.999808,35.053668],[137.000424,35.053664],[137.000697,35.053663],[137.000725,35.053629],[137.000749,35.053606],[137.000766,35.053594],[137.000835,35.053577],[137.000939,35.053569],[137.001051,35.053567],[137.001299,35.05355],[137.001371,35.054163],[137.001473,35.054341],[137.00161,35.054431],[137.001697,35.054488],[137.00203,35.054511],[137.001991,35.054383],[137.001833,35.054243],[137.001775,35.054217],[137.002007,35.053891],[137.002171,35.053728],[137.002337,35.053685],[137.002499,35.053638],[137.002635,35.053553]]]}},{"type":"Feature","properties":{"name":"前後町","city":"豊明市","code":"229","setai":2533,"jinko":5507,"n":1,"towns":["232290060"],"lx":136.995202,"ly":35.056979},"geometry":{"type":"Polygon","coordinates":[[[136.985895,35.066033],[136.9863,35.066007],[136.986403,35.066017],[136.986415,35.065473],[136.986468,35.065279],[136.986541,35.064984],[136.987585,35.0639],[136.987727,35.063791],[136.988025,35.063569],[136.988276,35.063422],[136.988529,35.063216],[136.988862,35.062837],[136.989074,35.062584],[136.989152,35.062494],[136.989237,35.062406],[136.989352,35.062265],[136.989285,35.062219],[136.989553,35.061957],[136.98976,35.061759],[136.990657,35.060888],[136.991022,35.061312],[136.99132,35.061599],[136.991757,35.061973],[136.992049,35.061906],[136.992417,35.06184],[136.9926,35.061852],[136.992775,35.061893],[136.992945,35.061965],[136.993118,35.06207],[136.993694,35.062416],[136.993821,35.062495],[136.994041,35.062612],[136.994227,35.062698],[136.994286,35.062608],[136.99371,35.061833],[136.993875,35.061779],[136.993935,35.061726],[136.994007,35.061654],[136.994116,35.06152],[136.994128,35.061438],[136.994159,35.061368],[136.994232,35.061356],[136.994324,35.061338],[136.994407,35.061325],[136.994435,35.061304],[136.994447,35.061256],[136.994462,35.061136],[136.99445,35.061108],[136.994408,35.061079],[136.994356,35.061042],[136.994363,35.060682],[136.994396,35.06064],[136.99441,35.060623],[136.994512,35.060496],[136.994538,35.060465],[136.994551,35.060465],[136.994711,35.060463],[136.994899,35.06046],[136.995125,35.060458],[136.995126,35.060457],[136.995156,35.060457],[136.995217,35.060446],[136.995223,35.060448],[136.995531,35.060367],[136.995621,35.060345],[136.995851,35.060325],[136.996031,35.060309],[136.99638,35.060311],[136.996431,35.060316],[136.996487,35.060313],[136.996549,35.060326],[136.996809,35.060388],[136.996979,35.060378],[136.997034,35.060375],[136.997175,35.060361],[136.997479,35.060337],[136.99757,35.060292],[136.997683,35.060211],[136.998048,35.060063],[136.998272,35.059947],[136.998621,35.059768],[136.99848,35.059554],[136.998285,35.059244],[136.998324,35.059153],[136.99844,35.058919],[136.99836,35.058597],[136.998258,35.058405],[136.99824,35.058363],[136.998238,35.058324],[136.998245,35.058294],[136.99828,35.058263],[136.998326,35.058228],[136.99836,35.05821],[136.998401,35.058184],[136.998436,35.058156],[136.998466,35.058135],[136.99849,35.058107],[136.998511,35.058082],[136.998542,35.058046],[136.998556,35.058028],[136.998563,35.058016],[136.998569,35.057992],[136.998568,35.057976],[136.998567,35.057961],[136.998564,35.057945],[136.998554,35.057922],[136.998539,35.057892],[136.998523,35.05786],[136.998499,35.057813],[136.998485,35.057787],[136.998465,35.05776],[136.998444,35.057736],[136.99842,35.057712],[136.998414,35.057704],[136.998413,35.057696],[136.998415,35.057685],[136.99842,35.057667],[136.998431,35.05763],[136.998445,35.057587],[136.998456,35.057547],[136.998465,35.05753],[136.998484,35.057502],[136.998524,35.057453],[136.998558,35.057413],[136.998594,35.057366],[136.99864,35.057307],[136.99873,35.057209],[136.999013,35.056975],[136.999101,35.056843],[136.999249,35.056647],[136.999256,35.056548],[136.999235,35.056493],[136.999237,35.056402],[136.999294,35.056335],[136.999575,35.05613],[136.999667,35.056122],[136.999812,35.056115],[136.999981,35.056048],[137.000148,35.055992],[137.000251,35.055776],[137.000391,35.055602],[137.00052,35.055417],[137.000499,35.055241],[137.001009,35.055203],[137.001074,35.055197],[137.001197,35.055276],[137.001307,35.055395],[137.001928,35.055537],[137.001901,35.055324],[137.00195,35.055202],[137.001962,35.055073],[137.002098,35.054763],[137.00203,35.054511],[137.001697,35.054488],[137.00161,35.054431],[137.001473,35.054341],[137.001371,35.054163],[137.001299,35.05355],[137.001051,35.053567],[137.000939,35.053569],[137.000835,35.053577],[137.000766,35.053594],[137.000749,35.053606],[137.000725,35.053629],[137.000697,35.053663],[137.000424,35.053664],[136.999808,35.053668],[136.999662,35.053668],[136.99967,35.053438],[136.999742,35.052778],[136.999927,35.052391],[136.99994,35.052389],[137.000129,35.052364],[137.000131,35.052343],[137.000115,35.052186],[137.000066,35.052184],[137.000059,35.052114],[137.000159,35.051905],[137.000325,35.051872],[137.000306,35.051596],[137.000336,35.051539],[137.000348,35.051522],[137.000447,35.051385],[137.000522,35.051291],[137.000827,35.051081],[137.000934,35.050934],[137.001037,35.050809],[137.001207,35.050618],[137.000947,35.050435],[137.000778,35.050347],[137.000459,35.050109],[137.000136,35.05039],[136.999613,35.050754],[136.998969,35.051197],[136.997969,35.051836],[136.997461,35.052145],[136.996893,35.05249],[136.996495,35.05276],[136.995747,35.052177],[136.996284,35.051722],[136.99541,35.050535],[136.99515,35.050931],[136.994893,35.051193],[136.994718,35.051348],[136.994703,35.051469],[136.99454,35.051521],[136.994434,35.051539],[136.994312,35.051596],[136.994184,35.051696],[136.994047,35.051827],[136.993978,35.051947],[136.993957,35.052016],[136.993894,35.052092],[136.993722,35.052223],[136.993613,35.052351],[136.993557,35.052511],[136.993499,35.052661],[136.993425,35.0528],[136.993324,35.052989],[136.993188,35.053203],[136.993114,35.053368],[136.993109,35.053442],[136.993113,35.053535],[136.99311,35.053691],[136.993088,35.053852],[136.992945,35.054095],[136.992839,35.054247],[136.99275,35.054375],[136.992527,35.054622],[136.992509,35.054701],[136.992521,35.05478],[136.992564,35.054858],[136.992572,35.05498],[136.99252,35.05507],[136.992408,35.055238],[136.992269,35.055413],[136.991638,35.055648],[136.991442,35.056011],[136.991465,35.05609],[136.991542,35.056154],[136.991685,35.056309],[136.991765,35.056443],[136.99182,35.056585],[136.991863,35.056725],[136.991883,35.056835],[136.9919,35.05692],[136.991912,35.057017],[136.991863,35.057112],[136.991829,35.057176],[136.991772,35.057289],[136.991691,35.057429],[136.99169,35.057429],[136.991462,35.057579],[136.991334,35.057607],[136.991139,35.05765],[136.990993,35.057757],[136.99087,35.057837],[136.990694,35.057957],[136.990611,35.057988],[136.990522,35.057979],[136.990431,35.057977],[136.990287,35.057994],[136.99005,35.058081],[136.989885,35.058176],[136.989765,35.058246],[136.989667,35.05831],[136.989493,35.058321],[136.98933,35.058347],[136.989211,35.058392],[136.989095,35.058454],[136.988899,35.058549],[136.988727,35.058633],[136.988554,35.058738],[136.988442,35.058829],[136.98834,35.058914],[136.98823,35.058986],[136.988022,35.059076],[136.98778,35.059153],[136.987598,35.059215],[136.987424,35.0593],[136.987339,35.059382],[136.987259,35.059406],[136.98719,35.059465],[136.987095,35.059527],[136.987002,35.059542],[136.986962,35.05956],[136.986828,35.059638],[136.986757,35.059645],[136.986708,35.059661],[136.986664,35.059772],[136.98662,35.059813],[136.986552,35.059819],[136.986401,35.059823],[136.986294,35.059873],[136.98614,35.05997],[136.985898,35.060094],[136.985673,35.060196],[136.985174,35.060455],[136.985215,35.060451],[136.985286,35.060533],[136.985402,35.060466],[136.985637,35.060772],[136.985521,35.060826],[136.985525,35.060831],[136.98555,35.060868],[136.985556,35.060877],[136.985621,35.060896],[136.985718,35.061058],[136.985741,35.061122],[136.985725,35.061223],[136.985621,35.061277],[136.98559,35.061249],[136.985571,35.061175],[136.985485,35.061246],[136.985481,35.061248],[136.985354,35.061175],[136.985274,35.061306],[136.985292,35.061363],[136.985327,35.061452],[136.985326,35.06153],[136.985331,35.061582],[136.985361,35.061655],[136.985449,35.061844],[136.985407,35.061876],[136.98529,35.061957],[136.985143,35.062062],[136.985118,35.062118],[136.985097,35.062164],[136.985073,35.062218],[136.985122,35.06226],[136.98515,35.062285],[136.985231,35.062342],[136.985304,35.062558],[136.9853,35.062682],[136.985296,35.062854],[136.985339,35.062854],[136.98536,35.062845],[136.985474,35.062797],[136.985559,35.062794],[136.985602,35.062826],[136.985625,35.06288],[136.985623,35.062894],[136.985612,35.062983],[136.985605,35.063039],[136.985514,35.063143],[136.985334,35.06335],[136.985343,35.063455],[136.985484,35.063731],[136.985536,35.063817],[136.985564,35.063964],[136.985659,35.064461],[136.985682,35.064648],[136.985981,35.065534],[136.986002,35.065639],[136.98592,35.065798],[136.985893,35.065914],[136.985895,35.066033]]]}},{"type":"Feature","properties":{"name":"栄町元屋敷","city":"豊明市","code":"229","setai":75,"jinko":94,"n":1,"towns":["23229007001"],"lx":137.002217,"ly":35.034987},"geometry":{"type":"Polygon","coordinates":[[[137.002196,35.04322],[137.002212,35.04213],[137.003417,35.04214],[137.003453,35.039986],[137.004049,35.039815],[137.003479,35.038527],[137.00347,35.038418],[137.003506,35.038324],[137.003614,35.038199],[137.004373,35.037296],[137.004524,35.037078],[137.005302,35.035974],[137.005438,35.035833],[137.005611,35.035707],[137.00587,35.035582],[137.006222,35.035408],[137.006686,35.035183],[137.006901,35.035041],[137.007025,35.034867],[137.007081,35.034727],[137.007183,35.0344],[137.007138,35.034391],[137.006647,35.034297],[137.005949,35.034113],[137.005333,35.033852],[137.005022,35.033571],[137.004734,35.033193],[137.004292,35.032467],[137.003895,35.031779],[137.00353,35.031128],[137.003384,35.03058],[137.00332,35.030104],[137.003295,35.029705],[137.003279,35.02927],[137.003267,35.029168],[137.003231,35.028747],[137.003158,35.028328],[137.002936,35.028045],[137.002498,35.027711],[137.002278,35.027566],[137.002075,35.027423],[137.001726,35.027186],[137.001703,35.02717],[137.00162,35.027245],[137.001202,35.027618],[137.001338,35.027741],[137.001358,35.028004],[137.001358,35.029651],[137.000385,35.029616],[136.999426,35.029648],[136.999477,35.031553],[136.999196,35.03156],[136.999192,35.032611],[136.99919,35.033728],[136.999099,35.033732],[136.999131,35.035223],[136.999071,35.035219],[136.999071,35.035224],[136.9977,35.035227],[136.997776,35.036562],[136.996879,35.03678],[136.996849,35.036871],[136.996776,35.037038],[136.996748,35.037122],[136.996755,35.037298],[136.996766,35.037386],[136.996781,35.037473],[136.996878,35.037802],[136.99695,35.037848],[136.997044,35.037876],[136.997137,35.037903],[136.997232,35.037935],[136.997323,35.037986],[136.997392,35.038038],[136.997426,35.038064],[136.997465,35.038094],[136.997537,35.03817],[136.997605,35.038239],[136.997645,35.038309],[136.997698,35.038391],[136.997647,35.03878],[136.997619,35.038792],[136.997604,35.038921],[136.997352,35.039],[136.999493,35.040919],[136.998132,35.041343],[136.999143,35.042937],[136.99931,35.043255],[137.000071,35.04458],[137.001911,35.043782],[137.002172,35.043673],[137.002327,35.043609],[137.002258,35.043497],[137.002211,35.043388],[137.002196,35.04322]]]}},{"type":"Feature","properties":{"name":"栄町大原","city":"豊明市","code":"229","setai":1708,"jinko":4213,"n":1,"towns":["23229007002"],"lx":136.995445,"ly":35.044225},"geometry":{"type":"Polygon","coordinates":[[[136.993188,35.053203],[136.993324,35.052989],[136.993425,35.0528],[136.993499,35.052661],[136.993557,35.052511],[136.993613,35.052351],[136.993722,35.052223],[136.993894,35.052092],[136.993957,35.052016],[136.993978,35.051947],[136.993681,35.051679],[136.99419,35.051142],[136.994112,35.051043],[136.994014,35.050918],[136.993896,35.050762],[136.993866,35.05069],[136.993768,35.050482],[136.993766,35.050434],[136.993794,35.050345],[136.993812,35.050194],[136.993803,35.050076],[136.993745,35.049887],[136.993734,35.049811],[136.993726,35.049599],[136.993703,35.04942],[136.993623,35.048785],[136.993601,35.048579],[136.993796,35.048472],[136.993877,35.048427],[136.994189,35.048304],[136.994411,35.048236],[136.994653,35.048187],[136.995183,35.048155],[136.995905,35.04815],[136.996145,35.048101],[136.996462,35.047992],[136.996733,35.047858],[136.997032,35.047693],[136.997203,35.047632],[136.997822,35.047627],[136.998053,35.047577],[136.998225,35.047572],[136.998214,35.047649],[136.998172,35.047711],[136.998042,35.047917],[136.997967,35.048036],[136.997877,35.048084],[136.997768,35.048185],[136.997573,35.048353],[136.997415,35.048461],[136.997156,35.048614],[136.997285,35.048637],[136.997425,35.048628],[136.998312,35.048393],[136.998989,35.048261],[136.999091,35.048245],[136.999394,35.048132],[136.999543,35.048088],[136.999726,35.048064],[136.999791,35.047965],[136.999831,35.047846],[136.999863,35.047678],[136.999889,35.047495],[136.999907,35.047388],[136.999941,35.047282],[136.999977,35.047194],[137.000047,35.047083],[137.000132,35.046982],[137.000242,35.04688],[137.000405,35.046759],[137.000588,35.046637],[137.000714,35.046552],[137.001128,35.046158],[137.001485,35.045843],[137.002158,35.045313],[137.00221,35.045235],[137.002263,35.045184],[137.002378,35.045113],[137.002328,35.044888],[137.002246,35.044628],[137.002206,35.044403],[137.002165,35.044065],[137.002172,35.043673],[137.001911,35.043782],[137.000071,35.04458],[136.99931,35.043255],[136.999143,35.042937],[136.998132,35.041343],[136.999493,35.040919],[136.997352,35.039],[136.9973,35.039016],[136.996831,35.039144],[136.996654,35.039173],[136.996543,35.039153],[136.99642,35.039245],[136.996283,35.039301],[136.996077,35.039346],[136.995899,35.039345],[136.995707,35.0393],[136.995475,35.03921],[136.995297,35.039119],[136.995146,35.039051],[136.99505,35.03904],[136.993797,35.038324],[136.993754,35.038342],[136.993685,35.038245],[136.993522,35.038327],[136.993466,35.038353],[136.993326,35.038375],[136.993216,35.038474],[136.992996,35.038507],[136.99264,35.038574],[136.992284,35.038416],[136.99201,35.038258],[136.991791,35.038066],[136.991627,35.037852],[136.991505,35.037649],[136.991326,35.037648],[136.991244,35.037575],[136.991107,35.037558],[136.990995,35.037428],[136.991039,35.037339],[136.990916,35.037211],[136.990917,35.036926],[136.991109,35.036837],[136.991205,35.03669],[136.991329,35.036521],[136.991425,35.036386],[136.991467,35.036138],[136.991498,35.035902],[136.991202,35.035879],[136.99089,35.036078],[136.990708,35.036195],[136.990483,35.036296],[136.990318,35.036372],[136.990163,35.036405],[136.98998,35.036397],[136.989842,35.036399],[136.989707,35.036479],[136.989639,35.036498],[136.989536,35.036527],[136.989315,35.036627],[136.989114,35.036806],[136.988896,35.03696],[136.988743,35.037065],[136.988542,35.037193],[136.988393,35.037289],[136.988157,35.037426],[136.987863,35.037572],[136.987586,35.037701],[136.987342,35.037783],[136.987253,35.037831],[136.987625,35.038355],[136.987749,35.038495],[136.987804,35.038607],[136.98783,35.038768],[136.987871,35.03904],[136.987898,35.039198],[136.987966,35.039232],[136.988336,35.039255],[136.988469,35.039432],[136.988494,35.039508],[136.988504,35.039595],[136.988503,35.039675],[136.988489,35.039779],[136.988479,35.039899],[136.988493,35.03999],[136.988519,35.040075],[136.988758,35.040518],[136.98884,35.040856],[136.989126,35.041679],[136.988879,35.041724],[136.988729,35.041577],[136.988619,35.041645],[136.988345,35.041734],[136.988002,35.041756],[136.987988,35.041847],[136.987714,35.041981],[136.987522,35.041992],[136.987056,35.04198],[136.986796,35.042048],[136.986508,35.042171],[136.98622,35.042351],[136.986014,35.042475],[136.985781,35.042553],[136.985493,35.042598],[136.985095,35.042665],[136.984821,35.042754],[136.984698,35.042844],[136.984629,35.043025],[136.984509,35.043254],[136.985876,35.043537],[136.98652,35.043657],[136.98714,35.043751],[136.987415,35.043779],[136.987853,35.043813],[136.988218,35.043824],[136.98848,35.043815],[136.988805,35.043803],[136.989089,35.043781],[136.989339,35.043758],[136.989602,35.043721],[136.98994,35.04367],[136.990165,35.04363],[136.99021,35.043819],[136.990305,35.043997],[136.990351,35.044093],[136.990509,35.044293],[136.99062,35.044434],[136.990725,35.044567],[136.9909,35.044765],[136.991123,35.044926],[136.991219,35.044976],[136.991375,35.045064],[136.991586,35.045166],[136.991774,35.045257],[136.991361,35.045805],[136.991215,35.045996],[136.991057,35.046154],[136.990945,35.046233],[136.990821,35.046335],[136.990724,35.046391],[136.990613,35.046434],[136.990347,35.046514],[136.990698,35.046571],[136.990989,35.046627],[136.991152,35.046664],[136.991336,35.046713],[136.991527,35.046773],[136.991605,35.046801],[136.991687,35.046837],[136.991945,35.04696],[136.992194,35.047081],[136.992335,35.047133],[136.992528,35.047189],[136.9927,35.047241],[136.992797,35.047236],[136.99286,35.047222],[136.992991,35.04736],[136.992615,35.047564],[136.992442,35.047653],[136.992129,35.047801],[136.991687,35.04799],[136.991309,35.048115],[136.989576,35.048738],[136.988801,35.049017],[136.988657,35.049036],[136.98853,35.049018],[136.988353,35.04891],[136.988389,35.049035],[136.988402,35.049156],[136.988386,35.049568],[136.988341,35.049715],[136.987866,35.050019],[136.987648,35.050148],[136.988013,35.050154],[136.987956,35.050218],[136.987784,35.050428],[136.987678,35.050649],[136.988535,35.05084],[136.988865,35.051059],[136.988898,35.051089],[136.988917,35.051117],[136.988921,35.051142],[136.988943,35.051295],[136.988727,35.051535],[136.988612,35.051654],[136.988362,35.051814],[136.988145,35.051959],[136.988201,35.052029],[136.988343,35.052196],[136.988402,35.052252],[136.98859,35.052471],[136.988642,35.052517],[136.98885,35.052624],[136.988906,35.052656],[136.989125,35.052816],[136.989452,35.05302],[136.990219,35.053016],[136.990596,35.053063],[136.990807,35.053048],[136.991239,35.053082],[136.991451,35.05303],[136.991601,35.053001],[136.991742,35.053068],[136.991897,35.053165],[136.991972,35.053207],[136.992208,35.053181],[136.992732,35.053394],[136.993114,35.053368],[136.993188,35.053203]]]}},{"type":"Feature","properties":{"name":"栄町殿ノ山","city":"豊明市","code":"229","setai":1388,"jinko":3718,"n":1,"towns":["23229007003"],"lx":136.982832,"ly":35.047685},"geometry":{"type":"Polygon","coordinates":[[[136.97567,35.053928],[136.9762,35.053817],[136.976278,35.053835],[136.976523,35.053571],[136.976665,35.053542],[136.977107,35.05347],[136.977154,35.053662],[136.978049,35.053938],[136.978077,35.054011],[136.978137,35.05417],[136.978308,35.054108],[136.978517,35.053999],[136.978503,35.053599],[136.97848,35.053346],[136.978776,35.053121],[136.979177,35.052974],[136.979398,35.052678],[136.97961,35.052465],[136.980044,35.05214],[136.980184,35.05204],[136.980394,35.051968],[136.980772,35.051896],[136.981099,35.051977],[136.981246,35.05178],[136.981608,35.051326],[136.982257,35.051673],[136.982442,35.051537],[136.982718,35.051574],[136.982842,35.051559],[136.982955,35.051534],[136.983082,35.051382],[136.983364,35.051095],[136.983852,35.050832],[136.984114,35.050681],[136.984395,35.050559],[136.984444,35.050537],[136.984893,35.050364],[136.985119,35.050295],[136.985281,35.050268],[136.985601,35.050256],[136.98571,35.050216],[136.985849,35.050174],[136.985952,35.05014],[136.986388,35.050159],[136.98663,35.050169],[136.986903,35.050141],[136.98705,35.050123],[136.98716,35.050124],[136.98726,35.050142],[136.987648,35.050148],[136.987866,35.050019],[136.988341,35.049715],[136.988386,35.049568],[136.988402,35.049156],[136.988389,35.049035],[136.988353,35.04891],[136.98853,35.049018],[136.988657,35.049036],[136.988801,35.049017],[136.989576,35.048738],[136.991309,35.048115],[136.991687,35.04799],[136.992129,35.047801],[136.992442,35.047653],[136.992615,35.047564],[136.992991,35.04736],[136.99286,35.047222],[136.992797,35.047236],[136.9927,35.047241],[136.992528,35.047189],[136.992335,35.047133],[136.992194,35.047081],[136.991945,35.04696],[136.991687,35.046837],[136.991605,35.046801],[136.991527,35.046773],[136.991336,35.046713],[136.991152,35.046664],[136.990989,35.046627],[136.990698,35.046571],[136.990347,35.046514],[136.990613,35.046434],[136.990724,35.046391],[136.990821,35.046335],[136.990945,35.046233],[136.991057,35.046154],[136.991215,35.045996],[136.991361,35.045805],[136.991774,35.045257],[136.991586,35.045166],[136.991375,35.045064],[136.991219,35.044976],[136.991123,35.044926],[136.9909,35.044765],[136.990725,35.044567],[136.99062,35.044434],[136.990509,35.044293],[136.990351,35.044093],[136.990305,35.043997],[136.99021,35.043819],[136.990165,35.04363],[136.98994,35.04367],[136.989602,35.043721],[136.989339,35.043758],[136.989089,35.043781],[136.988805,35.043803],[136.98848,35.043815],[136.988218,35.043824],[136.987853,35.043813],[136.987415,35.043779],[136.98714,35.043751],[136.98652,35.043657],[136.985876,35.043537],[136.984509,35.043254],[136.984505,35.043261],[136.984382,35.043591],[136.984288,35.043764],[136.984197,35.043966],[136.984154,35.04408],[136.9841,35.044219],[136.984061,35.044272],[136.984026,35.044321],[136.984012,35.04434],[136.983743,35.044441],[136.983727,35.044445],[136.983538,35.044503],[136.983298,35.044436],[136.983066,35.044354],[136.982716,35.044231],[136.982401,35.044119],[136.982176,35.044041],[136.982052,35.043992],[136.981787,35.044198],[136.981615,35.044343],[136.981355,35.044456],[136.981181,35.044599],[136.981173,35.044605],[136.981017,35.044823],[136.980917,35.04498],[136.980876,35.045026],[136.980704,35.045215],[136.980142,35.045478],[136.979345,35.04585],[136.978118,35.045765],[136.977976,35.045841],[136.977957,35.045947],[136.977873,35.046076],[136.977146,35.046912],[136.976869,35.047122],[136.976709,35.047295],[136.976492,35.047476],[136.976268,35.047713],[136.976083,35.047909],[136.975773,35.047912],[136.975652,35.047972],[136.975439,35.048073],[136.975299,35.04814],[136.975252,35.048159],[136.975193,35.048182],[136.974938,35.048271],[136.974611,35.048378],[136.974356,35.048595],[136.97417,35.048771],[136.973961,35.049036],[136.973923,35.049122],[136.97373,35.049043],[136.973717,35.049153],[136.973715,35.049169],[136.973719,35.049169],[136.973713,35.049205],[136.973916,35.049277],[136.974296,35.049412],[136.974417,35.049496],[136.974458,35.04951],[136.974641,35.049498],[136.974623,35.049524],[136.974701,35.049543],[136.974706,35.049549],[136.974785,35.049646],[136.974804,35.049708],[136.974826,35.049785],[136.974854,35.049823],[136.974871,35.049849],[136.974873,35.049858],[136.974902,35.049992],[136.974916,35.04999],[136.974956,35.050152],[136.975158,35.05012],[136.975159,35.050154],[136.97517,35.050256],[136.975201,35.050352],[136.975235,35.050657],[136.975244,35.050891],[136.975228,35.051005],[136.975233,35.051117],[136.975267,35.051234],[136.975265,35.051394],[136.975268,35.051404],[136.9751,35.051404],[136.975083,35.05179],[136.974896,35.051777],[136.974622,35.051779],[136.974508,35.051811],[136.974277,35.051942],[136.974117,35.052009],[136.973822,35.052084],[136.973595,35.05212],[136.973616,35.052285],[136.973709,35.053098],[136.973874,35.053198],[136.974223,35.053385],[136.974389,35.053471],[136.974467,35.053532],[136.974533,35.053614],[136.97486,35.054175],[136.975227,35.054061],[136.97567,35.053928]]]}},{"type":"Feature","properties":{"name":"栄町武侍","city":"豊明市","code":"229","setai":2465,"jinko":5998,"n":2,"towns":["23229007004","23229007004"],"lx":136.977604,"ly":35.057711},"geometry":{"type":"MultiPolygon","coordinates":[[[[136.972386,35.053417],[136.972418,35.053323],[136.972441,35.053243],[136.972449,35.053183],[136.972462,35.052741],[136.972686,35.05272],[136.972703,35.052571],[136.9731,35.052536],[136.973122,35.052569],[136.973149,35.052559],[136.973337,35.052498],[136.973312,35.052421],[136.973331,35.052416],[136.973197,35.052191],[136.973595,35.05212],[136.973616,35.052285],[136.973709,35.053098],[136.973874,35.053198],[136.974223,35.053385],[136.974389,35.053471],[136.974467,35.053532],[136.974533,35.053614],[136.97486,35.054175],[136.975227,35.054061],[136.97567,35.053928],[136.9762,35.053817],[136.976278,35.053835],[136.976523,35.053571],[136.976665,35.053542],[136.977107,35.05347],[136.977154,35.053662],[136.978049,35.053938],[136.978077,35.054011],[136.978137,35.05417],[136.978308,35.054108],[136.978517,35.053999],[136.978503,35.053599],[136.97848,35.053346],[136.978776,35.053121],[136.979177,35.052974],[136.979398,35.052678],[136.97961,35.052465],[136.980044,35.05214],[136.980184,35.05204],[136.980394,35.051968],[136.980772,35.051896],[136.981099,35.051977],[136.981078,35.052298],[136.98136,35.052472],[136.981203,35.053046],[136.98109,35.053415],[136.981031,35.053464],[136.980598,35.053728],[136.979931,35.054147],[136.980172,35.054467],[136.98048,35.054287],[136.981003,35.05395],[136.982332,35.054656],[136.98221,35.054859],[136.981451,35.056062],[136.981545,35.056103],[136.981787,35.056038],[136.981915,35.055879],[136.981984,35.055743],[136.982114,35.055788],[136.982382,35.055507],[136.982509,35.055591],[136.982772,35.055787],[136.982926,35.055898],[136.983024,35.056005],[136.983124,35.056195],[136.983326,35.056162],[136.983353,35.056207],[136.98371,35.056118],[136.983869,35.056484],[136.983922,35.056665],[136.983958,35.056885],[136.983906,35.057223],[136.983926,35.057268],[136.983877,35.057465],[136.983834,35.057468],[136.983775,35.057459],[136.98377,35.057824],[136.983767,35.058185],[136.983883,35.05822],[136.98383,35.058282],[136.983795,35.058374],[136.983873,35.058413],[136.983858,35.05843],[136.984192,35.058685],[136.984573,35.059008],[136.984828,35.059218],[136.984955,35.059326],[136.985145,35.059481],[136.985336,35.059635],[136.985472,35.059581],[136.985737,35.059769],[136.985953,35.059602],[136.985994,35.059632],[136.986294,35.059873],[136.98614,35.05997],[136.985898,35.060094],[136.985673,35.060196],[136.985174,35.060455],[136.985109,35.060436],[136.984924,35.06048],[136.984704,35.060555],[136.984494,35.060648],[136.984246,35.060883],[136.984041,35.060981],[136.983874,35.06108],[136.983749,35.061155],[136.982677,35.061011],[136.982536,35.060983],[136.982424,35.060961],[136.98241,35.060959],[136.982324,35.060955],[136.982252,35.060978],[136.981963,35.061068],[136.981896,35.061082],[136.981822,35.061091],[136.981508,35.061187],[136.981473,35.061171],[136.981375,35.061216],[136.981305,35.06113],[136.980986,35.061156],[136.980983,35.06123],[136.980803,35.061256],[136.980556,35.06126],[136.980533,35.061226],[136.980383,35.061195],[136.980397,35.061107],[136.98025,35.061091],[136.980177,35.061083],[136.979792,35.061237],[136.979677,35.061282],[136.9795,35.061316],[136.979364,35.061342],[136.978978,35.061311],[136.978952,35.061395],[136.978824,35.061369],[136.978463,35.06146],[136.978424,35.061401],[136.978723,35.061189],[136.979382,35.06116],[136.979388,35.061113],[136.979382,35.061092],[136.979364,35.061077],[136.979296,35.061084],[136.979103,35.061096],[136.97889,35.061089],[136.978763,35.0611],[136.978671,35.06113],[136.97838,35.061323],[136.978291,35.061394],[136.978186,35.061458],[136.978159,35.061474],[136.977953,35.061597],[136.977578,35.061734],[136.977284,35.061867],[136.977211,35.061927],[136.977181,35.061954],[136.977131,35.061997],[136.976893,35.061935],[136.976763,35.061886],[136.976642,35.061951],[136.976196,35.062073],[136.976102,35.062153],[136.975884,35.062224],[136.975804,35.062311],[136.975418,35.062602],[136.975234,35.062693],[136.974782,35.063013],[136.974557,35.063119],[136.974452,35.063041],[136.974854,35.062485],[136.974945,35.062437],[136.974946,35.062437],[136.975076,35.06238],[136.975679,35.062099],[136.975814,35.062037],[136.975901,35.061997],[136.975915,35.061979],[136.976004,35.06194],[136.97605,35.061785],[136.976056,35.061719],[136.976059,35.061637],[136.976037,35.061515],[136.976028,35.061468],[136.975978,35.061416],[136.975913,35.061312],[136.975874,35.061278],[136.975735,35.061167],[136.975658,35.061078],[136.975607,35.061017],[136.975596,35.060994],[136.975577,35.060957],[136.97557,35.060942],[136.975533,35.060801],[136.975448,35.06069],[136.975337,35.060596],[136.975206,35.060418],[136.975066,35.060239],[136.974975,35.060143],[136.974782,35.059978],[136.974733,35.059943],[136.974662,35.059877],[136.974582,35.059779],[136.974511,35.059705],[136.974477,35.059671],[136.974366,35.059525],[136.974215,35.059295],[136.974122,35.059041],[136.973939,35.058827],[136.973939,35.058828],[136.973888,35.058759],[136.973848,35.05861],[136.973807,35.058535],[136.97365,35.058395],[136.973579,35.058336],[136.973462,35.058147],[136.973379,35.057821],[136.973244,35.057567],[136.973191,35.057428],[136.973233,35.057316],[136.973359,35.057269],[136.973483,35.0572],[136.973377,35.057039],[136.973357,35.057039],[136.973269,35.057031],[136.973196,35.057011],[136.973136,35.056908],[136.973044,35.056716],[136.972898,35.056758],[136.972878,35.05657],[136.972915,35.05655],[136.972935,35.056539],[136.972916,35.056509],[136.972869,35.056514],[136.972854,35.056492],[136.972678,35.056201],[136.972672,35.056175],[136.972938,35.056098],[136.972794,35.055596],[136.972777,35.055539],[136.972765,35.055496],[136.972936,35.055351],[136.973005,35.0553],[136.973042,35.055316],[136.973155,35.055339],[136.973191,35.055347],[136.973206,35.055335],[136.97325,35.055302],[136.973253,35.055299],[136.973266,35.055288],[136.973266,35.055289],[136.973532,35.055088],[136.973516,35.055071],[136.973495,35.055049],[136.973426,35.054978],[136.973441,35.054965],[136.973163,35.054707],[136.973118,35.054632],[136.973102,35.054644],[136.973001,35.054457],[136.972867,35.054207],[136.972909,35.054192],[136.972999,35.054123],[136.973287,35.053982],[136.973396,35.053954],[136.973602,35.053836],[136.973427,35.05363],[136.973305,35.053482],[136.973284,35.05343],[136.973274,35.053403],[136.973208,35.053429],[136.973165,35.053446],[136.973016,35.053466],[136.972419,35.053421],[136.972386,35.053417]]],[[[136.993601,35.048579],[136.993796,35.048472],[136.993877,35.048427],[136.994189,35.048304],[136.994411,35.048236],[136.994653,35.048187],[136.995183,35.048155],[136.995905,35.04815],[136.996145,35.048101],[136.996462,35.047992],[136.996733,35.047858],[136.997032,35.047693],[136.997203,35.047632],[136.997822,35.047627],[136.998053,35.047577],[136.998225,35.047572],[136.998214,35.047649],[136.998172,35.047711],[136.998042,35.047917],[136.997967,35.048036],[136.997877,35.048084],[136.997768,35.048185],[136.997573,35.048353],[136.997415,35.048461],[136.997156,35.048614],[136.997285,35.048637],[136.997425,35.048628],[136.998312,35.048393],[136.998989,35.048261],[136.999091,35.048245],[136.999394,35.048132],[136.999543,35.048088],[136.999726,35.048064],[136.999261,35.048738],[136.999116,35.049016],[136.999152,35.049183],[136.999195,35.049278],[136.999302,35.049417],[136.999407,35.04952],[136.998506,35.050137],[136.998375,35.050022],[136.998045,35.050257],[136.997557,35.049642],[136.997342,35.049759],[136.997083,35.049437],[136.996563,35.049702],[136.996222,35.049172],[136.99592,35.049544],[136.995784,35.049786],[136.995713,35.049915],[136.99541,35.050535],[136.99515,35.050931],[136.994893,35.051193],[136.994718,35.051348],[136.994703,35.051469],[136.99454,35.051521],[136.994434,35.051539],[136.994312,35.051596],[136.994184,35.051696],[136.994047,35.051827],[136.993978,35.051947],[136.993681,35.051679],[136.99419,35.051142],[136.994112,35.051043],[136.994014,35.050918],[136.993896,35.050762],[136.993866,35.05069],[136.993768,35.050482],[136.993766,35.050434],[136.993794,35.050345],[136.993812,35.050194],[136.993803,35.050076],[136.993745,35.049887],[136.993734,35.049811],[136.993726,35.049599],[136.993703,35.04942],[136.993623,35.048785],[136.993601,35.048579]]]]}},{"type":"Feature","properties":{"name":"間米町","city":"豊明市","code":"229","setai":982,"jinko":2314,"n":1,"towns":["232290080"],"lx":136.992339,"ly":35.067261},"geometry":{"type":"Polygon","coordinates":[[[136.998617,35.073663],[136.99865,35.073435],[136.99874,35.073076],[136.998802,35.072923],[136.998929,35.072792],[136.999102,35.072794],[136.999368,35.072847],[136.999711,35.072936],[136.999993,35.072945],[137.000236,35.072866],[137.000529,35.0727],[137.000593,35.072677],[137.000632,35.072593],[137.000685,35.072413],[137.000603,35.072315],[137.000555,35.072119],[137.000318,35.072106],[137.000198,35.072095],[136.999797,35.071972],[136.999694,35.071904],[136.999498,35.071824],[136.999408,35.071798],[136.99945,35.071426],[136.99961,35.071039],[136.999685,35.070792],[136.999686,35.070612],[136.999654,35.070545],[136.999583,35.070493],[136.999403,35.070463],[136.999337,35.070416],[136.999292,35.070209],[136.999429,35.069723],[136.999541,35.069494],[136.999604,35.069227],[136.999693,35.068884],[136.99979,35.068746],[137.000042,35.068784],[137.000272,35.068837],[137.000698,35.069023],[137.00123,35.068921],[137.001323,35.068897],[137.001362,35.06885],[137.001389,35.068815],[137.001407,35.068791],[137.001435,35.068784],[137.001475,35.068798],[137.001518,35.068821],[137.002318,35.06913],[137.002689,35.068726],[137.002786,35.068479],[137.002983,35.068102],[137.003153,35.068026],[137.00331,35.067934],[137.003381,35.067861],[137.003573,35.067753],[137.004057,35.067352],[137.004208,35.06724],[137.004514,35.067049],[137.004663,35.066964],[137.005067,35.066824],[137.005545,35.066841],[137.005707,35.066845],[137.005773,35.066763],[137.005785,35.066506],[137.005877,35.066443],[137.005819,35.066395],[137.005607,35.066442],[137.005494,35.066447],[137.004962,35.066273],[137.004905,35.066221],[137.004642,35.065826],[137.00434,35.06553],[137.003894,35.065094],[137.003797,35.065187],[137.003356,35.065017],[137.003271,35.064967],[137.003148,35.064918],[137.003001,35.064819],[137.003103,35.064729],[137.003212,35.064533],[137.003283,35.064372],[137.003312,35.063954],[137.002992,35.063737],[137.002826,35.063903],[137.002545,35.064029],[137.002363,35.064123],[137.00224,35.064025],[137.001746,35.06409],[137.001633,35.064154],[137.001373,35.064194],[137.001438,35.064044],[137.001462,35.063943],[137.001473,35.063863],[137.001473,35.063678],[137.001475,35.063497],[137.001471,35.063288],[137.001433,35.063169],[137.001356,35.062962],[137.001291,35.062801],[137.001216,35.062627],[137.00115,35.062481],[137.001105,35.06238],[137.001013,35.062195],[137.000986,35.062161],[137.000845,35.062062],[137.000765,35.062011],[137.000653,35.061917],[137.000535,35.06183],[137.000482,35.061709],[137.000423,35.06154],[137.000365,35.06136],[137.000324,35.061089],[137.001393,35.060947],[137.00131,35.06047],[137.001257,35.060225],[137.001206,35.060027],[137.001172,35.059914],[137.001186,35.059881],[137.001207,35.059849],[137.001234,35.059808],[137.001275,35.059748],[137.001324,35.059662],[137.001362,35.059594],[137.001359,35.059556],[137.00135,35.059486],[137.001327,35.05941],[137.001305,35.059347],[137.00133,35.059266],[137.001337,35.059146],[137.001343,35.059008],[137.00112,35.059025],[137.00105,35.05852],[137.001418,35.058477],[137.001516,35.058494],[137.001642,35.058329],[137.001515,35.05825],[137.001079,35.058225],[137.001072,35.057872],[137.001072,35.057792],[137.001404,35.057566],[137.001415,35.057535],[137.001133,35.057372],[137.001272,35.057229],[137.001411,35.05711],[137.001952,35.056734],[137.002213,35.056513],[137.002282,35.055941],[137.002239,35.055876],[137.00213,35.055776],[137.001986,35.055638],[137.001928,35.055537],[137.001307,35.055395],[137.001197,35.055276],[137.001074,35.055197],[137.001009,35.055203],[137.000499,35.055241],[137.00052,35.055417],[137.000391,35.055602],[137.000251,35.055776],[137.000148,35.055992],[136.999981,35.056048],[136.999812,35.056115],[136.999667,35.056122],[136.999575,35.05613],[136.999294,35.056335],[136.999237,35.056402],[136.999235,35.056493],[136.999256,35.056548],[136.999249,35.056647],[136.999101,35.056843],[136.999013,35.056975],[136.99873,35.057209],[136.99864,35.057307],[136.998594,35.057366],[136.998558,35.057413],[136.998524,35.057453],[136.998484,35.057502],[136.998465,35.05753],[136.998456,35.057547],[136.998445,35.057587],[136.998431,35.05763],[136.99842,35.057667],[136.998415,35.057685],[136.998413,35.057696],[136.998414,35.057704],[136.99842,35.057712],[136.998444,35.057736],[136.998465,35.05776],[136.998485,35.057787],[136.998499,35.057813],[136.998523,35.05786],[136.998539,35.057892],[136.998554,35.057922],[136.998564,35.057945],[136.998567,35.057961],[136.998568,35.057976],[136.998569,35.057992],[136.998563,35.058016],[136.998556,35.058028],[136.998542,35.058046],[136.998511,35.058082],[136.99849,35.058107],[136.998466,35.058135],[136.998436,35.058156],[136.998401,35.058184],[136.99836,35.05821],[136.998326,35.058228],[136.99828,35.058263],[136.998245,35.058294],[136.998238,35.058324],[136.99824,35.058363],[136.998258,35.058405],[136.99836,35.058597],[136.99844,35.058919],[136.998324,35.059153],[136.998285,35.059244],[136.99848,35.059554],[136.998621,35.059768],[136.998272,35.059947],[136.998048,35.060063],[136.997683,35.060211],[136.99757,35.060292],[136.997479,35.060337],[136.997175,35.060361],[136.997034,35.060375],[136.996979,35.060378],[136.996809,35.060388],[136.996549,35.060326],[136.996487,35.060313],[136.996431,35.060316],[136.99638,35.060311],[136.996031,35.060309],[136.995851,35.060325],[136.995621,35.060345],[136.995531,35.060367],[136.995223,35.060448],[136.995217,35.060446],[136.995156,35.060457],[136.995126,35.060457],[136.995125,35.060458],[136.994899,35.06046],[136.994711,35.060463],[136.994551,35.060465],[136.994538,35.060465],[136.994512,35.060496],[136.99441,35.060623],[136.994396,35.06064],[136.994363,35.060682],[136.994356,35.061042],[136.994408,35.061079],[136.99445,35.061108],[136.994462,35.061136],[136.994447,35.061256],[136.994435,35.061304],[136.994407,35.061325],[136.994324,35.061338],[136.994232,35.061356],[136.994159,35.061368],[136.994128,35.061438],[136.994116,35.06152],[136.994007,35.061654],[136.993935,35.061726],[136.993875,35.061779],[136.99371,35.061833],[136.994286,35.062608],[136.994227,35.062698],[136.994041,35.062612],[136.993821,35.062495],[136.993694,35.062416],[136.993118,35.06207],[136.992945,35.061965],[136.992775,35.061893],[136.9926,35.061852],[136.992417,35.06184],[136.992049,35.061906],[136.991757,35.061973],[136.99132,35.061599],[136.991022,35.061312],[136.990657,35.060888],[136.98976,35.061759],[136.989553,35.061957],[136.989285,35.062219],[136.989352,35.062265],[136.989237,35.062406],[136.989152,35.062494],[136.989074,35.062584],[136.988862,35.062837],[136.988529,35.063216],[136.988276,35.063422],[136.988025,35.063569],[136.987727,35.063791],[136.987585,35.0639],[136.986541,35.064984],[136.986468,35.065279],[136.986415,35.065473],[136.986403,35.066017],[136.986417,35.066031],[136.98668,35.066412],[136.987082,35.067019],[136.987314,35.067368],[136.987407,35.067508],[136.987366,35.06759],[136.987507,35.069445],[136.987512,35.069512],[136.987399,35.070756],[136.987422,35.071228],[136.987371,35.071239],[136.987323,35.071272],[136.987304,35.071325],[136.9873,35.071337],[136.987254,35.071458],[136.987254,35.071459],[136.987293,35.071593],[136.987319,35.071799],[136.987377,35.071972],[136.987465,35.072148],[136.987781,35.072732],[136.987816,35.072795],[136.988162,35.073468],[136.988166,35.073483],[136.988325,35.07342],[136.98866,35.073287],[136.988712,35.073257],[136.988883,35.073166],[136.988892,35.073161],[136.988978,35.073105],[136.989056,35.07307],[136.989242,35.072986],[136.989382,35.072938],[136.989434,35.07292],[136.989443,35.072916],[136.989533,35.0728],[136.989712,35.072639],[136.989845,35.072492],[136.990091,35.07239],[136.99032,35.072364],[136.990654,35.072443],[136.991051,35.072576],[136.991498,35.072702],[136.991718,35.072701],[136.991911,35.072658],[136.991981,35.072633],[136.992033,35.072614],[136.992578,35.072386],[136.992612,35.072373],[136.992669,35.072352],[136.99283,35.072297],[136.992997,35.07224],[136.993226,35.072189],[136.993316,35.072153],[136.993628,35.072028],[136.993931,35.071979],[136.994002,35.071967],[136.994165,35.071929],[136.994493,35.071784],[136.994478,35.071749],[136.994644,35.071693],[136.994763,35.071712],[136.995551,35.071822],[136.995883,35.071875],[136.996057,35.071917],[136.996248,35.072012],[136.996343,35.072126],[136.996415,35.072474],[136.996475,35.072504],[136.996627,35.072493],[136.996826,35.072579],[136.996897,35.072712],[136.996899,35.072823],[136.99695,35.072939],[136.997035,35.07287],[136.997121,35.07282],[136.997213,35.072805],[136.997365,35.07283],[136.997377,35.072892],[136.997357,35.072969],[136.99719,35.073297],[136.997155,35.073409],[136.997185,35.073534],[136.99725,35.073573],[136.997408,35.073566],[136.9977,35.073557],[136.997873,35.073581],[136.998005,35.073659],[136.998089,35.073792],[136.998141,35.073952],[136.998122,35.074059],[136.998125,35.074211],[136.998279,35.074352],[136.998455,35.074438],[136.998522,35.074417],[136.998806,35.074169],[136.998771,35.074063],[136.998699,35.073979],[136.998669,35.073827],[136.998617,35.073663]]]}},{"type":"Feature","properties":{"name":"新栄町","city":"豊明市","code":"229","setai":2465,"jinko":6142,"n":7,"towns":["23229009001","23229009002","23229009003","23229009004","23229009005","23229009006","23229009007"],"lx":136.987164,"ly":35.055604},"geometry":{"type":"Polygon","coordinates":[[[136.979931,35.054147],[136.980598,35.053728],[136.981031,35.053464],[136.98109,35.053415],[136.981203,35.053046],[136.98136,35.052472],[136.981078,35.052298],[136.981099,35.051977],[136.981246,35.05178],[136.981608,35.051326],[136.982257,35.051673],[136.982442,35.051537],[136.982718,35.051574],[136.982842,35.051559],[136.982955,35.051534],[136.983082,35.051382],[136.983364,35.051095],[136.983852,35.050832],[136.984114,35.050681],[136.984395,35.050559],[136.984444,35.050537],[136.984893,35.050364],[136.985119,35.050295],[136.985281,35.050268],[136.985601,35.050256],[136.98571,35.050216],[136.985849,35.050174],[136.985952,35.05014],[136.986388,35.050159],[136.98663,35.050169],[136.986903,35.050141],[136.98705,35.050123],[136.98716,35.050124],[136.98726,35.050142],[136.987648,35.050148],[136.988013,35.050154],[136.987956,35.050218],[136.987784,35.050428],[136.987678,35.050649],[136.988535,35.05084],[136.988865,35.051059],[136.988898,35.051089],[136.988917,35.051117],[136.988921,35.051142],[136.988943,35.051295],[136.988727,35.051535],[136.988612,35.051654],[136.988362,35.051814],[136.988145,35.051959],[136.988201,35.052029],[136.988343,35.052196],[136.988402,35.052252],[136.98859,35.052471],[136.988642,35.052517],[136.98885,35.052624],[136.988906,35.052656],[136.989125,35.052816],[136.989452,35.05302],[136.990219,35.053016],[136.990596,35.053063],[136.990807,35.053048],[136.991239,35.053082],[136.991451,35.05303],[136.991601,35.053001],[136.991742,35.053068],[136.991897,35.053165],[136.991972,35.053207],[136.992208,35.053181],[136.992732,35.053394],[136.993114,35.053368],[136.993109,35.053442],[136.993113,35.053535],[136.99311,35.053691],[136.993088,35.053852],[136.992945,35.054095],[136.992839,35.054247],[136.99275,35.054375],[136.992527,35.054622],[136.992509,35.054701],[136.992521,35.05478],[136.992564,35.054858],[136.992572,35.05498],[136.99252,35.05507],[136.992408,35.055238],[136.992269,35.055413],[136.991638,35.055648],[136.991442,35.056011],[136.991465,35.05609],[136.991542,35.056154],[136.991685,35.056309],[136.991765,35.056443],[136.99182,35.056585],[136.991863,35.056725],[136.991883,35.056835],[136.9919,35.05692],[136.991912,35.057017],[136.991863,35.057112],[136.991829,35.057176],[136.991772,35.057289],[136.991691,35.057429],[136.99169,35.057429],[136.991462,35.057579],[136.991334,35.057607],[136.991139,35.05765],[136.990993,35.057757],[136.99087,35.057837],[136.990694,35.057957],[136.990611,35.057988],[136.990522,35.057979],[136.990431,35.057977],[136.990287,35.057994],[136.99005,35.058081],[136.989885,35.058176],[136.989765,35.058246],[136.989667,35.05831],[136.989493,35.058321],[136.98933,35.058347],[136.989211,35.058392],[136.989095,35.058454],[136.988899,35.058549],[136.988727,35.058633],[136.988554,35.058738],[136.988442,35.058829],[136.98834,35.058914],[136.98823,35.058986],[136.988022,35.059076],[136.98778,35.059153],[136.987598,35.059215],[136.987424,35.0593],[136.987339,35.059382],[136.987259,35.059406],[136.98719,35.059465],[136.987095,35.059527],[136.987002,35.059542],[136.986962,35.05956],[136.986828,35.059638],[136.986757,35.059645],[136.986708,35.059661],[136.986664,35.059772],[136.98662,35.059813],[136.986552,35.059819],[136.986401,35.059823],[136.986294,35.059873],[136.985994,35.059632],[136.985953,35.059602],[136.985737,35.059769],[136.985472,35.059581],[136.985336,35.059635],[136.985145,35.059481],[136.984955,35.059326],[136.984828,35.059218],[136.984573,35.059008],[136.984192,35.058685],[136.983858,35.05843],[136.983873,35.058413],[136.983795,35.058374],[136.98383,35.058282],[136.983883,35.05822],[136.983767,35.058185],[136.98377,35.057824],[136.983775,35.057459],[136.983834,35.057468],[136.983877,35.057465],[136.983926,35.057268],[136.983906,35.057223],[136.983958,35.056885],[136.983922,35.056665],[136.983869,35.056484],[136.98371,35.056118],[136.983353,35.056207],[136.983326,35.056162],[136.983124,35.056195],[136.983024,35.056005],[136.982926,35.055898],[136.982772,35.055787],[136.982509,35.055591],[136.982382,35.055507],[136.982114,35.055788],[136.981984,35.055743],[136.981915,35.055879],[136.981787,35.056038],[136.981545,35.056103],[136.981451,35.056062],[136.98221,35.054859],[136.982332,35.054656],[136.981003,35.05395],[136.98048,35.054287],[136.980172,35.054467],[136.979931,35.054147]]]}},{"type":"Feature","properties":{"name":"二村台","city":"豊明市","code":"229","setai":4455,"jinko":9013,"n":7,"towns":["23229010001","23229010002","23229010003","23229010004","23229010005","23229010006","23229010007"],"lx":137.00814,"ly":35.065164},"geometry":{"type":"Polygon","coordinates":[[[137.000324,35.061089],[137.001393,35.060947],[137.00131,35.06047],[137.001257,35.060225],[137.001206,35.060027],[137.001172,35.059914],[137.001186,35.059881],[137.001207,35.059849],[137.001234,35.059808],[137.001275,35.059748],[137.001324,35.059662],[137.001362,35.059594],[137.001359,35.059556],[137.00135,35.059486],[137.001327,35.05941],[137.001305,35.059347],[137.00133,35.059266],[137.001337,35.059146],[137.001343,35.059008],[137.00112,35.059025],[137.00105,35.05852],[137.001418,35.058477],[137.001516,35.058494],[137.001642,35.058329],[137.001515,35.05825],[137.001079,35.058225],[137.001072,35.057872],[137.001072,35.057792],[137.001404,35.057566],[137.001415,35.057535],[137.001133,35.057372],[137.001272,35.057229],[137.001411,35.05711],[137.001952,35.056734],[137.00304,35.057545],[137.003099,35.057589],[137.004149,35.05835],[137.004448,35.058572],[137.004923,35.058921],[137.005074,35.059071],[137.005227,35.059238],[137.005386,35.059444],[137.005476,35.059585],[137.005888,35.059422],[137.006063,35.059494],[137.006274,35.059577],[137.006393,35.059517],[137.006743,35.059358],[137.006919,35.059503],[137.007632,35.059507],[137.007581,35.0597],[137.007488,35.059856],[137.007264,35.060075],[137.00703,35.060186],[137.006505,35.06037],[137.007263,35.061862],[137.007614,35.061742],[137.007843,35.061682],[137.008052,35.061662],[137.008237,35.061663],[137.008977,35.061779],[137.009159,35.061174],[137.009437,35.061374],[137.009629,35.061795],[137.009663,35.061843],[137.00978,35.06187],[137.009725,35.062071],[137.00979,35.062161],[137.009513,35.062436],[137.00943,35.062549],[137.00935,35.062631],[137.009295,35.062791],[137.009451,35.062914],[137.009482,35.062939],[137.009606,35.062924],[137.009712,35.062898],[137.00989,35.062825],[137.010097,35.062723],[137.010324,35.062567],[137.010528,35.062442],[137.010678,35.062375],[137.010712,35.062431],[137.010823,35.062619],[137.010725,35.062681],[137.010821,35.062922],[137.010865,35.062959],[137.011239,35.063399],[137.011292,35.063375],[137.011365,35.063516],[137.011361,35.063667],[137.011288,35.063705],[137.011403,35.063909],[137.011448,35.06394],[137.011711,35.06393],[137.011911,35.063832],[137.012032,35.06405],[137.012272,35.064294],[137.012422,35.064424],[137.012515,35.064525],[137.012373,35.064703],[137.012186,35.064849],[137.012207,35.064866],[137.01195,35.06506],[137.011908,35.06509],[137.011277,35.065555],[137.011003,35.065555],[137.010465,35.066362],[137.010337,35.066555],[137.010312,35.066592],[137.010477,35.066673],[137.010863,35.066672],[137.011085,35.066672],[137.011367,35.066732],[137.011623,35.066789],[137.011768,35.066848],[137.011828,35.066889],[137.011659,35.067026],[137.011536,35.067113],[137.011723,35.067224],[137.011861,35.067073],[137.012103,35.066782],[137.012707,35.066973],[137.012785,35.066844],[137.013152,35.06701],[137.013224,35.066942],[137.013602,35.067135],[137.014212,35.067451],[137.014381,35.067534],[137.014293,35.067674],[137.014254,35.067738],[137.014007,35.068189],[137.013976,35.068234],[137.01347,35.06855],[137.013226,35.068714],[137.013079,35.068822],[137.013398,35.069123],[137.013098,35.069504],[137.013568,35.069848],[137.013518,35.069912],[137.01322,35.070176],[137.013407,35.070305],[137.013049,35.071144],[137.01304,35.071214],[137.013033,35.071298],[137.013048,35.071388],[137.013087,35.071521],[137.013275,35.072112],[137.013296,35.07217],[137.01307,35.07221],[137.012889,35.072514],[137.012402,35.072339],[137.012453,35.072077],[137.010907,35.072225],[137.010791,35.072309],[137.01076,35.072239],[137.010554,35.072259],[137.010508,35.072096],[137.010335,35.072113],[137.010121,35.072031],[137.010129,35.071823],[137.010069,35.071809],[137.010156,35.07133],[137.010203,35.071296],[137.010631,35.070981],[137.010295,35.070721],[137.009834,35.070324],[137.010266,35.070184],[137.010062,35.069676],[137.009208,35.069826],[137.008576,35.069402],[137.008391,35.069277],[137.007996,35.069152],[137.007488,35.069113],[137.007328,35.069255],[137.007155,35.069351],[137.006224,35.069677],[137.006236,35.069201],[137.006107,35.068681],[137.00559,35.068758],[137.005267,35.068803],[137.004733,35.06902],[137.004479,35.069114],[137.004285,35.069174],[137.003989,35.068816],[137.003762,35.068538],[137.003598,35.06832],[137.004318,35.067916],[137.004449,35.067918],[137.00472,35.067833],[137.004736,35.067763],[137.00485,35.067639],[137.004981,35.067652],[137.004982,35.067567],[137.005081,35.067489],[137.005257,35.067316],[137.005337,35.06719],[137.005523,35.066877],[137.005545,35.066841],[137.005707,35.066845],[137.005773,35.066763],[137.005785,35.066506],[137.005877,35.066443],[137.005819,35.066395],[137.005607,35.066442],[137.005494,35.066447],[137.004962,35.066273],[137.004905,35.066221],[137.004642,35.065826],[137.00434,35.06553],[137.003894,35.065094],[137.003797,35.065187],[137.003356,35.065017],[137.003271,35.064967],[137.003148,35.064918],[137.003001,35.064819],[137.003103,35.064729],[137.003212,35.064533],[137.003283,35.064372],[137.003312,35.063954],[137.002992,35.063737],[137.002826,35.063903],[137.002545,35.064029],[137.002363,35.064123],[137.00224,35.064025],[137.001746,35.06409],[137.001633,35.064154],[137.001373,35.064194],[137.001438,35.064044],[137.001462,35.063943],[137.001473,35.063863],[137.001473,35.063678],[137.001475,35.063497],[137.001471,35.063288],[137.001433,35.063169],[137.001356,35.062962],[137.001291,35.062801],[137.001216,35.062627],[137.00115,35.062481],[137.001105,35.06238],[137.001013,35.062195],[137.000986,35.062161],[137.000845,35.062062],[137.000765,35.062011],[137.000653,35.061917],[137.000535,35.06183],[137.000482,35.061709],[137.000423,35.06154],[137.000365,35.06136],[137.000324,35.061089]]]}},{"type":"Feature","properties":{"name":"西川町島原","city":"豊明市","code":"229","setai":213,"jinko":482,"n":1,"towns":["23229011001"],"lx":137.014378,"ly":35.056957},"geometry":{"type":"Polygon","coordinates":[[[137.014095,35.055278],[137.013111,35.054557],[137.012671,35.054883],[137.0115,35.055722],[137.011871,35.056019],[137.012226,35.056307],[137.012548,35.056594],[137.012866,35.056869],[137.013042,35.057042],[137.013153,35.057209],[137.013368,35.057613],[137.013538,35.057995],[137.013739,35.058416],[137.013991,35.058829],[137.014364,35.058554],[137.014469,35.058531],[137.014925,35.058082],[137.015864,35.057228],[137.016269,35.056855],[137.016234,35.056829],[137.015037,35.055952],[137.014095,35.055278]]]}},{"type":"Feature","properties":{"name":"西川町笹原","city":"豊明市","code":"229","setai":341,"jinko":798,"n":1,"towns":["23229011002"],"lx":137.011725,"ly":35.058109},"geometry":{"type":"Polygon","coordinates":[[[137.011871,35.056019],[137.0115,35.055722],[137.010682,35.056321],[137.010333,35.056567],[137.009747,35.056993],[137.00932,35.057301],[137.009538,35.057732],[137.009584,35.057829],[137.010065,35.058688],[137.010268,35.058955],[137.010445,35.05923],[137.010594,35.059473],[137.01085,35.059886],[137.01129,35.060557],[137.011699,35.060282],[137.012851,35.059551],[137.013071,35.059427],[137.013991,35.058829],[137.013739,35.058416],[137.013538,35.057995],[137.013368,35.057613],[137.013153,35.057209],[137.013042,35.057042],[137.012866,35.056869],[137.012548,35.056594],[137.012226,35.056307],[137.011871,35.056019]]]}},{"type":"Feature","properties":{"name":"西川町横井","city":"豊明市","code":"229","setai":155,"jinko":380,"n":1,"towns":["23229011003"],"lx":137.009015,"ly":35.059587},"geometry":{"type":"Polygon","coordinates":[[[137.007843,35.061682],[137.008052,35.061662],[137.008237,35.061663],[137.008977,35.061779],[137.009159,35.061174],[137.009182,35.060956],[137.009773,35.06095],[137.010293,35.060935],[137.010725,35.060776],[137.01129,35.060557],[137.01085,35.059886],[137.010594,35.059473],[137.010445,35.05923],[137.010268,35.058955],[137.010065,35.058688],[137.009584,35.057829],[137.009538,35.057732],[137.00932,35.057301],[137.009006,35.057507],[137.00833,35.057971],[137.008184,35.058072],[137.008084,35.058151],[137.007995,35.058253],[137.007877,35.058403],[137.007824,35.05853],[137.007741,35.058785],[137.007681,35.059137],[137.007648,35.059401],[137.007632,35.059507],[137.007581,35.0597],[137.007488,35.059856],[137.007264,35.060075],[137.00703,35.060186],[137.006505,35.06037],[137.007263,35.061862],[137.007614,35.061742],[137.007843,35.061682]]]}},{"type":"Feature","properties":{"name":"西川町長田","city":"豊明市","code":"229","setai":351,"jinko":829,"n":1,"towns":["23229011004"],"lx":137.013988,"ly":35.060133},"geometry":{"type":"Polygon","coordinates":[[[137.014473,35.05882],[137.014364,35.058554],[137.013991,35.058829],[137.013071,35.059427],[137.012851,35.059551],[137.011699,35.060282],[137.01129,35.060557],[137.011546,35.060992],[137.011881,35.061523],[137.012107,35.061804],[137.01223,35.061928],[137.012472,35.062138],[137.012677,35.062099],[137.014004,35.061366],[137.015,35.060827],[137.015129,35.060757],[137.015512,35.06055],[137.015043,35.059768],[137.014473,35.05882]]]}},{"type":"Feature","properties":{"name":"西川町善波","city":"豊明市","code":"229","setai":193,"jinko":451,"n":1,"towns":["23229011005"],"lx":137.011709,"ly":35.062619},"geometry":{"type":"Polygon","coordinates":[[[137.012272,35.064294],[137.012979,35.063789],[137.012892,35.063342],[137.012744,35.062945],[137.012576,35.062506],[137.012472,35.062138],[137.01223,35.061928],[137.012107,35.061804],[137.011881,35.061523],[137.011546,35.060992],[137.01129,35.060557],[137.010725,35.060776],[137.010293,35.060935],[137.009773,35.06095],[137.009182,35.060956],[137.009159,35.061174],[137.009437,35.061374],[137.009629,35.061795],[137.009663,35.061843],[137.00978,35.06187],[137.009725,35.062071],[137.00979,35.062161],[137.009513,35.062436],[137.00943,35.062549],[137.00935,35.062631],[137.009295,35.062791],[137.009451,35.062914],[137.009482,35.062939],[137.009606,35.062924],[137.009712,35.062898],[137.00989,35.062825],[137.010097,35.062723],[137.010324,35.062567],[137.010528,35.062442],[137.010678,35.062375],[137.010712,35.062431],[137.010823,35.062619],[137.010725,35.062681],[137.010821,35.062922],[137.010865,35.062959],[137.011239,35.063399],[137.011292,35.063375],[137.011365,35.063516],[137.011361,35.063667],[137.011288,35.063705],[137.011403,35.063909],[137.011448,35.06394],[137.011711,35.06393],[137.011911,35.063832],[137.012032,35.06405],[137.012272,35.064294]]]}},{"type":"Feature","properties":{"name":"西川町広原","city":"豊明市","code":"229","setai":9,"jinko":26,"n":1,"towns":["23229011006"],"lx":137.014637,"ly":35.062},"geometry":{"type":"Polygon","coordinates":[[[137.015296,35.061448],[137.015,35.060827],[137.014004,35.061366],[137.012677,35.062099],[137.012472,35.062138],[137.012576,35.062506],[137.012744,35.062945],[137.012892,35.063342],[137.012979,35.063789],[137.013363,35.063525],[137.013696,35.063316],[137.013907,35.06321],[137.014132,35.063107],[137.014278,35.063036],[137.014471,35.062963],[137.014814,35.062847],[137.015157,35.062729],[137.015735,35.062539],[137.016619,35.062256],[137.016773,35.06221],[137.016883,35.062033],[137.015685,35.061585],[137.015296,35.061448]]]}},{"type":"Feature","properties":{"name":"西川町荒巻","city":"豊明市","code":"229","setai":17,"jinko":41,"n":1,"towns":["23229011007"],"lx":137.013821,"ly":35.06467},"geometry":{"type":"Polygon","coordinates":[[[137.011933,35.066773],[137.01183,35.06666],[137.011817,35.066585],[137.011859,35.066495],[137.011937,35.066463],[137.012148,35.066339],[137.0123,35.066238],[137.012375,35.066143],[137.012415,35.066097],[137.012458,35.066071],[137.012588,35.066033],[137.012818,35.065877],[137.01356,35.065847],[137.013765,35.065879],[137.014566,35.066004],[137.014851,35.06534],[137.01502,35.064907],[137.015048,35.064794],[137.015117,35.064665],[137.015202,35.064559],[137.015323,35.064447],[137.015394,35.064325],[137.015448,35.06413],[137.015513,35.063927],[137.0156,35.063787],[137.015721,35.06365],[137.015782,35.063601],[137.015849,35.063557],[137.015915,35.063525],[137.016013,35.063426],[137.016159,35.063251],[137.016773,35.06221],[137.016619,35.062256],[137.015735,35.062539],[137.015157,35.062729],[137.014814,35.062847],[137.014471,35.062963],[137.014278,35.063036],[137.014132,35.063107],[137.013907,35.06321],[137.013696,35.063316],[137.013363,35.063525],[137.012979,35.063789],[137.012272,35.064294],[137.012422,35.064424],[137.012515,35.064525],[137.012373,35.064703],[137.012186,35.064849],[137.012207,35.064866],[137.01195,35.06506],[137.011908,35.06509],[137.011277,35.065555],[137.011003,35.065555],[137.010465,35.066362],[137.010337,35.066555],[137.010312,35.066592],[137.010477,35.066673],[137.010863,35.066672],[137.011085,35.066672],[137.011367,35.066732],[137.011623,35.066789],[137.011768,35.066848],[137.011828,35.066889],[137.011883,35.066864],[137.011933,35.06681],[137.011933,35.066773]]]}}]}