{"type":"FeatureCollection","features":[{"type":"Feature","properties":{"name":"呉竹町","city":"高浜市","code":"227","setai":1024,"jinko":2712,"n":7,"towns":["23227001001","23227001002","23227001003","23227001004","23227001005","23227001006","23227001007"],"lx":136.989768,"ly":34.939837},"geometry":{"type":"Polygon","coordinates":[[[136.98402,34.941674],[136.984157,34.94175],[136.984561,34.941917],[136.984968,34.942062],[136.985614,34.942319],[136.985645,34.942357],[136.985826,34.942427],[136.985716,34.94221],[136.985658,34.94207],[136.985624,34.941943],[136.985572,34.94177],[136.985522,34.941479],[136.985513,34.941337],[136.985513,34.941108],[136.985545,34.940882],[136.985588,34.940654],[136.985611,34.940594],[136.985704,34.940344],[136.985852,34.939996],[136.986266,34.93907],[136.986737,34.938025],[136.987827,34.935498],[136.98798,34.935561],[136.988157,34.935635],[136.988352,34.93572],[136.988487,34.935778],[136.988617,34.935864],[136.988697,34.935902],[136.988804,34.935958],[136.988965,34.936025],[136.989107,34.936103],[136.989221,34.936169],[136.989358,34.936227],[136.989515,34.936312],[136.989684,34.936404],[136.989793,34.936463],[136.990053,34.936573],[136.990316,34.936635],[136.990582,34.936703],[136.990793,34.936734],[136.990868,34.936751],[136.991094,34.93677],[136.991333,34.93678],[136.991479,34.936782],[136.99162,34.936781],[136.991761,34.936781],[136.991924,34.936773],[136.992053,34.936785],[136.992197,34.936826],[136.99229,34.936865],[136.992502,34.936985],[136.992987,34.937262],[136.992993,34.937265],[136.993237,34.937395],[136.993465,34.937522],[136.993709,34.937643],[136.993858,34.937715],[136.994014,34.937769],[136.994142,34.93781],[136.994288,34.937843],[136.994457,34.937887],[136.994589,34.937927],[136.994741,34.937972],[136.994901,34.938072],[136.995036,34.938171],[136.995099,34.938218],[136.995343,34.938405],[136.995591,34.938588],[136.995824,34.938784],[136.995992,34.93891],[136.996165,34.939039],[136.996383,34.939254],[136.996545,34.939428],[136.996682,34.939563],[136.996573,34.939611],[136.99638,34.939717],[136.996075,34.939856],[136.995863,34.939948],[136.995689,34.940033],[136.995325,34.940208],[136.995118,34.940281],[136.994895,34.940383],[136.994538,34.940541],[136.994401,34.940572],[136.994268,34.940607],[136.994089,34.940646],[136.993851,34.940698],[136.993682,34.940718],[136.993448,34.940759],[136.993227,34.940786],[136.992967,34.94084],[136.992691,34.940918],[136.99244,34.940982],[136.992203,34.94106],[136.992034,34.941107],[136.991677,34.941231],[136.991171,34.941468],[136.991059,34.94154],[136.990786,34.941692],[136.990595,34.941823],[136.990366,34.942003],[136.99018,34.942133],[136.989886,34.94238],[136.989718,34.942541],[136.989623,34.942619],[136.989505,34.942713],[136.989376,34.942806],[136.989119,34.942963],[136.988616,34.943271],[136.988803,34.943468],[136.988908,34.943575],[136.988769,34.943668],[136.988761,34.94366],[136.98872,34.943618],[136.988709,34.943607],[136.988694,34.943614],[136.988529,34.943729],[136.988263,34.943923],[136.987496,34.944443],[136.987493,34.944445],[136.987034,34.944756],[136.984516,34.942224],[136.984434,34.942211],[136.984181,34.941915],[136.984046,34.941707],[136.98402,34.941674]]]}},{"type":"Feature","properties":{"name":"小池町","city":"高浜市","code":"227","setai":888,"jinko":2256,"n":6,"towns":["23227002001","23227002002","23227002003","23227002004","23227002005","23227002006"],"lx":137.000285,"ly":34.947301},"geometry":{"type":"Polygon","coordinates":[[[136.994027,34.944692],[136.994578,34.944288],[136.995156,34.943864],[136.995318,34.943756],[136.995979,34.943315],[136.996646,34.942856],[136.997692,34.942137],[136.998706,34.94141],[136.998885,34.941522],[136.999193,34.941691],[136.999434,34.941828],[136.999613,34.941938],[136.999776,34.942079],[136.999786,34.942088],[136.999929,34.942225],[137.000127,34.942425],[137.000355,34.942613],[137.000648,34.942845],[137.000823,34.943002],[137.000982,34.94315],[137.001061,34.943234],[137.001116,34.943301],[137.002601,34.94479],[137.00272,34.944907],[137.003144,34.945327],[137.003353,34.94553],[137.004135,34.945433],[137.004383,34.945509],[137.00483,34.945733],[137.005549,34.946128],[137.005741,34.946238],[137.005803,34.946274],[137.006168,34.94647],[137.006653,34.946729],[137.007145,34.94695],[137.007384,34.947024],[137.007699,34.947103],[137.008121,34.947214],[137.008415,34.947294],[137.008505,34.947319],[137.008749,34.94738],[137.008983,34.947418],[137.009527,34.947406],[137.009643,34.947405],[137.009628,34.947479],[137.009746,34.947431],[137.009298,34.948053],[137.009286,34.948119],[137.009257,34.948271],[137.009216,34.94842],[137.009154,34.948612],[137.007489,34.948315],[137.007329,34.94864],[137.006962,34.948662],[137.006703,34.948438],[137.0065,34.948253],[137.006308,34.948403],[137.006221,34.948468],[137.00604,34.94857],[137.005349,34.949121],[137.004178,34.949998],[137.003383,34.950546],[137.003329,34.950575],[137.003323,34.950579],[137.003164,34.950649],[137.002994,34.950722],[137.002386,34.951007],[137.000463,34.951863],[137.000277,34.95194],[137.000833,34.952861],[137.00023,34.953378],[136.999892,34.953695],[136.999798,34.953823],[136.996756,34.950626],[136.996594,34.950438],[136.996481,34.950293],[136.996381,34.950161],[136.996325,34.950095],[136.996255,34.949968],[136.996217,34.949856],[136.996034,34.94937],[136.99586,34.948909],[136.995691,34.948438],[136.99554,34.948008],[136.995143,34.946982],[136.994539,34.945741],[136.994027,34.944692]]]}},{"type":"Feature","properties":{"name":"清水町","city":"高浜市","code":"227","setai":175,"jinko":525,"n":8,"towns":["23227003001","23227003002","23227003003","23227003004","23227003005","23227003006","23227003007","23227003008"],"lx":137.013225,"ly":34.928651},"geometry":{"type":"Polygon","coordinates":[[[137.005624,34.927866],[137.00814,34.924587],[137.010228,34.921865],[137.010252,34.921884],[137.010477,34.922138],[137.010633,34.922249],[137.011133,34.922514],[137.011634,34.922871],[137.012122,34.92319],[137.013317,34.924078],[137.013494,34.924209],[137.013542,34.924245],[137.013993,34.924563],[137.014397,34.924914],[137.015082,34.925394],[137.015726,34.925816],[137.01621,34.92613],[137.016716,34.926481],[137.017022,34.926687],[137.017447,34.926998],[137.017626,34.927104],[137.017943,34.927296],[137.018404,34.92757],[137.018685,34.927706],[137.018877,34.927791],[137.01914,34.927973],[137.019246,34.928047],[137.020215,34.928616],[137.020356,34.9287],[137.020533,34.928813],[137.020772,34.929002],[137.021543,34.929576],[137.022019,34.929903],[137.02243,34.930226],[137.022861,34.930577],[137.023272,34.930915],[137.024132,34.931571],[137.024393,34.931784],[137.024642,34.931992],[137.024166,34.931868],[137.02335,34.931522],[137.022427,34.931225],[137.022226,34.931125],[137.02189,34.930957],[137.021594,34.930817],[137.021228,34.930653],[137.020773,34.930489],[137.020409,34.930309],[137.019954,34.930077],[137.020147,34.930704],[137.020214,34.930911],[137.019445,34.931084],[137.01898,34.931208],[137.018776,34.931178],[137.018732,34.931179],[137.018596,34.931274],[137.018402,34.931418],[137.018179,34.931476],[137.017999,34.931466],[137.017839,34.931414],[137.017637,34.931396],[137.017591,34.931377],[137.017456,34.931298],[137.017526,34.931198],[137.016633,34.930627],[137.016411,34.930864],[137.016372,34.930906],[137.016671,34.931027],[137.016801,34.931137],[137.016628,34.931354],[137.016581,34.93139],[137.016414,34.931418],[137.015918,34.932849],[137.015794,34.933204],[137.015332,34.933509],[137.015321,34.933516],[137.01449,34.933979],[137.01415,34.934194],[137.013637,34.934529],[137.013445,34.934607],[137.01166,34.935701],[137.01164,34.935894],[137.011611,34.935968],[137.011565,34.936012],[137.011475,34.936059],[137.011499,34.935771],[137.011638,34.935004],[137.011666,34.934848],[137.011676,34.934708],[137.011618,34.934578],[137.011329,34.933857],[137.01113,34.933288],[137.011012,34.933],[137.01089,34.932769],[137.010721,34.932514],[137.010543,34.932299],[137.010445,34.932201],[137.010267,34.931986],[137.010031,34.931665],[137.009803,34.9313],[137.009714,34.931149],[137.009579,34.93088],[137.008998,34.929801],[137.008931,34.92974],[137.008829,34.929634],[137.007101,34.928583],[137.006527,34.928249],[137.005979,34.927931],[137.005624,34.927866]]]}},{"type":"Feature","properties":{"name":"新田町","city":"高浜市","code":"227","setai":67,"jinko":78,"n":5,"towns":["23227004001","23227004002","23227004003","23227004004","23227004005"],"lx":136.987835,"ly":34.951008},"geometry":{"type":"Polygon","coordinates":[[[136.982804,34.943479],[136.982954,34.943435],[136.982879,34.943221],[136.982929,34.94323],[136.982933,34.943085],[136.983149,34.94241],[136.983956,34.943005],[136.984312,34.942665],[136.984338,34.942683],[136.984389,34.942632],[136.984413,34.942409],[136.984421,34.942277],[136.984434,34.942211],[136.984516,34.942224],[136.987034,34.944756],[136.989041,34.946735],[136.989486,34.94716],[136.989825,34.947483],[136.989966,34.947394],[136.990067,34.947502],[136.990322,34.947812],[136.990355,34.947859],[136.990574,34.948162],[136.990732,34.948381],[136.990894,34.948561],[136.990965,34.948728],[136.991062,34.948903],[136.991147,34.949059],[136.991194,34.94921],[136.991272,34.949368],[136.991395,34.949814],[136.991525,34.950282],[136.992242,34.952488],[136.993178,34.955461],[136.993406,34.95625],[136.993401,34.956251],[136.993059,34.956261],[136.992692,34.956346],[136.992623,34.956373],[136.992573,34.956443],[136.992487,34.956597],[136.992098,34.957382],[136.992072,34.957454],[136.991317,34.957329],[136.991236,34.95731],[136.991121,34.957289],[136.990294,34.957107],[136.990275,34.957099],[136.990285,34.957068],[136.990289,34.957059],[136.990257,34.957053],[136.99022,34.957045],[136.990217,34.957053],[136.990204,34.957096],[136.990182,34.95709],[136.988995,34.956794],[136.985897,34.956121],[136.985627,34.956063],[136.98559,34.956051],[136.98559,34.956041],[136.984142,34.955708],[136.983811,34.953995],[136.983596,34.952878],[136.983484,34.952304],[136.983384,34.951763],[136.983577,34.951741],[136.984556,34.951818],[136.985495,34.951895],[136.986489,34.95198],[136.986719,34.951999],[136.986829,34.951999],[136.987209,34.951955],[136.98896,34.951761],[136.988987,34.951788],[136.989031,34.951751],[136.989058,34.951727],[136.989018,34.951696],[136.989041,34.95167],[136.989047,34.951661],[136.98905,34.951654],[136.989061,34.951574],[136.989084,34.951408],[136.98909,34.951371],[136.989111,34.9513],[136.98913,34.951251],[136.98918,34.951169],[136.989236,34.951104],[136.989287,34.951066],[136.989364,34.951026],[136.989376,34.951017],[136.98947,34.950987],[136.990628,34.950417],[136.990642,34.950405],[136.990696,34.950335],[136.990676,34.950223],[136.990598,34.949952],[136.990539,34.949778],[136.990485,34.949639],[136.990438,34.949524],[136.990186,34.948919],[136.990167,34.948923],[136.990158,34.9489],[136.990133,34.948906],[136.990141,34.948928],[136.990122,34.948933],[136.990112,34.948911],[136.990089,34.948917],[136.990098,34.948939],[136.990077,34.948945],[136.990309,34.949555],[136.990381,34.949799],[136.990434,34.94997],[136.990467,34.950115],[136.990474,34.950161],[136.990471,34.950188],[136.990454,34.950209],[136.990425,34.950233],[136.990374,34.950264],[136.990358,34.950245],[136.99032,34.950264],[136.990328,34.950277],[136.989471,34.950735],[136.989339,34.950816],[136.989246,34.950865],[136.988606,34.951255],[136.988589,34.951287],[136.988572,34.951269],[136.988555,34.95125],[136.988478,34.951296],[136.988493,34.951313],[136.988506,34.951328],[136.988329,34.951409],[136.988213,34.951481],[136.988133,34.951517],[136.988041,34.951543],[136.987971,34.951556],[136.987819,34.951565],[136.987812,34.95155],[136.987268,34.951593],[136.987118,34.951605],[136.986593,34.951642],[136.986536,34.951639],[136.986491,34.951627],[136.986441,34.951599],[136.986416,34.951577],[136.986315,34.951452],[136.986301,34.951442],[136.985759,34.950409],[136.985729,34.9504],[136.985359,34.949686],[136.985307,34.94957],[136.985144,34.949177],[136.985075,34.949011],[136.984809,34.948373],[136.984551,34.947678],[136.983891,34.947751],[136.983784,34.947468],[136.983987,34.947387],[136.984318,34.947246],[136.984367,34.947196],[136.984289,34.947003],[136.984302,34.946996],[136.983745,34.945542],[136.983608,34.945197],[136.9833,34.944378],[136.983274,34.944363],[136.983175,34.944066],[136.98311,34.943879],[136.982825,34.943929],[136.982809,34.943862],[136.982897,34.943839],[136.982958,34.943747],[136.98289,34.943578],[136.982833,34.943559],[136.982804,34.943479]]]}},{"type":"Feature","properties":{"name":"神明町","city":"高浜市","code":"227","setai":1546,"jinko":4084,"n":8,"towns":["23227005001","23227005002","23227005003","23227005004","23227005005","23227005006","23227005007","23227005008"],"lx":137.003033,"ly":34.937789},"geometry":{"type":"Polygon","coordinates":[[[136.996682,34.939563],[136.996806,34.939494],[136.997214,34.939176],[136.997248,34.939117],[136.997274,34.939072],[136.997623,34.938615],[136.997886,34.938252],[136.998805,34.937036],[136.99921,34.936582],[136.999428,34.936338],[137.00003,34.935636],[137.000732,34.934827],[137.001143,34.934829],[137.001187,34.933265],[137.001217,34.932023],[137.001475,34.930583],[137.002058,34.930743],[137.00206,34.930744],[137.002824,34.93095],[137.00389,34.931267],[137.005412,34.931791],[137.005472,34.931816],[137.006545,34.932192],[137.007235,34.93243],[137.008591,34.932904],[137.008466,34.932958],[137.008262,34.933147],[137.008064,34.933304],[137.007896,34.933487],[137.007802,34.933629],[137.007678,34.933807],[137.007637,34.933975],[137.007577,34.934285],[137.007499,34.934575],[137.007441,34.934832],[137.007002,34.937072],[137.006294,34.940527],[137.005966,34.94218],[137.005756,34.942979],[137.005681,34.943106],[137.0056,34.943227],[137.0055,34.943339],[137.005287,34.943553],[137.005013,34.943796],[137.00452,34.944207],[137.003144,34.945327],[137.00272,34.944907],[137.002601,34.94479],[137.001116,34.943301],[137.001061,34.943234],[137.000982,34.94315],[137.000823,34.943002],[137.000648,34.942845],[137.000355,34.942613],[137.000127,34.942425],[136.999929,34.942225],[136.999786,34.942088],[136.999776,34.942079],[136.999613,34.941938],[136.999434,34.941828],[136.999193,34.941691],[136.998885,34.941522],[136.998706,34.94141],[136.998592,34.941323],[136.998353,34.941014],[136.998002,34.940476],[136.997849,34.940369],[136.997584,34.940207],[136.997216,34.939977],[136.997,34.939843],[136.996682,34.939563]]]}},{"type":"Feature","properties":{"name":"豊田町","city":"高浜市","code":"227","setai":345,"jinko":862,"n":3,"towns":["23227006001","23227006002","23227006003"],"lx":137.008871,"ly":34.940804},"geometry":{"type":"Polygon","coordinates":[[[137.003144,34.945327],[137.00452,34.944207],[137.005013,34.943796],[137.005287,34.943553],[137.0055,34.943339],[137.0056,34.943227],[137.005681,34.943106],[137.005756,34.942979],[137.005966,34.94218],[137.006294,34.940527],[137.007002,34.937072],[137.007441,34.934832],[137.007499,34.934575],[137.007577,34.934285],[137.007637,34.933975],[137.007678,34.933807],[137.007802,34.933629],[137.007896,34.933487],[137.008064,34.933304],[137.008262,34.933147],[137.008466,34.932958],[137.008591,34.932904],[137.011329,34.933857],[137.011618,34.934578],[137.011676,34.934708],[137.011666,34.934848],[137.011638,34.935004],[137.011499,34.935771],[137.011475,34.936059],[137.011505,34.936555],[137.011579,34.937169],[137.011582,34.937201],[137.01161,34.937557],[137.011655,34.937745],[137.011475,34.937805],[137.011717,34.938303],[137.011799,34.938404],[137.011869,34.938541],[137.011908,34.938592],[137.011944,34.9387],[137.012098,34.938947],[137.012329,34.939201],[137.012401,34.939334],[137.012325,34.939588],[137.012301,34.940021],[137.012298,34.940427],[137.012173,34.940809],[137.012203,34.941213],[137.012236,34.941472],[137.012238,34.941483],[137.012136,34.94166],[137.012086,34.941749],[137.012316,34.94247],[137.012342,34.942794],[137.012275,34.943237],[137.012111,34.943702],[137.012101,34.943959],[137.012099,34.944031],[137.012096,34.944099],[137.012046,34.944185],[137.011569,34.944778],[137.011527,34.944821],[137.011265,34.945067],[137.011235,34.945092],[137.010974,34.94528],[137.010123,34.945942],[137.009929,34.946079],[137.009899,34.9461],[137.010041,34.946175],[137.010709,34.946906],[137.010672,34.946987],[137.010635,34.947058],[137.010208,34.946865],[137.009793,34.947337],[137.009657,34.947334],[137.009643,34.947405],[137.009527,34.947406],[137.008983,34.947418],[137.008749,34.94738],[137.008505,34.947319],[137.008415,34.947294],[137.008121,34.947214],[137.007699,34.947103],[137.007384,34.947024],[137.007145,34.94695],[137.006653,34.946729],[137.006168,34.94647],[137.005803,34.946274],[137.005741,34.946238],[137.005549,34.946128],[137.00483,34.945733],[137.004383,34.945509],[137.004135,34.945433],[137.003353,34.94553],[137.003144,34.945327]]]}},{"type":"Feature","properties":{"name":"八幡町","city":"高浜市","code":"227","setai":1567,"jinko":3326,"n":6,"towns":["23227007001","23227007002","23227007003","23227007004","23227007005","23227007006"],"lx":136.994512,"ly":34.951032},"geometry":{"type":"Polygon","coordinates":[[[136.989966,34.947394],[136.990431,34.947122],[136.990556,34.947136],[136.990963,34.946902],[136.991426,34.946636],[136.991934,34.946231],[136.992505,34.945797],[136.992689,34.945658],[136.994027,34.944692],[136.994539,34.945741],[136.995143,34.946982],[136.99554,34.948008],[136.995691,34.948438],[136.99586,34.948909],[136.996034,34.94937],[136.996217,34.949856],[136.996255,34.949968],[136.996325,34.950095],[136.996381,34.950161],[136.996481,34.950293],[136.996594,34.950438],[136.996756,34.950626],[136.999798,34.953823],[136.999794,34.953828],[136.999652,34.953928],[136.999839,34.954158],[136.999607,34.954298],[136.999332,34.95443],[136.999114,34.954534],[136.998991,34.954581],[136.998799,34.954599],[136.998619,34.954643],[136.998389,34.954704],[136.998175,34.95476],[136.99807,34.954817],[136.997989,34.954883],[136.997919,34.954915],[136.997771,34.954948],[136.997489,34.955086],[136.997351,34.955153],[136.997242,34.955182],[136.997148,34.955164],[136.997006,34.955142],[136.996913,34.955128],[136.996754,34.955068],[136.996618,34.955021],[136.996489,34.954979],[136.996481,34.954976],[136.996363,34.955005],[136.996158,34.955062],[136.99607,34.955123],[136.995956,34.955313],[136.995873,34.955496],[136.995797,34.95561],[136.995658,34.955751],[136.995442,34.955907],[136.995053,34.956097],[136.994841,34.956138],[136.994628,34.956163],[136.9944,34.956227],[136.994265,34.956263],[136.994086,34.95627],[136.993903,34.956237],[136.993689,34.95624],[136.993406,34.95625],[136.993178,34.955461],[136.992242,34.952488],[136.991525,34.950282],[136.991395,34.949814],[136.991272,34.949368],[136.991194,34.94921],[136.991147,34.949059],[136.991062,34.948903],[136.990965,34.948728],[136.990894,34.948561],[136.990732,34.948381],[136.990574,34.948162],[136.990355,34.947859],[136.990322,34.947812],[136.990067,34.947502],[136.989966,34.947394]]]}},{"type":"Feature","properties":{"name":"本郷町","city":"高浜市","code":"227","setai":434,"jinko":1160,"n":6,"towns":["23227008001","23227008002","23227008003","23227008004","23227008005","23227008006"],"lx":137.003823,"ly":34.929725},"geometry":{"type":"Polygon","coordinates":[[[136.996155,34.929388],[136.996345,34.92898],[136.99648,34.928668],[136.997131,34.927114],[136.997919,34.927162],[136.9982,34.92716],[136.998521,34.927151],[136.998845,34.927137],[136.99924,34.927135],[136.999572,34.927138],[136.999741,34.927139],[137.000346,34.927125],[137.000695,34.927132],[137.00113,34.927152],[137.001565,34.927214],[137.001777,34.927245],[137.00206,34.927289],[137.004175,34.927624],[137.004726,34.927727],[137.005297,34.927818],[137.005624,34.927866],[137.005979,34.927931],[137.006527,34.928249],[137.007101,34.928583],[137.008829,34.929634],[137.008931,34.92974],[137.008998,34.929801],[137.009579,34.93088],[137.009714,34.931149],[137.009803,34.9313],[137.010031,34.931665],[137.010267,34.931986],[137.010445,34.932201],[137.010543,34.932299],[137.010721,34.932514],[137.01089,34.932769],[137.011012,34.933],[137.01113,34.933288],[137.011329,34.933857],[137.008591,34.932904],[137.007235,34.93243],[137.006545,34.932192],[137.005472,34.931816],[137.005412,34.931791],[137.00389,34.931267],[137.002824,34.93095],[137.00206,34.930744],[137.002058,34.930743],[137.001475,34.930583],[137.000425,34.930308],[136.999856,34.930161],[136.998884,34.9299],[136.998749,34.929875],[136.998503,34.929808],[136.998313,34.929773],[136.998123,34.929758],[136.996155,34.929388]]]}},{"type":"Feature","properties":{"name":"向山町","city":"高浜市","code":"227","setai":868,"jinko":2458,"n":6,"towns":["23227009001","23227009002","23227009003","23227009004","23227009005","23227009006"],"lx":137.002875,"ly":34.923779},"geometry":{"type":"Polygon","coordinates":[[[136.994012,34.924828],[136.994353,34.924745],[136.994591,34.924662],[136.994832,34.924535],[136.994965,34.924463],[136.995071,34.924407],[136.99527,34.924301],[136.995562,34.924126],[136.996207,34.923709],[136.99692,34.923269],[136.997018,34.923216],[136.997069,34.923188],[136.997358,34.922988],[136.997597,34.922856],[136.997754,34.922761],[136.997882,34.922727],[136.998147,34.92268],[136.998423,34.922636],[136.999183,34.922518],[137.000634,34.922273],[137.000775,34.922219],[137.000998,34.922063],[137.001209,34.921893],[137.001471,34.921647],[137.001616,34.921515],[137.002278,34.920928],[137.00298,34.920313],[137.003234,34.920091],[137.004289,34.919167],[137.005652,34.917985],[137.006606,34.918841],[137.007462,34.919507],[137.007683,34.919697],[137.008994,34.92083],[137.009402,34.921184],[137.009814,34.921524],[137.010228,34.921865],[137.00814,34.924587],[137.005624,34.927866],[137.005297,34.927818],[137.004726,34.927727],[137.004175,34.927624],[137.00206,34.927289],[137.001777,34.927245],[137.001565,34.927214],[137.00113,34.927152],[137.000695,34.927132],[137.000346,34.927125],[136.999741,34.927139],[136.999572,34.927138],[136.99924,34.927135],[136.998845,34.927137],[136.998521,34.927151],[136.9982,34.92716],[136.997919,34.927162],[136.997131,34.927114],[136.996965,34.927135],[136.996618,34.927125],[136.996457,34.927106],[136.996317,34.927086],[136.996197,34.927069],[136.995976,34.927012],[136.995782,34.926962],[136.995672,34.926912],[136.995478,34.926813],[136.995302,34.926685],[136.995151,34.92654],[136.99486,34.92632],[136.994666,34.926137],[136.994523,34.925971],[136.994428,34.925831],[136.994317,34.925617],[136.994211,34.925382],[136.994124,34.925134],[136.994071,34.925002],[136.994012,34.924828]]]}},{"type":"Feature","properties":{"name":"屋敷町","city":"高浜市","code":"227","setai":799,"jinko":1961,"n":7,"towns":["23227010001","23227010002","23227010003","23227010004","23227010005","23227010006","23227010007"],"lx":136.992644,"ly":34.943326},"geometry":{"type":"Polygon","coordinates":[[[136.987034,34.944756],[136.987493,34.944445],[136.987496,34.944443],[136.988263,34.943923],[136.988529,34.943729],[136.988694,34.943614],[136.988709,34.943607],[136.98872,34.943618],[136.988761,34.94366],[136.988769,34.943668],[136.988908,34.943575],[136.988803,34.943468],[136.988616,34.943271],[136.989119,34.942963],[136.989376,34.942806],[136.989505,34.942713],[136.989623,34.942619],[136.989718,34.942541],[136.989886,34.94238],[136.99018,34.942133],[136.990366,34.942003],[136.990595,34.941823],[136.990786,34.941692],[136.991059,34.94154],[136.991171,34.941468],[136.991677,34.941231],[136.992034,34.941107],[136.992203,34.94106],[136.99244,34.940982],[136.992691,34.940918],[136.992967,34.94084],[136.993227,34.940786],[136.993448,34.940759],[136.993682,34.940718],[136.993851,34.940698],[136.994089,34.940646],[136.994268,34.940607],[136.994401,34.940572],[136.994538,34.940541],[136.994895,34.940383],[136.995118,34.940281],[136.995325,34.940208],[136.995689,34.940033],[136.995863,34.939948],[136.996075,34.939856],[136.99638,34.939717],[136.996573,34.939611],[136.996682,34.939563],[136.997,34.939843],[136.997216,34.939977],[136.997584,34.940207],[136.997849,34.940369],[136.998002,34.940476],[136.998353,34.941014],[136.998592,34.941323],[136.998706,34.94141],[136.997692,34.942137],[136.996646,34.942856],[136.995979,34.943315],[136.995318,34.943756],[136.995156,34.943864],[136.994578,34.944288],[136.994027,34.944692],[136.992689,34.945658],[136.992505,34.945797],[136.991934,34.946231],[136.991426,34.946636],[136.990963,34.946902],[136.990556,34.947136],[136.990431,34.947122],[136.989966,34.947394],[136.989825,34.947483],[136.989486,34.94716],[136.989041,34.946735],[136.987034,34.944756]]]}},{"type":"Feature","properties":{"name":"湯山町","city":"高浜市","code":"227","setai":1979,"jinko":4783,"n":8,"towns":["23227011001","23227011002","23227011003","23227011004","23227011005","23227011006","23227011007","23227011008"],"lx":136.996914,"ly":34.934144},"geometry":{"type":"Polygon","coordinates":[[[136.991761,34.936781],[136.991977,34.936266],[136.992003,34.936209],[136.992214,34.93575],[136.992815,34.934386],[136.992867,34.934256],[136.992923,34.934128],[136.993095,34.933725],[136.993437,34.932926],[136.993565,34.932689],[136.994151,34.931351],[136.995199,34.93161],[136.995543,34.93068],[136.995712,34.930314],[136.996134,34.92945],[136.996155,34.929388],[136.998123,34.929758],[136.998313,34.929773],[136.998503,34.929808],[136.998749,34.929875],[136.998884,34.9299],[136.999856,34.930161],[137.000425,34.930308],[137.001475,34.930583],[137.001217,34.932023],[137.001187,34.933265],[137.001143,34.934829],[137.000732,34.934827],[137.00003,34.935636],[136.999428,34.936338],[136.99921,34.936582],[136.998805,34.937036],[136.997886,34.938252],[136.997623,34.938615],[136.997274,34.939072],[136.997248,34.939117],[136.997214,34.939176],[136.996806,34.939494],[136.996682,34.939563],[136.996545,34.939428],[136.996383,34.939254],[136.996165,34.939039],[136.995992,34.93891],[136.995824,34.938784],[136.995591,34.938588],[136.995343,34.938405],[136.995099,34.938218],[136.995036,34.938171],[136.994901,34.938072],[136.994741,34.937972],[136.994589,34.937927],[136.994457,34.937887],[136.994288,34.937843],[136.994142,34.93781],[136.994014,34.937769],[136.993858,34.937715],[136.993709,34.937643],[136.993465,34.937522],[136.993237,34.937395],[136.992993,34.937265],[136.992987,34.937262],[136.992502,34.936985],[136.99229,34.936865],[136.992197,34.936826],[136.992053,34.936785],[136.991924,34.936773],[136.991761,34.936781]]]}},{"type":"Feature","properties":{"name":"芳川町","city":"高浜市","code":"227","setai":832,"jinko":2167,"n":4,"towns":["23227012001","23227012002","23227012003","23227012004"],"lx":136.982893,"ly":34.936974},"geometry":{"type":"Polygon","coordinates":[[[136.979297,34.934114],[136.9793,34.933957],[136.979321,34.933794],[136.979355,34.933634],[136.979423,34.933402],[136.979534,34.933098],[136.979572,34.933013],[136.979614,34.932928],[136.979616,34.932914],[136.979742,34.932668],[136.979771,34.932623],[136.979992,34.932256],[136.980558,34.931398],[136.980785,34.93109],[136.981362,34.930338],[136.98159,34.93004],[136.98176,34.929829],[136.981812,34.929858],[136.98184,34.929823],[136.981792,34.929795],[136.982139,34.929381],[136.981899,34.92872],[136.982504,34.928332],[136.982489,34.928209],[136.982509,34.928205],[136.982525,34.928282],[136.982528,34.928281],[136.982648,34.928266],[136.98291,34.928257],[136.98292,34.928435],[136.98294,34.928534],[136.98293,34.928756],[136.982919,34.928937],[136.982916,34.929235],[136.982864,34.929514],[136.982807,34.929708],[136.982786,34.929869],[136.98277,34.929949],[136.982739,34.930262],[136.982678,34.931075],[136.982606,34.932113],[136.98255,34.932807],[136.982515,34.933052],[136.982486,34.933335],[136.982485,34.933585],[136.982526,34.933858],[136.982608,34.934166],[136.98274,34.934439],[136.982857,34.934601],[136.983012,34.934837],[136.983168,34.934973],[136.983764,34.935335],[136.984169,34.935495],[136.984537,34.935568],[136.985143,34.935687],[136.984994,34.935199],[136.984883,34.934869],[136.985193,34.934808],[136.985304,34.934768],[136.985401,34.934818],[136.985554,34.934893],[136.985755,34.934936],[136.985917,34.93498],[136.986157,34.935044],[136.986313,34.935117],[136.986526,34.935175],[136.986627,34.935202],[136.98679,34.935239],[136.986929,34.93526],[136.987084,34.93527],[136.987186,34.935275],[136.987245,34.935282],[136.987458,34.935341],[136.987827,34.935498],[136.986737,34.938025],[136.986266,34.93907],[136.985852,34.939996],[136.985704,34.940344],[136.985611,34.940594],[136.985588,34.940654],[136.985545,34.940882],[136.985513,34.941108],[136.985513,34.941337],[136.985522,34.941479],[136.985572,34.94177],[136.985624,34.941943],[136.985658,34.94207],[136.985716,34.94221],[136.985826,34.942427],[136.985645,34.942357],[136.985614,34.942319],[136.984968,34.942062],[136.984561,34.941917],[136.984157,34.94175],[136.98402,34.941674],[136.984046,34.941707],[136.984181,34.941915],[136.984434,34.942211],[136.984421,34.942277],[136.984413,34.942409],[136.984389,34.942632],[136.984338,34.942683],[136.984312,34.942665],[136.983956,34.943005],[136.983149,34.94241],[136.982933,34.943085],[136.982929,34.94323],[136.982879,34.943221],[136.982745,34.943163],[136.982608,34.943097],[136.982501,34.943038],[136.982397,34.942937],[136.982367,34.942944],[136.982338,34.942943],[136.9823,34.942939],[136.982256,34.942927],[136.98221,34.942909],[136.982067,34.942821],[136.982007,34.942777],[136.98182,34.942619],[136.98166,34.942465],[136.981569,34.942357],[136.981482,34.94224],[136.98141,34.942147],[136.981201,34.941886],[136.981132,34.941782],[136.981067,34.941653],[136.981047,34.941615],[136.980902,34.941672],[136.98089,34.94165],[136.980801,34.941456],[136.980751,34.941328],[136.980725,34.941251],[136.980699,34.941127],[136.980688,34.941021],[136.980687,34.940988],[136.980692,34.940788],[136.980716,34.940557],[136.980716,34.940427],[136.980697,34.940328],[136.980686,34.940285],[136.98069,34.940274],[136.98084,34.940251],[136.980814,34.940157],[136.980745,34.940006],[136.980671,34.939848],[136.980633,34.939768],[136.9806,34.939687],[136.980559,34.939553],[136.98053,34.939433],[136.980522,34.939394],[136.980517,34.939351],[136.980498,34.939178],[136.980497,34.939161],[136.980488,34.939124],[136.980486,34.939114],[136.980475,34.939116],[136.980473,34.939103],[136.980484,34.939102],[136.980475,34.93906],[136.980464,34.939062],[136.980462,34.939048],[136.98047,34.939048],[136.979965,34.937316],[136.979556,34.935912],[136.979534,34.935812],[136.979402,34.934931],[136.979389,34.934842],[136.979369,34.934708],[136.97931,34.934294],[136.979297,34.934114]]]}},{"type":"Feature","properties":{"name":"論地町","city":"高浜市","code":"227","setai":1179,"jinko":3341,"n":5,"towns":["23227013001","23227013002","23227013003","23227013004","23227013005"],"lx":136.998781,"ly":34.919284},"geometry":{"type":"Polygon","coordinates":[[[136.99376,34.921354],[136.993798,34.921216],[136.993828,34.921012],[136.993828,34.920732],[136.993833,34.920445],[136.993834,34.920276],[136.993871,34.920058],[136.993911,34.919863],[136.99398,34.919703],[136.994056,34.919553],[136.994131,34.919437],[136.994207,34.919322],[136.99433,34.919173],[136.994623,34.918873],[136.9947,34.918841],[136.994965,34.918587],[136.995096,34.918443],[136.995215,34.918297],[136.995324,34.918189],[136.995365,34.918091],[136.995416,34.91797],[136.995427,34.917788],[136.995444,34.917655],[136.995448,34.917307],[136.995406,34.916888],[136.995417,34.916798],[136.995425,34.916705],[136.995448,34.916606],[136.99548,34.916465],[136.99553,34.916329],[136.995625,34.916156],[136.995748,34.915917],[136.995865,34.915678],[136.995892,34.915633],[136.996133,34.915226],[136.996258,34.915009],[136.996527,34.914487],[136.996737,34.914566],[136.997218,34.914843],[136.997606,34.915098],[136.997961,34.915341],[136.99839,34.915642],[136.998569,34.915872],[136.998701,34.916176],[136.998675,34.916359],[136.998814,34.916449],[136.999329,34.916254],[136.999464,34.916174],[136.999728,34.916021],[136.99989,34.915849],[137.000057,34.915648],[137.000138,34.915515],[137.000467,34.91588],[137.0011,34.915344],[137.001648,34.914872],[137.002507,34.91549],[137.003342,34.916128],[137.004123,34.916706],[137.004464,34.916955],[137.004501,34.916986],[137.005099,34.917476],[137.005652,34.917985],[137.004289,34.919167],[137.003234,34.920091],[137.00298,34.920313],[137.002278,34.920928],[137.001616,34.921515],[137.001471,34.921647],[137.001209,34.921893],[137.000998,34.922063],[137.000775,34.922219],[137.000634,34.922273],[136.999183,34.922518],[136.998423,34.922636],[136.998147,34.92268],[136.997882,34.922727],[136.997754,34.922761],[136.997597,34.922856],[136.997358,34.922988],[136.997069,34.923188],[136.997018,34.923216],[136.99692,34.923269],[136.996207,34.923709],[136.995562,34.924126],[136.99527,34.924301],[136.995071,34.924407],[136.994965,34.924463],[136.994832,34.924535],[136.994591,34.924662],[136.994353,34.924745],[136.994012,34.924828],[136.993976,34.92468],[136.993932,34.924511],[136.993909,34.924338],[136.993876,34.924103],[136.993834,34.923888],[136.993822,34.923609],[136.993814,34.923374],[136.993811,34.923191],[136.993799,34.922921],[136.993791,34.922745],[136.993783,34.922555],[136.993779,34.922165],[136.993786,34.921897],[136.99376,34.921354]]]}},{"type":"Feature","properties":{"name":"青木町","city":"高浜市","code":"227","setai":1110,"jinko":2869,"n":9,"towns":["23227014101","23227014102","23227014103","23227014104","23227014105","23227014106","23227014107","23227014108","23227014109"],"lx":136.985389,"ly":34.924763},"geometry":{"type":"Polygon","coordinates":[[[136.978425,34.92319],[136.980215,34.923013],[136.981056,34.922929],[136.981439,34.922889],[136.982045,34.922812],[136.983274,34.922205],[136.984063,34.921772],[136.984144,34.921731],[136.985116,34.921213],[136.985221,34.921133],[136.985238,34.921256],[136.985545,34.921914],[136.986373,34.92145],[136.986399,34.921436],[136.986537,34.921363],[136.986739,34.921289],[136.986902,34.921271],[136.987986,34.921181],[136.987939,34.92076],[136.98794,34.92058],[136.988942,34.920311],[136.989288,34.920226],[136.989276,34.920569],[136.989288,34.920776],[136.989322,34.92106],[136.989353,34.921221],[136.989368,34.921384],[136.989402,34.921614],[136.98943,34.921883],[136.989477,34.922202],[136.989554,34.922627],[136.989785,34.923753],[136.989995,34.924804],[136.990143,34.925551],[136.990257,34.926097],[136.990318,34.926402],[136.990354,34.926655],[136.9904,34.926856],[136.990409,34.927057],[136.99044,34.92739],[136.990456,34.927642],[136.99046,34.927865],[136.990455,34.927967],[136.990458,34.928305],[136.989225,34.928085],[136.988472,34.927971],[136.988185,34.927928],[136.987977,34.927898],[136.987849,34.927877],[136.987701,34.927856],[136.987596,34.927863],[136.987401,34.927896],[136.987253,34.927921],[136.986842,34.927971],[136.98663,34.927995],[136.985331,34.928154],[136.985002,34.92819],[136.984774,34.928214],[136.984605,34.928208],[136.984496,34.928187],[136.984387,34.92815],[136.984284,34.928109],[136.984189,34.928056],[136.984051,34.927975],[136.983933,34.927854],[136.983859,34.927769],[136.983796,34.927687],[136.983641,34.92737],[136.983528,34.927174],[136.983408,34.92704],[136.983299,34.926967],[136.983165,34.926913],[136.983036,34.926861],[136.982919,34.926824],[136.982823,34.926811],[136.982641,34.926799],[136.982553,34.926798],[136.982536,34.926797],[136.982521,34.926801],[136.982448,34.926813],[136.982494,34.926915],[136.982517,34.926995],[136.982673,34.927378],[136.982738,34.927549],[136.982796,34.927731],[136.982849,34.927923],[136.982902,34.928133],[136.982509,34.928205],[136.982489,34.928209],[136.981706,34.928367],[136.981392,34.927505],[136.980786,34.92583],[136.980361,34.924656],[136.978622,34.924783],[136.978442,34.923283],[136.978436,34.923224],[136.978425,34.92319]]]}},{"type":"Feature","properties":{"name":"碧海町","city":"高浜市","code":"227","setai":451,"jinko":1050,"n":5,"towns":["23227014201","23227014202","23227014203","23227014204","23227014205"],"lx":136.983132,"ly":34.919029},"geometry":{"type":"Polygon","coordinates":[[[136.978154,34.920788],[136.979242,34.920698],[136.979154,34.919931],[136.978748,34.916384],[136.979017,34.916338],[136.980929,34.916015],[136.982969,34.915687],[136.983388,34.915648],[136.984831,34.915373],[136.985652,34.91517],[136.985806,34.915127],[136.985898,34.915087],[136.986545,34.914879],[136.98668,34.914802],[136.987119,34.915293],[136.987251,34.915506],[136.987831,34.917233],[136.987841,34.917395],[136.987793,34.918724],[136.98794,34.92058],[136.987939,34.92076],[136.987986,34.921181],[136.986902,34.921271],[136.986739,34.921289],[136.986537,34.921363],[136.986399,34.921436],[136.986373,34.92145],[136.985545,34.921914],[136.985238,34.921256],[136.985221,34.921133],[136.985116,34.921213],[136.984144,34.921731],[136.984063,34.921772],[136.983274,34.922205],[136.982045,34.922812],[136.981439,34.922889],[136.981056,34.922929],[136.980215,34.923013],[136.978425,34.92319],[136.978414,34.923075],[136.978407,34.922965],[136.978215,34.921318],[136.978154,34.920788]]]}},{"type":"Feature","properties":{"name":"春日町","city":"高浜市","code":"227","setai":1075,"jinko":2788,"n":7,"towns":["23227014301","23227014302","23227014303","23227014304","23227014305","23227014306","23227014307"],"lx":136.986056,"ly":34.931324},"geometry":{"type":"Polygon","coordinates":[[[136.982448,34.926813],[136.982521,34.926801],[136.982536,34.926797],[136.982553,34.926798],[136.982641,34.926799],[136.982823,34.926811],[136.982919,34.926824],[136.983036,34.926861],[136.983165,34.926913],[136.983299,34.926967],[136.983408,34.92704],[136.983528,34.927174],[136.983641,34.92737],[136.983796,34.927687],[136.983859,34.927769],[136.983933,34.927854],[136.984051,34.927975],[136.984189,34.928056],[136.984284,34.928109],[136.984387,34.92815],[136.984496,34.928187],[136.984605,34.928208],[136.984774,34.928214],[136.985002,34.92819],[136.985331,34.928154],[136.98663,34.927995],[136.986842,34.927971],[136.987253,34.927921],[136.987401,34.927896],[136.987596,34.927863],[136.987701,34.927856],[136.987849,34.927877],[136.987977,34.927898],[136.988185,34.927928],[136.988472,34.927971],[136.989225,34.928085],[136.990458,34.928305],[136.99044,34.928639],[136.99041,34.928953],[136.990384,34.929084],[136.990307,34.929461],[136.990288,34.929543],[136.990229,34.929811],[136.990153,34.930175],[136.990052,34.93039],[136.989854,34.930909],[136.9896,34.931492],[136.988957,34.932964],[136.988246,34.934521],[136.987827,34.935498],[136.987458,34.935341],[136.987245,34.935282],[136.987186,34.935275],[136.987084,34.93527],[136.986929,34.93526],[136.98679,34.935239],[136.986627,34.935202],[136.986526,34.935175],[136.986313,34.935117],[136.986157,34.935044],[136.985917,34.93498],[136.985755,34.934936],[136.985554,34.934893],[136.985401,34.934818],[136.985304,34.934768],[136.985193,34.934808],[136.984883,34.934869],[136.984994,34.935199],[136.985143,34.935687],[136.984537,34.935568],[136.984169,34.935495],[136.983764,34.935335],[136.983168,34.934973],[136.983012,34.934837],[136.982857,34.934601],[136.98274,34.934439],[136.982608,34.934166],[136.982526,34.933858],[136.982485,34.933585],[136.982486,34.933335],[136.982515,34.933052],[136.98255,34.932807],[136.982606,34.932113],[136.982678,34.931075],[136.982739,34.930262],[136.98277,34.929949],[136.982786,34.929869],[136.982807,34.929708],[136.982864,34.929514],[136.982916,34.929235],[136.982919,34.928937],[136.98293,34.928756],[136.98294,34.928534],[136.98292,34.928435],[136.98291,34.928257],[136.982648,34.928266],[136.982528,34.928281],[136.982525,34.928282],[136.982509,34.928205],[136.982902,34.928133],[136.982849,34.927923],[136.982796,34.927731],[136.982738,34.927549],[136.982673,34.927378],[136.982517,34.926995],[136.982494,34.926915],[136.982448,34.926813]]]}},{"type":"Feature","properties":{"name":"沢渡町","city":"高浜市","code":"227","setai":882,"jinko":2221,"n":5,"towns":["23227014401","23227014402","23227014403","23227014404","23227014405"],"lx":136.991639,"ly":34.932375},"geometry":{"type":"Polygon","coordinates":[[[136.987827,34.935498],[136.988246,34.934521],[136.988957,34.932964],[136.9896,34.931492],[136.989854,34.930909],[136.990052,34.93039],[136.990153,34.930175],[136.990229,34.929811],[136.990288,34.929543],[136.990307,34.929461],[136.990384,34.929084],[136.99041,34.928953],[136.99044,34.928639],[136.990458,34.928305],[136.991251,34.928474],[136.992339,34.928673],[136.99333,34.92886],[136.994029,34.928998],[136.99509,34.929211],[136.996155,34.929388],[136.996134,34.92945],[136.995712,34.930314],[136.995543,34.93068],[136.995199,34.93161],[136.994151,34.931351],[136.993565,34.932689],[136.993437,34.932926],[136.993095,34.933725],[136.992923,34.934128],[136.992867,34.934256],[136.992815,34.934386],[136.992214,34.93575],[136.992003,34.936209],[136.991977,34.936266],[136.991761,34.936781],[136.99162,34.936781],[136.991479,34.936782],[136.991333,34.93678],[136.991094,34.93677],[136.990868,34.936751],[136.990793,34.936734],[136.990582,34.936703],[136.990316,34.936635],[136.990053,34.936573],[136.989793,34.936463],[136.989684,34.936404],[136.989515,34.936312],[136.989358,34.936227],[136.989221,34.936169],[136.989107,34.936103],[136.988965,34.936025],[136.988804,34.935958],[136.988697,34.935902],[136.988617,34.935864],[136.988487,34.935778],[136.988352,34.93572],[136.988157,34.935635],[136.98798,34.935561],[136.987827,34.935498]]]}},{"type":"Feature","properties":{"name":"田戸町","city":"高浜市","code":"227","setai":1376,"jinko":3174,"n":7,"towns":["23227014501","23227014502","23227014503","23227014504","23227014505","23227014506","23227014507"],"lx":136.982858,"ly":34.911735},"geometry":{"type":"Polygon","coordinates":[[[136.977405,34.907795],[136.977408,34.907724],[136.977638,34.90772],[136.977623,34.906994],[136.981161,34.906924],[136.981473,34.907099],[136.981617,34.907178],[136.981911,34.907337],[136.982557,34.907412],[136.982744,34.907403],[136.98276,34.907403],[136.983074,34.907564],[136.98315,34.907686],[136.983275,34.907792],[136.983415,34.907868],[136.983662,34.907948],[136.983831,34.90799],[136.983958,34.908028],[136.984162,34.90814],[136.98445,34.908327],[136.984608,34.908401],[136.984772,34.908461],[136.984846,34.908467],[136.98499,34.908494],[136.985157,34.908502],[136.98522,34.908507],[136.985223,34.908723],[136.98516,34.908785],[136.985139,34.908834],[136.985072,34.909004],[136.985111,34.909125],[136.985209,34.909176],[136.985509,34.909397],[136.985835,34.909563],[136.986381,34.909864],[136.98646,34.909896],[136.986467,34.909899],[136.9869,34.910076],[136.987165,34.910234],[136.987239,34.910272],[136.987716,34.910521],[136.988038,34.910666],[136.988095,34.910688],[136.988628,34.910898],[136.988974,34.911054],[136.988982,34.911057],[136.989269,34.911117],[136.98954,34.911179],[136.989742,34.911248],[136.990098,34.91138],[136.990545,34.911556],[136.990862,34.911926],[136.990963,34.911963],[136.99125,34.912046],[136.991562,34.912143],[136.991869,34.912232],[136.992053,34.912341],[136.992131,34.912365],[136.992178,34.912392],[136.992191,34.91239],[136.992259,34.912418],[136.992578,34.912592],[136.99267,34.912642],[136.99237,34.912694],[136.991935,34.912769],[136.99155,34.912836],[136.991,34.912931],[136.99083,34.91296],[136.989967,34.913223],[136.989263,34.913481],[136.989198,34.913504],[136.989062,34.913562],[136.988966,34.913599],[136.988879,34.913635],[136.988302,34.913933],[136.98732,34.914438],[136.98668,34.914802],[136.986545,34.914879],[136.985898,34.915087],[136.985806,34.915127],[136.985652,34.91517],[136.984831,34.915373],[136.983388,34.915648],[136.982969,34.915687],[136.980929,34.916015],[136.979017,34.916338],[136.978936,34.915787],[136.977799,34.915027],[136.977784,34.914385],[136.977779,34.913997],[136.977768,34.913579],[136.977735,34.912303],[136.977723,34.911855],[136.978391,34.911841],[136.978391,34.911753],[136.977719,34.911766],[136.977705,34.911161],[136.977561,34.911163],[136.977561,34.911211],[136.977461,34.911213],[136.977453,34.911077],[136.977555,34.911075],[136.977556,34.911086],[136.977703,34.911046],[136.977659,34.909079],[136.977442,34.909079],[136.977405,34.907795]]]}},{"type":"Feature","properties":{"name":"稗田町","city":"高浜市","code":"227","setai":744,"jinko":1935,"n":6,"towns":["23227014601","23227014602","23227014603","23227014604","23227014605","23227014606"],"lx":136.992493,"ly":34.92452},"geometry":{"type":"Polygon","coordinates":[[[136.989276,34.920569],[136.989288,34.920226],[136.989438,34.920185],[136.990276,34.919979],[136.99069,34.919863],[136.991633,34.919613],[136.992843,34.919327],[136.994623,34.918873],[136.99433,34.919173],[136.994207,34.919322],[136.994131,34.919437],[136.994056,34.919553],[136.99398,34.919703],[136.993911,34.919863],[136.993871,34.920058],[136.993834,34.920276],[136.993833,34.920445],[136.993828,34.920732],[136.993828,34.921012],[136.993798,34.921216],[136.99376,34.921354],[136.993786,34.921897],[136.993779,34.922165],[136.993783,34.922555],[136.993791,34.922745],[136.993799,34.922921],[136.993811,34.923191],[136.993814,34.923374],[136.993822,34.923609],[136.993834,34.923888],[136.993876,34.924103],[136.993909,34.924338],[136.993932,34.924511],[136.993976,34.92468],[136.994012,34.924828],[136.994071,34.925002],[136.994124,34.925134],[136.994211,34.925382],[136.994317,34.925617],[136.994428,34.925831],[136.994523,34.925971],[136.994666,34.926137],[136.99486,34.92632],[136.995151,34.92654],[136.995302,34.926685],[136.995478,34.926813],[136.995672,34.926912],[136.995782,34.926962],[136.995976,34.927012],[136.996197,34.927069],[136.996317,34.927086],[136.996457,34.927106],[136.996618,34.927125],[136.996965,34.927135],[136.997131,34.927114],[136.99648,34.928668],[136.996345,34.92898],[136.996155,34.929388],[136.99509,34.929211],[136.994029,34.928998],[136.99333,34.92886],[136.992339,34.928673],[136.991251,34.928474],[136.990458,34.928305],[136.990455,34.927967],[136.99046,34.927865],[136.990456,34.927642],[136.99044,34.92739],[136.990409,34.927057],[136.9904,34.926856],[136.990354,34.926655],[136.990318,34.926402],[136.990257,34.926097],[136.990143,34.925551],[136.989995,34.924804],[136.989785,34.923753],[136.989554,34.922627],[136.989477,34.922202],[136.98943,34.921883],[136.989402,34.921614],[136.989368,34.921384],[136.989353,34.921221],[136.989322,34.92106],[136.989288,34.920776],[136.989276,34.920569]]]}},{"type":"Feature","properties":{"name":"二池町","city":"高浜市","code":"227","setai":898,"jinko":2356,"n":6,"towns":["23227014701","23227014702","23227014703","23227014704","23227014705","23227014706"],"lx":136.991442,"ly":34.916389},"geometry":{"type":"Polygon","coordinates":[[[136.98668,34.914802],[136.98732,34.914438],[136.988302,34.913933],[136.988879,34.913635],[136.988966,34.913599],[136.989062,34.913562],[136.989198,34.913504],[136.989263,34.913481],[136.989967,34.913223],[136.99083,34.91296],[136.991,34.912931],[136.99155,34.912836],[136.991935,34.912769],[136.99237,34.912694],[136.99267,34.912642],[136.993013,34.91284],[136.993279,34.912999],[136.993398,34.913068],[136.993461,34.913105],[136.993568,34.913153],[136.993683,34.913204],[136.993897,34.913374],[136.994063,34.913512],[136.994388,34.913697],[136.994863,34.9139],[136.995064,34.913985],[136.995181,34.914034],[136.99546,34.914035],[136.995744,34.914253],[136.995936,34.914216],[136.996093,34.914207],[136.996202,34.91421],[136.996378,34.91424],[136.9963,34.914395],[136.996493,34.914464],[136.996488,34.914472],[136.996527,34.914487],[136.996258,34.915009],[136.996133,34.915226],[136.995892,34.915633],[136.995865,34.915678],[136.995748,34.915917],[136.995625,34.916156],[136.99553,34.916329],[136.99548,34.916465],[136.995448,34.916606],[136.995425,34.916705],[136.995417,34.916798],[136.995406,34.916888],[136.995448,34.917307],[136.995444,34.917655],[136.995427,34.917788],[136.995416,34.91797],[136.995365,34.918091],[136.995324,34.918189],[136.995215,34.918297],[136.995096,34.918443],[136.994965,34.918587],[136.9947,34.918841],[136.994623,34.918873],[136.992843,34.919327],[136.991633,34.919613],[136.99069,34.919863],[136.990276,34.919979],[136.989438,34.920185],[136.989288,34.920226],[136.988942,34.920311],[136.98794,34.92058],[136.987793,34.918724],[136.987841,34.917395],[136.987831,34.917233],[136.987251,34.915506],[136.987119,34.915293],[136.98668,34.914802]]]}}]}