{"type":"FeatureCollection","features":[{"type":"Feature","properties":{"name":"諸輪","city":"東郷町","code":"302","setai":1787,"jinko":5022,"n":6,"towns":["233020010","233020080","23302012009","23302012009","23302012009","23302012009"],"lx":137.073148,"ly":35.108451},"geometry":{"type":"Polygon","coordinates":[[[137.054812,35.097637],[137.05517,35.097416],[137.055705,35.09657],[137.055886,35.096247],[137.056066,35.095972],[137.056271,35.095718],[137.056571,35.095507],[137.056939,35.095349],[137.05727,35.09525],[137.057707,35.09509],[137.058714,35.094766],[137.059179,35.094969],[137.059344,35.094836],[137.059477,35.094733],[137.059961,35.094362],[137.060297,35.094148],[137.060597,35.093964],[137.061229,35.094504],[137.062153,35.095065],[137.062558,35.095284],[137.062673,35.095346],[137.062686,35.095353],[137.063218,35.095605],[137.063804,35.095819],[137.064665,35.096119],[137.065397,35.096466],[137.065854,35.096558],[137.066301,35.096633],[137.066668,35.096589],[137.06693,35.096493],[137.067345,35.096332],[137.067939,35.095953],[137.068131,35.095813],[137.068382,35.095656],[137.068667,35.095556],[137.068872,35.095574],[137.069171,35.095685],[137.069494,35.095884],[137.069736,35.096041],[137.069961,35.096167],[137.070168,35.096308],[137.070207,35.096334],[137.070315,35.096389],[137.070514,35.096281],[137.070728,35.096154],[137.070864,35.095996],[137.071013,35.09583],[137.071119,35.09571],[137.071358,35.095651],[137.071461,35.095737],[137.071582,35.095836],[137.071602,35.095855],[137.07166,35.095907],[137.071786,35.096108],[137.072129,35.096334],[137.072598,35.096496],[137.072692,35.096618],[137.072781,35.096725],[137.073035,35.096851],[137.0731,35.096919],[137.07312,35.096955],[137.073216,35.097134],[137.073454,35.097263],[137.073756,35.097304],[137.073879,35.097308],[137.074408,35.097271],[137.074464,35.097263],[137.074619,35.097285],[137.074667,35.097262],[137.074779,35.09716],[137.074859,35.097122],[137.07493,35.097114],[137.074991,35.097149],[137.075028,35.09716],[137.075242,35.097324],[137.075334,35.097381],[137.075779,35.097652],[137.07595,35.097765],[137.07598,35.097784],[137.076214,35.097924],[137.076231,35.097961],[137.07637,35.09812],[137.076426,35.098229],[137.07654,35.098415],[137.076628,35.098511],[137.076728,35.09862],[137.076931,35.098745],[137.077088,35.098792],[137.077337,35.098792],[137.077577,35.098788],[137.077671,35.098772],[137.077899,35.098731],[137.078149,35.098663],[137.078398,35.098577],[137.078491,35.098561],[137.078692,35.098526],[137.078954,35.098521],[137.078966,35.098516],[137.07916,35.098444],[137.079344,35.098368],[137.079623,35.098164],[137.079892,35.098004],[137.080138,35.097809],[137.080397,35.097696],[137.080691,35.097654],[137.08105,35.097574],[137.081256,35.097516],[137.081427,35.097479],[137.081431,35.097478],[137.081484,35.097466],[137.081779,35.097433],[137.082066,35.097527],[137.082199,35.097628],[137.082259,35.097673],[137.082298,35.097703],[137.08239,35.097774],[137.082566,35.097963],[137.082605,35.098004],[137.082617,35.098022],[137.082746,35.098173],[137.082962,35.098393],[137.083173,35.098552],[137.083422,35.098648],[137.083637,35.098739],[137.083709,35.098769],[137.08403,35.09888],[137.084067,35.098897],[137.084285,35.098993],[137.084484,35.099079],[137.08462,35.099153],[137.08472,35.099147],[137.084733,35.099146],[137.084925,35.099307],[137.085479,35.099216],[137.085875,35.09923],[137.086549,35.099436],[137.087168,35.099974],[137.087209,35.100162],[137.087285,35.100319],[137.087297,35.100488],[137.087831,35.101004],[137.087837,35.101336],[137.087838,35.101362],[137.087853,35.101542],[137.087885,35.101936],[137.087973,35.103607],[137.087799,35.103684],[137.087735,35.103723],[137.087687,35.103794],[137.087635,35.104123],[137.08762,35.104208],[137.087606,35.104275],[137.08755,35.104333],[137.087443,35.10436],[137.087225,35.104369],[137.086858,35.104331],[137.08534,35.104932],[137.085448,35.105283],[137.085492,35.105445],[137.085611,35.105571],[137.085709,35.105821],[137.085856,35.106002],[137.085923,35.106223],[137.086019,35.106519],[137.086064,35.10663],[137.086196,35.106787],[137.086165,35.106893],[137.086109,35.107016],[137.086147,35.10715],[137.086265,35.107482],[137.086398,35.107923],[137.086505,35.108201],[137.086623,35.108533],[137.086665,35.108853],[137.086673,35.108916],[137.086667,35.109042],[137.086519,35.109249],[137.086443,35.109719],[137.086536,35.109844],[137.086523,35.109896],[137.086391,35.110083],[137.086369,35.110444],[137.086292,35.110597],[137.086351,35.110692],[137.086385,35.110828],[137.086537,35.110977],[137.086787,35.111205],[137.086877,35.111415],[137.08692,35.111626],[137.086897,35.111712],[137.086822,35.111785],[137.08697,35.111781],[137.087078,35.111997],[137.087269,35.112354],[137.087331,35.113117],[137.086911,35.113136],[137.086875,35.113353],[137.086844,35.113487],[137.086758,35.113638],[137.086908,35.114102],[137.087002,35.114196],[137.087151,35.114585],[137.087251,35.114856],[137.087571,35.115289],[137.087603,35.115354],[137.087813,35.115778],[137.08791,35.115972],[137.087988,35.116131],[137.088063,35.116446],[137.088071,35.116726],[137.088083,35.116816],[137.088089,35.116836],[137.088087,35.116845],[137.088097,35.116919],[137.088126,35.117132],[137.088111,35.117376],[137.088041,35.117586],[137.087925,35.117751],[137.087781,35.117903],[137.087618,35.117984],[137.088432,35.120183],[137.088544,35.120642],[137.088857,35.121667],[137.088967,35.122053],[137.089066,35.122467],[137.089253,35.123406],[137.089224,35.123424],[137.089174,35.123455],[137.089118,35.123516],[137.088892,35.123674],[137.088318,35.123884],[137.087766,35.124076],[137.087453,35.124245],[137.087217,35.124395],[137.086968,35.124499],[137.086774,35.124595],[137.086595,35.124732],[137.086428,35.124948],[137.086379,35.124998],[137.086371,35.125045],[137.086351,35.125065],[137.086276,35.125141],[137.086243,35.125174],[137.084436,35.125342],[137.084363,35.12535],[137.084299,35.125357],[137.083782,35.12434],[137.083473,35.123725],[137.083108,35.123297],[137.082753,35.122906],[137.082312,35.122388],[137.081784,35.121941],[137.081402,35.121628],[137.081104,35.121384],[137.080531,35.121035],[137.07973,35.120548],[137.078852,35.120141],[137.078016,35.119879],[137.077288,35.119681],[137.076604,35.119537],[137.076134,35.119448],[137.075788,35.119383],[137.075156,35.119402],[137.074422,35.119654],[137.073404,35.12009],[137.072416,35.120627],[137.071736,35.121014],[137.071111,35.121276],[137.070925,35.121354],[137.070532,35.121376],[137.070054,35.121316],[137.070049,35.121317],[137.069662,35.121355],[137.069643,35.121357],[137.069486,35.121372],[137.068741,35.121414],[137.068749,35.121401],[137.068177,35.121429],[137.067582,35.121457],[137.067579,35.121457],[137.067456,35.121463],[137.067186,35.121467],[137.06705,35.121468],[137.066881,35.121263],[137.066676,35.120942],[137.066427,35.120594],[137.066035,35.12022],[137.065591,35.119974],[137.065015,35.119729],[137.06479,35.119703],[137.06452,35.119672],[137.063806,35.119534],[137.062999,35.119422],[137.062436,35.119324],[137.062334,35.119311],[137.062306,35.119],[137.062294,35.118753],[137.062285,35.118663],[137.062243,35.118548],[137.062218,35.118453],[137.062203,35.118367],[137.062204,35.118283],[137.062221,35.118175],[137.06226,35.118083],[137.062331,35.117897],[137.062475,35.117542],[137.062539,35.117237],[137.062563,35.117126],[137.062579,35.117022],[137.062656,35.116504],[137.062738,35.11594],[137.061793,35.115648],[137.061471,35.115557],[137.061303,35.115529],[137.061166,35.115258],[137.060883,35.115246],[137.060884,35.115212],[137.060879,35.115095],[137.060847,35.114903],[137.060802,35.114715],[137.061229,35.114542],[137.061243,35.114578],[137.06242,35.114807],[137.062531,35.114817],[137.062998,35.114757],[137.063226,35.114727],[137.063484,35.114694],[137.06376,35.114664],[137.063819,35.114652],[137.064026,35.114544],[137.064218,35.114445],[137.064354,35.114363],[137.064542,35.114197],[137.064819,35.113948],[137.065725,35.113182],[137.066337,35.112324],[137.066633,35.111909],[137.066921,35.111513],[137.067083,35.111353],[137.067013,35.111295],[137.066899,35.111208],[137.066756,35.111044],[137.066789,35.110724],[137.066793,35.110585],[137.066777,35.110451],[137.066424,35.110345],[137.066486,35.110287],[137.066433,35.110267],[137.066138,35.109764],[137.06574,35.109945],[137.065651,35.109675],[137.065305,35.109405],[137.06495,35.109512],[137.0648,35.109373],[137.064752,35.109159],[137.064344,35.109207],[137.062954,35.109239],[137.062055,35.109088],[137.061931,35.109301],[137.061887,35.109516],[137.06176,35.109747],[137.061666,35.109884],[137.061592,35.109978],[137.061015,35.110231],[137.060727,35.110464],[137.060449,35.110661],[137.060285,35.110685],[137.060061,35.110755],[137.05953,35.110641],[137.059357,35.110465],[137.059282,35.110216],[137.059164,35.10991],[137.058854,35.109671],[137.058555,35.109377],[137.058321,35.109121],[137.058045,35.108763],[137.058026,35.108424],[137.057866,35.108459],[137.05777,35.107874],[137.057691,35.107598],[137.057658,35.107369],[137.057559,35.107277],[137.057323,35.107116],[137.056718,35.107422],[137.056417,35.107524],[137.05625,35.107579],[137.056137,35.107613],[137.055975,35.107645],[137.056024,35.107445],[137.056233,35.106752],[137.056443,35.106797],[137.056641,35.106555],[137.056786,35.106384],[137.056901,35.106166],[137.056933,35.105989],[137.056983,35.105794],[137.056961,35.105678],[137.056717,35.105394],[137.056587,35.105019],[137.056514,35.104565],[137.056477,35.104332],[137.056451,35.104183],[137.056431,35.104045],[137.056386,35.10378],[137.056392,35.103631],[137.056446,35.103531],[137.056682,35.103072],[137.05681,35.103087],[137.056928,35.103098],[137.056936,35.103031],[137.056943,35.102746],[137.056935,35.102705],[137.056897,35.102653],[137.056784,35.102507],[137.056693,35.102374],[137.056559,35.10215],[137.056512,35.102018],[137.056394,35.10191],[137.056359,35.101837],[137.056348,35.101794],[137.05643,35.101663],[137.056425,35.101585],[137.056372,35.101494],[137.05613,35.101386],[137.056033,35.101099],[137.056629,35.101401],[137.056756,35.101461],[137.056973,35.101535],[137.057263,35.101598],[137.057491,35.10162],[137.057745,35.101613],[137.05775,35.101382],[137.057944,35.101354],[137.05795,35.101308],[137.05795,35.100818],[137.057786,35.100581],[137.057575,35.100617],[137.057405,35.100185],[137.057326,35.10018],[137.057272,35.100004],[137.05711,35.100001],[137.057033,35.099959],[137.056934,35.099726],[137.057031,35.099602],[137.057347,35.099222],[137.057365,35.099179],[137.05688,35.098365],[137.056653,35.098021],[137.056554,35.097915],[137.05648,35.097843],[137.055671,35.098107],[137.055251,35.098055],[137.055216,35.097973],[137.055108,35.09787],[137.054912,35.09774],[137.054812,35.097637]],[[137.059179,35.094969],[137.058883,35.095035],[137.059119,35.095162],[137.059593,35.095546],[137.060048,35.095888],[137.059842,35.096071],[137.059115,35.09664],[137.058794,35.096894],[137.058528,35.096594],[137.058172,35.096781],[137.058101,35.097005],[137.058128,35.097046],[137.057864,35.09724],[137.058231,35.097653],[137.058513,35.097996],[137.05855,35.098235],[137.05827,35.098403],[137.058476,35.098568],[137.058997,35.09901],[137.059196,35.099179],[137.059128,35.099426],[137.059363,35.099661],[137.059474,35.100467],[137.059592,35.100621],[137.05961,35.10074],[137.059473,35.100973],[137.059398,35.101089],[137.059391,35.101125],[137.059351,35.101339],[137.059319,35.101506],[137.059599,35.10147],[137.059773,35.101462],[137.059783,35.101513],[137.059853,35.101704],[137.060031,35.101882],[137.059885,35.102093],[137.060658,35.102347],[137.06113,35.102162],[137.061514,35.101993],[137.061761,35.101881],[137.061994,35.101757],[137.062159,35.101656],[137.062309,35.101554],[137.06246,35.101464],[137.062762,35.101262],[137.062954,35.101127],[137.063203,35.101],[137.063261,35.100971],[137.063726,35.10069],[137.064041,35.100489],[137.064101,35.100436],[137.06422,35.100338],[137.064351,35.100257],[137.064523,35.100142],[137.064716,35.100007],[137.064724,35.100002],[137.064904,35.099878],[137.06624,35.098969],[137.066269,35.09895],[137.06614,35.098795],[137.065991,35.09861],[137.065876,35.098471],[137.065675,35.098228],[137.065401,35.097959],[137.065164,35.097792],[137.065099,35.097747],[137.064996,35.097674],[137.064786,35.097526],[137.064628,35.097455],[137.064426,35.097335],[137.064094,35.097197],[137.063823,35.097056],[137.063538,35.096942],[137.063363,35.096859],[137.063194,35.09678],[137.062834,35.096615],[137.062263,35.096367],[137.06195,35.096228],[137.061661,35.09609],[137.061394,35.095972],[137.061177,35.095872],[137.060883,35.095742],[137.060395,35.09552],[137.059823,35.095305],[137.059179,35.094969]]]}},{"type":"Feature","properties":{"name":"和合","city":"東郷町","code":"302","setai":1223,"jinko":3074,"n":2,"towns":["23302002000","23302007009"],"lx":137.044929,"ly":35.10575},"geometry":{"type":"Polygon","coordinates":[[[137.02625,35.108493],[137.026252,35.108293],[137.026282,35.108154],[137.026282,35.108143],[137.026295,35.108095],[137.02631,35.108039],[137.026424,35.107873],[137.026528,35.107788],[137.026633,35.107769],[137.026874,35.107799],[137.026886,35.107801],[137.027235,35.107841],[137.027437,35.107864],[137.02745,35.107865],[137.027475,35.107872],[137.027629,35.107916],[137.027813,35.108013],[137.02788,35.108033],[137.027942,35.108081],[137.028135,35.108182],[137.028289,35.108284],[137.028437,35.10834],[137.028457,35.108351],[137.028563,35.108364],[137.028654,35.108355],[137.028941,35.108326],[137.029084,35.108309],[137.029326,35.108261],[137.029584,35.10816],[137.029599,35.108142],[137.029805,35.108053],[137.029851,35.108031],[137.02988,35.108021],[137.029911,35.108008],[137.030317,35.10783],[137.03054,35.107738],[137.030736,35.107593],[137.030964,35.10743],[137.031119,35.107334],[137.031287,35.107224],[137.031509,35.107023],[137.032453,35.107498],[137.032558,35.107596],[137.032657,35.107669],[137.032838,35.107786],[137.03291,35.107877],[137.032973,35.107878],[137.033077,35.107879],[137.033221,35.107826],[137.033314,35.107821],[137.033535,35.107819],[137.033704,35.10781],[137.033738,35.107808],[137.033758,35.107796],[137.033839,35.107747],[137.033929,35.107693],[137.033991,35.107625],[137.034555,35.107579],[137.034508,35.107136],[137.034538,35.106974],[137.034547,35.106853],[137.034553,35.10671],[137.034637,35.10655],[137.034827,35.106403],[137.035079,35.106197],[137.035414,35.105992],[137.035371,35.105862],[137.035381,35.105781],[137.035465,35.105589],[137.035645,35.105404],[137.035792,35.105363],[137.035975,35.105309],[137.036705,35.105081],[137.036859,35.105032],[137.036962,35.105065],[137.036976,35.105069],[137.036996,35.105069],[137.037054,35.105093],[137.037057,35.105093],[137.03735,35.105183],[137.037723,35.105118],[137.037813,35.104909],[137.037851,35.104749],[137.037885,35.10474],[137.037973,35.104748],[137.038159,35.104804],[137.038268,35.10485],[137.038326,35.104874],[137.03852,35.104959],[137.038762,35.105051],[137.038853,35.105058],[137.03902,35.105045],[137.039292,35.105022],[137.039647,35.104929],[137.040009,35.104894],[137.040166,35.104858],[137.040342,35.104746],[137.040573,35.104546],[137.040748,35.104401],[137.040858,35.104309],[137.040941,35.104116],[137.041155,35.10382],[137.041353,35.103645],[137.041948,35.103014],[137.042032,35.102965],[137.0425,35.102731],[137.042559,35.102723],[137.043006,35.102617],[137.043291,35.102549],[137.043447,35.10252],[137.043834,35.102478],[137.044236,35.102442],[137.044421,35.102453],[137.044441,35.102441],[137.044585,35.102357],[137.044997,35.102007],[137.045572,35.101618],[137.04565,35.101735],[137.046277,35.101551],[137.04628,35.101555],[137.046936,35.102581],[137.047295,35.102234],[137.047778,35.101779],[137.048419,35.101218],[137.048799,35.100909],[137.049355,35.10044],[137.049702,35.100174],[137.049704,35.100173],[137.050189,35.099819],[137.050614,35.099512],[137.050975,35.099228],[137.050408,35.098733],[137.050365,35.098695],[137.050321,35.098655],[137.050769,35.098246],[137.051134,35.097926],[137.051403,35.097626],[137.051496,35.097446],[137.051711,35.097193],[137.051924,35.097559],[137.052135,35.097921],[137.052026,35.098128],[137.051876,35.098435],[137.051833,35.098531],[137.051575,35.098755],[137.051632,35.09884],[137.051959,35.098709],[137.052312,35.098593],[137.052454,35.098555],[137.053266,35.098336],[137.053483,35.098249],[137.053721,35.098143],[137.05412,35.097968],[137.054139,35.097953],[137.054812,35.097637],[137.054912,35.09774],[137.055108,35.09787],[137.055216,35.097973],[137.055251,35.098055],[137.055671,35.098107],[137.05648,35.097843],[137.056554,35.097915],[137.056653,35.098021],[137.05688,35.098365],[137.057365,35.099179],[137.057347,35.099222],[137.057031,35.099602],[137.056934,35.099726],[137.057033,35.099959],[137.05711,35.100001],[137.057272,35.100004],[137.057326,35.10018],[137.057405,35.100185],[137.057575,35.100617],[137.057786,35.100581],[137.05795,35.100818],[137.05795,35.101308],[137.057944,35.101354],[137.05775,35.101382],[137.057745,35.101613],[137.057491,35.10162],[137.057263,35.101598],[137.056973,35.101535],[137.056756,35.101461],[137.056629,35.101401],[137.056033,35.101099],[137.05613,35.101386],[137.056372,35.101494],[137.056425,35.101585],[137.05643,35.101663],[137.056348,35.101794],[137.056359,35.101837],[137.056394,35.10191],[137.056512,35.102018],[137.056559,35.10215],[137.056693,35.102374],[137.056784,35.102507],[137.056897,35.102653],[137.056935,35.102705],[137.056943,35.102746],[137.056936,35.103031],[137.056928,35.103098],[137.05681,35.103087],[137.056682,35.103072],[137.056446,35.103531],[137.056392,35.103631],[137.056386,35.10378],[137.056431,35.104045],[137.056451,35.104183],[137.056477,35.104332],[137.056514,35.104565],[137.056587,35.105019],[137.056717,35.105394],[137.056961,35.105678],[137.056983,35.105794],[137.056933,35.105989],[137.056901,35.106166],[137.056786,35.106384],[137.056641,35.106555],[137.056443,35.106797],[137.056233,35.106752],[137.056024,35.107445],[137.055975,35.107645],[137.05597,35.107646],[137.055749,35.107682],[137.055647,35.107709],[137.055533,35.107767],[137.055367,35.107841],[137.055214,35.10793],[137.054751,35.108226],[137.054607,35.108198],[137.054183,35.108103],[137.053955,35.108153],[137.053826,35.108194],[137.053734,35.108222],[137.053619,35.10825],[137.053521,35.108312],[137.053414,35.108384],[137.053271,35.10849],[137.053109,35.108603],[137.052816,35.108753],[137.052365,35.109036],[137.051803,35.108993],[137.051564,35.108975],[137.051499,35.109085],[137.05144,35.109164],[137.051397,35.109217],[137.051345,35.109264],[137.051314,35.109288],[137.05113,35.109462],[137.051021,35.109559],[137.050868,35.109723],[137.050752,35.109846],[137.050575,35.109716],[137.050619,35.109641],[137.050614,35.10963],[137.050578,35.109622],[137.050487,35.109588],[137.050415,35.109549],[137.05034,35.109493],[137.050263,35.109429],[137.050204,35.109374],[137.050115,35.109287],[137.05002,35.109195],[137.050016,35.109007],[137.049916,35.108937],[137.049847,35.108872],[137.04978,35.108808],[137.049718,35.108738],[137.049605,35.108587],[137.0494,35.108603],[137.04659,35.108662],[137.04555,35.108691],[137.04542,35.108695],[137.044644,35.108717],[137.044433,35.108847],[137.044315,35.108729],[137.044132,35.108553],[137.043976,35.108648],[137.043857,35.108525],[137.043797,35.108564],[137.043373,35.108831],[137.043046,35.109111],[137.042866,35.109532],[137.042685,35.109982],[137.042724,35.11002],[137.042753,35.110049],[137.043381,35.110079],[137.043873,35.11065],[137.043533,35.110896],[137.043301,35.110988],[137.043352,35.111062],[137.043215,35.11113],[137.043169,35.111181],[137.043207,35.111236],[137.042932,35.111353],[137.042893,35.111439],[137.042962,35.111576],[137.043094,35.111547],[137.043404,35.111621],[137.043463,35.11176],[137.043402,35.111825],[137.043304,35.111937],[137.04303,35.111824],[137.042592,35.111823],[137.04229,35.111834],[137.042057,35.111834],[137.041741,35.111845],[137.041811,35.111439],[137.042167,35.111361],[137.042428,35.111282],[137.042436,35.111459],[137.042606,35.111463],[137.042548,35.111241],[137.042881,35.111125],[137.042818,35.111083],[137.04267,35.110951],[137.042506,35.110818],[137.042442,35.110764],[137.042388,35.11073],[137.042357,35.110757],[137.042018,35.110493],[137.042155,35.110392],[137.041977,35.110223],[137.041963,35.110099],[137.041827,35.109941],[137.041525,35.110155],[137.041059,35.109715],[137.041033,35.109682],[137.040967,35.1096],[137.040961,35.109595],[137.040663,35.109325],[137.040611,35.109283],[137.040016,35.108795],[137.039514,35.108414],[137.039475,35.108385],[137.039391,35.108462],[137.039148,35.108687],[137.038768,35.10899],[137.038492,35.109209],[137.038169,35.109483],[137.03689,35.110509],[137.036727,35.110648],[137.036148,35.111152],[137.036019,35.111232],[137.035956,35.111276],[137.035777,35.11132],[137.035503,35.111399],[137.035053,35.111551],[137.0346,35.11176],[137.034025,35.112111],[137.032809,35.112712],[137.03282,35.112719],[137.032474,35.11286],[137.032374,35.112838],[137.032311,35.112816],[137.032274,35.11279],[137.03225,35.112772],[137.032267,35.112696],[137.032155,35.112612],[137.031963,35.112499],[137.031799,35.112409],[137.031689,35.112364],[137.031593,35.11233],[137.031291,35.112487],[137.031031,35.1126],[137.03051,35.112295],[137.03014,35.112047],[137.029866,35.111821],[137.02962,35.111573],[137.029305,35.111426],[137.02914,35.111358],[137.028962,35.111324],[137.028811,35.111324],[137.028552,35.110941],[137.028428,35.110738],[137.028004,35.110151],[137.027823,35.109891],[137.027608,35.109587],[137.027567,35.109418],[137.027581,35.109114],[137.027623,35.108889],[137.027486,35.108832],[137.027239,35.108764],[137.026581,35.108685],[137.026403,35.108673],[137.026252,35.108651],[137.02625,35.108493]]]}},{"type":"Feature","properties":{"name":"春木","city":"東郷町","code":"302","setai":4694,"jinko":12689,"n":8,"towns":["23302002009","233020030","233020040","233020050","233020050","233020060","233020150","233020190"],"lx":137.040235,"ly":35.092196},"geometry":{"type":"Polygon","coordinates":[[[137.019801,35.096273],[137.019831,35.096241],[137.019965,35.096096],[137.019898,35.096051],[137.020053,35.095886],[137.020244,35.095682],[137.020296,35.095627],[137.020575,35.09533],[137.02033,35.09516],[137.020592,35.094856],[137.020797,35.094618],[137.020585,35.094556],[137.020737,35.094379],[137.020881,35.094446],[137.021069,35.094528],[137.021311,35.09463],[137.021515,35.094702],[137.021525,35.094706],[137.02173,35.094781],[137.021982,35.094882],[137.02226,35.09499],[137.022532,35.095092],[137.022797,35.095197],[137.022967,35.095265],[137.02317,35.095346],[137.023317,35.095408],[137.023389,35.095442],[137.023422,35.095459],[137.023473,35.095482],[137.023548,35.095529],[137.023696,35.095628],[137.023844,35.095729],[137.023906,35.09579],[137.023949,35.095825],[137.024077,35.09591],[137.024291,35.096087],[137.024438,35.096224],[137.024531,35.096389],[137.02463,35.0966],[137.024658,35.096659],[137.024692,35.096831],[137.024899,35.09664],[137.024993,35.096736],[137.025062,35.09695],[137.025207,35.097635],[137.025227,35.097729],[137.025499,35.098035],[137.026191,35.098837],[137.026563,35.09842],[137.026875,35.098089],[137.026923,35.098015],[137.027096,35.097817],[137.027264,35.097591],[137.02736,35.097479],[137.027589,35.097167],[137.027772,35.096755],[137.028172,35.096871],[137.028674,35.096969],[137.02899,35.095542],[137.029451,35.094027],[137.029772,35.093263],[137.029918,35.09304],[137.029941,35.09301],[137.030101,35.092843],[137.03022,35.092709],[137.030458,35.092502],[137.030522,35.092458],[137.030646,35.092387],[137.030733,35.092337],[137.03091,35.092206],[137.031265,35.09194],[137.031531,35.09178],[137.031755,35.091624],[137.031906,35.091496],[137.032217,35.09123],[137.032344,35.0911],[137.032516,35.090948],[137.032464,35.090899],[137.032336,35.090671],[137.031596,35.089534],[137.031366,35.089082],[137.031235,35.08886],[137.031019,35.088704],[137.030879,35.088511],[137.030582,35.088102],[137.030331,35.087804],[137.03006,35.087482],[137.029812,35.087146],[137.029784,35.087048],[137.029781,35.0868],[137.029808,35.08664],[137.029808,35.086537],[137.029759,35.086378],[137.02971,35.086206],[137.029651,35.086038],[137.029611,35.085902],[137.029568,35.085702],[137.02955,35.085566],[137.029529,35.085498],[137.029393,35.084833],[137.028814,35.084732],[137.028816,35.08466],[137.028833,35.084558],[137.028885,35.084454],[137.028935,35.084371],[137.029124,35.084188],[137.0293,35.084044],[137.029348,35.084088],[137.02935,35.08409],[137.029394,35.08434],[137.029913,35.084562],[137.030222,35.084806],[137.030242,35.084799],[137.03073,35.084504],[137.030821,35.084522],[137.031211,35.084593],[137.032088,35.084743],[137.032108,35.084776],[137.03214,35.084829],[137.03307,35.084423],[137.033421,35.084269],[137.033518,35.084242],[137.033623,35.084229],[137.034219,35.084318],[137.034309,35.084316],[137.034317,35.084315],[137.034527,35.084298],[137.034831,35.084237],[137.035263,35.084069],[137.035418,35.083842],[137.035632,35.083553],[137.035687,35.083474],[137.035735,35.083365],[137.035762,35.083259],[137.035773,35.083173],[137.035792,35.083118],[137.035824,35.083072],[137.036021,35.082902],[137.036199,35.082678],[137.036261,35.082605],[137.036479,35.08244],[137.036552,35.082365],[137.036672,35.08219],[137.036703,35.082103],[137.036739,35.08198],[137.036773,35.081868],[137.036841,35.081655],[137.036949,35.081354],[137.036988,35.081281],[137.0371,35.081139],[137.03721,35.080977],[137.03725,35.080927],[137.037465,35.080769],[137.03771,35.080598],[137.038203,35.080289],[137.038576,35.080077],[137.038583,35.080073],[137.038716,35.079993],[137.039053,35.079834],[137.039344,35.0797],[137.039456,35.079646],[137.039568,35.079622],[137.040031,35.07962],[137.040362,35.079619],[137.040573,35.079561],[137.040948,35.079459],[137.04125,35.079379],[137.041378,35.07934],[137.041377,35.079246],[137.041462,35.079106],[137.041461,35.079097],[137.041459,35.079049],[137.041446,35.078937],[137.041402,35.078856],[137.041282,35.078758],[137.041228,35.078697],[137.041202,35.078667],[137.041131,35.07854],[137.041,35.078164],[137.04095,35.078053],[137.040848,35.077871],[137.040791,35.077768],[137.040759,35.0777],[137.040682,35.077574],[137.040783,35.077512],[137.040911,35.077395],[137.041157,35.077059],[137.041377,35.076776],[137.041616,35.076452],[137.041709,35.076344],[137.041547,35.076231],[137.041449,35.076166],[137.041227,35.076008],[137.040797,35.075697],[137.040674,35.075597],[137.040633,35.075539],[137.040612,35.075467],[137.040601,35.0754],[137.040618,35.075296],[137.040681,35.075193],[137.040754,35.075141],[137.040836,35.075106],[137.041315,35.074908],[137.041551,35.074931],[137.041629,35.074946],[137.041751,35.075015],[137.041887,35.075087],[137.041948,35.075119],[137.041974,35.075132],[137.042086,35.074983],[137.042171,35.07495],[137.042281,35.074917],[137.042396,35.074877],[137.042515,35.07485],[137.042666,35.074775],[137.042743,35.074717],[137.042716,35.074684],[137.042676,35.074614],[137.042631,35.074552],[137.042631,35.074551],[137.042635,35.074549],[137.042616,35.074507],[137.042607,35.074453],[137.042607,35.074383],[137.042581,35.07418],[137.042662,35.074006],[137.042655,35.07388],[137.042587,35.073758],[137.042489,35.073654],[137.042447,35.073621],[137.042439,35.073532],[137.042376,35.073463],[137.042233,35.07339],[137.042061,35.073297],[137.041829,35.07314],[137.041642,35.072963],[137.041498,35.072918],[137.041385,35.07289],[137.041055,35.072862],[137.041154,35.072609],[137.04124,35.072359],[137.041278,35.072277],[137.041343,35.072137],[137.04148,35.071978],[137.041688,35.071837],[137.041879,35.071748],[137.042027,35.071716],[137.042309,35.071702],[137.042485,35.071656],[137.042552,35.071611],[137.042642,35.071539],[137.042721,35.071456],[137.042736,35.071394],[137.042716,35.071301],[137.042713,35.071218],[137.042752,35.071147],[137.042857,35.071065],[137.043006,35.070991],[137.043104,35.070934],[137.043143,35.070898],[137.043252,35.070654],[137.043313,35.070492],[137.043234,35.070396],[137.043181,35.070331],[137.043117,35.070231],[137.043045,35.070068],[137.042931,35.069844],[137.042882,35.069709],[137.042854,35.069586],[137.042848,35.06943],[137.042843,35.069292],[137.042793,35.068992],[137.042788,35.06881],[137.042791,35.068728],[137.042779,35.068462],[137.042792,35.068385],[137.043068,35.068075],[137.043376,35.068339],[137.043581,35.068482],[137.043786,35.068595],[137.04419,35.068795],[137.045019,35.069082],[137.045054,35.069095],[137.045249,35.069168],[137.045455,35.069233],[137.04563,35.069324],[137.045758,35.069393],[137.045905,35.069524],[137.046112,35.069733],[137.046251,35.069871],[137.046268,35.069888],[137.046387,35.070005],[137.046596,35.070148],[137.046637,35.07016],[137.04665,35.070163],[137.046852,35.070319],[137.046924,35.070417],[137.04708,35.070573],[137.047203,35.070717],[137.04727,35.070865],[137.047246,35.071001],[137.047245,35.07113],[137.047264,35.07125],[137.047319,35.07135],[137.047534,35.071695],[137.047524,35.071759],[137.047517,35.071813],[137.047529,35.071944],[137.047538,35.072061],[137.04762,35.072219],[137.047758,35.072363],[137.047871,35.07255],[137.047949,35.072735],[137.04801,35.072957],[137.048083,35.073169],[137.048368,35.073548],[137.048592,35.073846],[137.049067,35.074409],[137.049291,35.074871],[137.049797,35.075479],[137.050047,35.076211],[137.050104,35.07639],[137.05017,35.076616],[137.050274,35.076943],[137.050389,35.077339],[137.050521,35.077857],[137.050698,35.078408],[137.050792,35.078708],[137.051023,35.079479],[137.051,35.079589],[137.051054,35.079933],[137.051217,35.080231],[137.051467,35.080676],[137.051637,35.080925],[137.05176,35.081093],[137.051898,35.081301],[137.051929,35.081492],[137.051982,35.081506],[137.052072,35.081558],[137.05224,35.081956],[137.052547,35.082439],[137.052902,35.083039],[137.052996,35.083285],[137.053183,35.083579],[137.053194,35.083601],[137.053244,35.0837],[137.053367,35.083922],[137.053516,35.084257],[137.054742,35.086995],[137.054777,35.087192],[137.054741,35.087679],[137.055146,35.088027],[137.055232,35.088135],[137.055194,35.088407],[137.055219,35.088715],[137.055256,35.08889],[137.055276,35.088987],[137.055348,35.089313],[137.055367,35.089402],[137.055315,35.089665],[137.05523,35.089926],[137.055229,35.089935],[137.0553,35.090372],[137.05535,35.090609],[137.05536,35.090657],[137.055403,35.090776],[137.055439,35.090943],[137.055603,35.091046],[137.055864,35.091246],[137.056456,35.091576],[137.057035,35.091861],[137.05756,35.092075],[137.057788,35.092215],[137.05847,35.092398],[137.059057,35.092695],[137.059233,35.092803],[137.059525,35.093011],[137.059748,35.09317],[137.060265,35.093645],[137.060597,35.093964],[137.060297,35.094148],[137.059961,35.094362],[137.059477,35.094733],[137.059344,35.094836],[137.059179,35.094969],[137.058714,35.094766],[137.057707,35.09509],[137.05727,35.09525],[137.056939,35.095349],[137.056571,35.095507],[137.056271,35.095718],[137.056066,35.095972],[137.055886,35.096247],[137.055705,35.09657],[137.05517,35.097416],[137.054812,35.097637],[137.054139,35.097953],[137.05412,35.097968],[137.053721,35.098143],[137.053483,35.098249],[137.053266,35.098336],[137.052454,35.098555],[137.052312,35.098593],[137.051959,35.098709],[137.051632,35.09884],[137.051575,35.098755],[137.051833,35.098531],[137.051876,35.098435],[137.052026,35.098128],[137.052135,35.097921],[137.051924,35.097559],[137.051711,35.097193],[137.051496,35.097446],[137.051403,35.097626],[137.051134,35.097926],[137.050769,35.098246],[137.050321,35.098655],[137.050365,35.098695],[137.050408,35.098733],[137.050975,35.099228],[137.050614,35.099512],[137.050189,35.099819],[137.049704,35.100173],[137.049702,35.100174],[137.049355,35.10044],[137.048799,35.100909],[137.048419,35.101218],[137.047778,35.101779],[137.047295,35.102234],[137.046936,35.102581],[137.04628,35.101555],[137.046277,35.101551],[137.04565,35.101735],[137.045572,35.101618],[137.044997,35.102007],[137.044585,35.102357],[137.044441,35.102441],[137.044421,35.102453],[137.044236,35.102442],[137.043834,35.102478],[137.043447,35.10252],[137.043291,35.102549],[137.043006,35.102617],[137.042559,35.102723],[137.0425,35.102731],[137.042032,35.102965],[137.041948,35.103014],[137.041353,35.103645],[137.041155,35.10382],[137.040941,35.104116],[137.040858,35.104309],[137.040748,35.104401],[137.040573,35.104546],[137.040342,35.104746],[137.040166,35.104858],[137.040009,35.104894],[137.039647,35.104929],[137.039292,35.105022],[137.03902,35.105045],[137.038853,35.105058],[137.038762,35.105051],[137.03852,35.104959],[137.038326,35.104874],[137.038268,35.10485],[137.038159,35.104804],[137.037973,35.104748],[137.037885,35.10474],[137.037851,35.104749],[137.037813,35.104909],[137.037723,35.105118],[137.03735,35.105183],[137.037057,35.105093],[137.037054,35.105093],[137.036996,35.105069],[137.036976,35.105069],[137.036962,35.105065],[137.036859,35.105032],[137.036705,35.105081],[137.035975,35.105309],[137.035792,35.105363],[137.035645,35.105404],[137.035465,35.105589],[137.035381,35.105781],[137.035371,35.105862],[137.035414,35.105992],[137.035079,35.106197],[137.034827,35.106403],[137.034637,35.10655],[137.034553,35.10671],[137.034547,35.106853],[137.034538,35.106974],[137.034508,35.107136],[137.034555,35.107579],[137.033991,35.107625],[137.033929,35.107693],[137.033839,35.107747],[137.033758,35.107796],[137.033738,35.107808],[137.033704,35.10781],[137.033535,35.107819],[137.033314,35.107821],[137.033221,35.107826],[137.033077,35.107879],[137.032973,35.107878],[137.03291,35.107877],[137.032838,35.107786],[137.032657,35.107669],[137.032558,35.107596],[137.032453,35.107498],[137.031509,35.107023],[137.031287,35.107224],[137.031119,35.107334],[137.030964,35.10743],[137.030736,35.107593],[137.03054,35.107738],[137.030317,35.10783],[137.029911,35.108008],[137.02988,35.108021],[137.029851,35.108031],[137.029805,35.108053],[137.029599,35.108142],[137.029584,35.10816],[137.029326,35.108261],[137.029084,35.108309],[137.028941,35.108326],[137.028654,35.108355],[137.028563,35.108364],[137.028457,35.108351],[137.028437,35.10834],[137.028289,35.108284],[137.028135,35.108182],[137.027942,35.108081],[137.02788,35.108033],[137.027813,35.108013],[137.027629,35.107916],[137.027475,35.107872],[137.02745,35.107865],[137.027437,35.107864],[137.027235,35.107841],[137.026886,35.107801],[137.026874,35.107799],[137.026633,35.107769],[137.026528,35.107788],[137.026424,35.107873],[137.02631,35.108039],[137.026295,35.108095],[137.026282,35.108143],[137.026282,35.108154],[137.026252,35.108293],[137.02625,35.108493],[137.026252,35.108651],[137.026019,35.108628],[137.02584,35.108616],[137.025731,35.108582],[137.025662,35.10856],[137.025566,35.108515],[137.025484,35.108469],[137.025416,35.108436],[137.025347,35.108413],[137.025265,35.108379],[137.0252,35.108335],[137.025252,35.108212],[137.025306,35.108033],[137.025095,35.10791],[137.024927,35.107948],[137.024733,35.107956],[137.024565,35.107918],[137.024661,35.107694],[137.024224,35.107612],[137.024152,35.107816],[137.024046,35.107803],[137.023895,35.107792],[137.023853,35.107983],[137.023771,35.108186],[137.023702,35.108377],[137.023441,35.108681],[137.023279,35.108838],[137.023261,35.10884],[137.023021,35.10886],[137.023048,35.109051],[137.022927,35.109068],[137.022878,35.109075],[137.022507,35.109232],[137.022054,35.109423],[137.021643,35.109603],[137.021492,35.109659],[137.021369,35.109674],[137.021411,35.109525],[137.021529,35.109118],[137.021691,35.108558],[137.021714,35.108476],[137.021715,35.108475],[137.021718,35.108464],[137.021995,35.107503],[137.021998,35.107495],[137.022056,35.107294],[137.022355,35.106356],[137.022373,35.106299],[137.022374,35.106298],[137.022427,35.106131],[137.022433,35.106113],[137.022434,35.106102],[137.022455,35.105888],[137.022452,35.105702],[137.022447,35.105342],[137.022385,35.104878],[137.022384,35.104873],[137.022372,35.104784],[137.022371,35.104763],[137.022366,35.104652],[137.022734,35.104099],[137.022739,35.104089],[137.022815,35.103977],[137.022953,35.103772],[137.023106,35.103544],[137.023127,35.103512],[137.023168,35.103446],[137.023282,35.103237],[137.023335,35.103176],[137.023393,35.103],[137.023432,35.102863],[137.023502,35.10265],[137.023481,35.102569],[137.023349,35.1025],[137.023353,35.102459],[137.023365,35.102337],[137.023374,35.102241],[137.02344,35.102093],[137.023475,35.102015],[137.023507,35.101891],[137.023486,35.101806],[137.02338,35.101709],[137.023304,35.101686],[137.023091,35.10162],[137.022771,35.101486],[137.02265,35.101391],[137.022559,35.101163],[137.02251,35.100906],[137.022515,35.100707],[137.022618,35.100454],[137.022707,35.100043],[137.022746,35.099781],[137.022742,35.099769],[137.02273,35.099734],[137.022576,35.099417],[137.022546,35.099354],[137.022543,35.099348],[137.022497,35.09925],[137.022351,35.098841],[137.022295,35.098738],[137.022113,35.098489],[137.022089,35.098456],[137.021905,35.098204],[137.021883,35.098174],[137.021558,35.097729],[137.021294,35.097391],[137.021239,35.097357],[137.021198,35.097332],[137.021123,35.097289],[137.02086,35.097093],[137.020484,35.096813],[137.019944,35.096386],[137.019801,35.096273]],[[137.038548,35.090598],[137.03873,35.090602],[137.038955,35.090596],[137.039213,35.090595],[137.03947,35.090602],[137.039664,35.090604],[137.039909,35.090614],[137.04006,35.090614],[137.040348,35.090626],[137.040453,35.090609],[137.040634,35.09059],[137.040852,35.090561],[137.040993,35.090491],[137.041097,35.090434],[137.041205,35.090361],[137.041384,35.09032],[137.041829,35.090243],[137.042254,35.090166],[137.042433,35.090143],[137.042638,35.09011],[137.042743,35.090081],[137.042913,35.090057],[137.043167,35.090106],[137.043268,35.090117],[137.04338,35.09014],[137.043581,35.090165],[137.043619,35.090159],[137.043835,35.090159],[137.043995,35.090144],[137.044173,35.090128],[137.044336,35.090135],[137.044649,35.090226],[137.044994,35.090318],[137.045224,35.090423],[137.045338,35.090473],[137.045448,35.090541],[137.04553,35.090586],[137.045722,35.090649],[137.045886,35.09071],[137.046339,35.090846],[137.046441,35.09087],[137.046804,35.090966],[137.047038,35.090959],[137.047149,35.090949],[137.047325,35.090926],[137.047682,35.090892],[137.047906,35.090859],[137.048162,35.090803],[137.048307,35.090764],[137.048386,35.09075],[137.048474,35.090723],[137.04862,35.090706],[137.048763,35.090682],[137.048846,35.090685],[137.048957,35.090702],[137.049094,35.090725],[137.0493,35.090781],[137.04982,35.090928],[137.049889,35.090973],[137.049958,35.091021],[137.049996,35.091047],[137.050037,35.091076],[137.050111,35.091129],[137.050202,35.091194],[137.050377,35.091247],[137.050337,35.091122],[137.05022,35.090847],[137.050164,35.090711],[137.050106,35.090556],[137.050081,35.090446],[137.050052,35.090164],[137.05004,35.089975],[137.050009,35.089629],[137.049987,35.089227],[137.049934,35.088931],[137.049762,35.088369],[137.049737,35.088314],[137.049651,35.088054],[137.049605,35.087913],[137.049403,35.08805],[137.048876,35.087772],[137.048537,35.087498],[137.048482,35.087682],[137.048454,35.087761],[137.048437,35.087816],[137.048413,35.087896],[137.048331,35.08823],[137.048299,35.088208],[137.048007,35.088124],[137.047941,35.088144],[137.047864,35.088141],[137.047728,35.088027],[137.047255,35.088197],[137.047133,35.088184],[137.046879,35.088224],[137.046635,35.088283],[137.046551,35.088322],[137.046452,35.088431],[137.046324,35.088536],[137.046257,35.088595],[137.046157,35.08861],[137.046164,35.088634],[137.046109,35.088673],[137.046,35.088691],[137.045991,35.08878],[137.045953,35.088889],[137.045922,35.088911],[137.045877,35.088936],[137.045847,35.088981],[137.045808,35.089086],[137.045715,35.089102],[137.045446,35.08901],[137.045292,35.088927],[137.045185,35.088916],[137.045115,35.088873],[137.045042,35.088874],[137.04499,35.088836],[137.044864,35.088837],[137.044485,35.088734],[137.044592,35.08863],[137.044633,35.088515],[137.044675,35.088402],[137.044708,35.088323],[137.044726,35.088205],[137.044723,35.088099],[137.044709,35.087986],[137.044686,35.087853],[137.044679,35.087723],[137.044741,35.08771],[137.044891,35.087712],[137.045137,35.087741],[137.045324,35.087742],[137.045447,35.087725],[137.045538,35.087652],[137.045608,35.087654],[137.045606,35.087644],[137.04553,35.087472],[137.045469,35.08729],[137.045369,35.087068],[137.045298,35.08688],[137.045271,35.086678],[137.045233,35.08643],[137.045115,35.085511],[137.045154,35.085527],[137.04523,35.085329],[137.045283,35.085144],[137.045288,35.085003],[137.045301,35.084935],[137.045393,35.084862],[137.045489,35.084796],[137.045634,35.084738],[137.045749,35.084675],[137.045808,35.084604],[137.045857,35.084448],[137.044814,35.084585],[137.044732,35.08461],[137.044703,35.084577],[137.044471,35.084383],[137.044213,35.084209],[137.044115,35.084161],[137.043997,35.084102],[137.043924,35.084082],[137.043769,35.084146],[137.043579,35.084233],[137.043356,35.084357],[137.043141,35.084478],[137.042667,35.084744],[137.042139,35.085061],[137.041798,35.084481],[137.041741,35.084342],[137.041707,35.084267],[137.041627,35.084298],[137.041627,35.084307],[137.041621,35.084399],[137.041512,35.084446],[137.04156,35.084535],[137.04121,35.084647],[137.041202,35.08465],[137.040982,35.084721],[137.040151,35.084935],[137.039918,35.085036],[137.039871,35.085049],[137.039871,35.085213],[137.039507,35.085491],[137.039478,35.085549],[137.039581,35.085546],[137.039873,35.08558],[137.039804,35.08618],[137.039993,35.08621],[137.040101,35.086641],[137.039858,35.086838],[137.039893,35.087784],[137.040147,35.087829],[137.040025,35.087939],[137.039581,35.088344],[137.039624,35.088564],[137.039665,35.088779],[137.039708,35.088957],[137.039714,35.089002],[137.039697,35.089023],[137.039563,35.089122],[137.039605,35.089162],[137.039752,35.08929],[137.039959,35.089302],[137.039689,35.089759],[137.039461,35.089677],[137.038703,35.089729],[137.038693,35.089797],[137.038625,35.090259],[137.038548,35.090598]]]}},{"type":"Feature","properties":{"name":"和合ケ丘","city":"東郷町","code":"302","setai":939,"jinko":2437,"n":3,"towns":["23302007001","23302007002","23302007003"],"lx":137.046652,"ly":35.11077},"geometry":{"type":"Polygon","coordinates":[[[137.042685,35.109982],[137.042866,35.109532],[137.043046,35.109111],[137.043373,35.108831],[137.043797,35.108564],[137.043857,35.108525],[137.043976,35.108648],[137.044132,35.108553],[137.044315,35.108729],[137.044433,35.108847],[137.044644,35.108717],[137.04542,35.108695],[137.04555,35.108691],[137.04659,35.108662],[137.0494,35.108603],[137.049605,35.108587],[137.049718,35.108738],[137.04978,35.108808],[137.049847,35.108872],[137.049916,35.108937],[137.050016,35.109007],[137.05002,35.109195],[137.050115,35.109287],[137.050204,35.109374],[137.050263,35.109429],[137.05034,35.109493],[137.050415,35.109549],[137.050487,35.109588],[137.050578,35.109622],[137.050614,35.10963],[137.050619,35.109641],[137.050575,35.109716],[137.050752,35.109846],[137.050678,35.109949],[137.050671,35.10996],[137.050603,35.110049],[137.050553,35.110119],[137.050514,35.110194],[137.050466,35.110277],[137.050453,35.110313],[137.050433,35.110403],[137.050422,35.110509],[137.050408,35.110627],[137.050418,35.110733],[137.050369,35.111071],[137.050301,35.111383],[137.050272,35.111567],[137.050264,35.111692],[137.05025,35.111818],[137.050211,35.11226],[137.050169,35.112226],[137.050037,35.112146],[137.049886,35.112033],[137.049777,35.111954],[137.049647,35.11186],[137.049516,35.111857],[137.049507,35.111857],[137.048658,35.11189],[137.048478,35.111895],[137.048309,35.112145],[137.048162,35.112366],[137.048115,35.112437],[137.048085,35.112482],[137.048024,35.112572],[137.047999,35.112619],[137.047917,35.112769],[137.047763,35.113038],[137.047607,35.113318],[137.047576,35.113315],[137.047178,35.113235],[137.04706,35.113224],[137.046934,35.113226],[137.046834,35.113242],[137.046769,35.113276],[137.046746,35.113283],[137.046704,35.113295],[137.046663,35.113296],[137.046603,35.113313],[137.046552,35.113332],[137.046559,35.113406],[137.046583,35.113459],[137.046616,35.113646],[137.046579,35.113689],[137.04637,35.113871],[137.046289,35.113886],[137.046202,35.113844],[137.04587,35.11368],[137.045752,35.11367],[137.045428,35.113638],[137.045298,35.11362],[137.045202,35.113607],[137.045078,35.113587],[137.04497,35.11357],[137.044887,35.113559],[137.04488,35.113534],[137.044869,35.113533],[137.044536,35.113504],[137.044578,35.113076],[137.044588,35.112956],[137.04462,35.112772],[137.044622,35.112706],[137.044421,35.112622],[137.044198,35.112521],[137.044317,35.11232],[137.043951,35.112162],[137.043662,35.111995],[137.04344,35.11185],[137.043402,35.111825],[137.043463,35.11176],[137.043404,35.111621],[137.043094,35.111547],[137.042962,35.111576],[137.042893,35.111439],[137.042932,35.111353],[137.043207,35.111236],[137.043169,35.111181],[137.043215,35.11113],[137.043352,35.111062],[137.043301,35.110988],[137.043533,35.110896],[137.043873,35.11065],[137.043381,35.110079],[137.042753,35.110049],[137.042724,35.11002],[137.042685,35.109982]]]}},{"type":"Feature","properties":{"name":"白鳥","city":"東郷町","code":"302","setai":2458,"jinko":5647,"n":5,"towns":["23302009001","23302009002","23302009003","233020130","233020140"],"lx":137.055679,"ly":35.112012},"geometry":{"type":"Polygon","coordinates":[[[137.050211,35.11226],[137.05025,35.111818],[137.050264,35.111692],[137.050272,35.111567],[137.050301,35.111383],[137.050369,35.111071],[137.050418,35.110733],[137.050408,35.110627],[137.050422,35.110509],[137.050433,35.110403],[137.050453,35.110313],[137.050466,35.110277],[137.050514,35.110194],[137.050553,35.110119],[137.050603,35.110049],[137.050671,35.10996],[137.050678,35.109949],[137.050752,35.109846],[137.050868,35.109723],[137.051021,35.109559],[137.05113,35.109462],[137.051314,35.109288],[137.051345,35.109264],[137.051397,35.109217],[137.05144,35.109164],[137.051499,35.109085],[137.051564,35.108975],[137.051803,35.108993],[137.052365,35.109036],[137.052816,35.108753],[137.053109,35.108603],[137.053271,35.10849],[137.053414,35.108384],[137.053521,35.108312],[137.053619,35.10825],[137.053734,35.108222],[137.053826,35.108194],[137.053955,35.108153],[137.054183,35.108103],[137.054607,35.108198],[137.054751,35.108226],[137.055214,35.10793],[137.055367,35.107841],[137.055533,35.107767],[137.055647,35.107709],[137.055749,35.107682],[137.05597,35.107646],[137.055975,35.107645],[137.056137,35.107613],[137.05625,35.107579],[137.056417,35.107524],[137.056718,35.107422],[137.057323,35.107116],[137.057559,35.107277],[137.057658,35.107369],[137.057691,35.107598],[137.05777,35.107874],[137.057866,35.108459],[137.058026,35.108424],[137.058045,35.108763],[137.058321,35.109121],[137.058555,35.109377],[137.058854,35.109671],[137.059164,35.10991],[137.059282,35.110216],[137.059357,35.110465],[137.05953,35.110641],[137.060061,35.110755],[137.060285,35.110685],[137.060449,35.110661],[137.060372,35.110722],[137.060126,35.110928],[137.060074,35.111117],[137.060048,35.111299],[137.060044,35.111404],[137.06007,35.111495],[137.060125,35.111637],[137.060183,35.111773],[137.060284,35.112053],[137.060453,35.112485],[137.060619,35.112946],[137.060762,35.113339],[137.060905,35.113714],[137.061054,35.114081],[137.061182,35.114414],[137.061229,35.114542],[137.060802,35.114715],[137.060847,35.114903],[137.060879,35.115095],[137.060884,35.115212],[137.060883,35.115246],[137.060813,35.115243],[137.060322,35.115238],[137.060067,35.115234],[137.059676,35.115188],[137.059381,35.115115],[137.059279,35.115161],[137.059204,35.115274],[137.059045,35.115351],[137.058672,35.115533],[137.058274,35.115584],[137.057955,35.115678],[137.057853,35.115737],[137.057836,35.115795],[137.057702,35.11585],[137.057433,35.115874],[137.056329,35.115958],[137.056282,35.115962],[137.056227,35.115949],[137.056126,35.115927],[137.056057,35.115917],[137.055575,35.115938],[137.055195,35.116006],[137.054856,35.116064],[137.054503,35.11602],[137.05434,35.115995],[137.054309,35.11599],[137.05411,35.116011],[137.053436,35.116049],[137.053222,35.115719],[137.053186,35.115663],[137.052801,35.115207],[137.052792,35.115196],[137.052737,35.115074],[137.052671,35.11496],[137.052463,35.114571],[137.052355,35.114338],[137.052325,35.114273],[137.052306,35.114201],[137.052201,35.11394],[137.051849,35.113572],[137.051199,35.112854],[137.051159,35.112838],[137.050904,35.112726],[137.050864,35.112702],[137.050822,35.112677],[137.050433,35.112442],[137.050211,35.11226]]]}},{"type":"Feature","properties":{"name":"御岳","city":"東郷町","code":"302","setai":905,"jinko":2322,"n":2,"towns":["23302010001","23302010002"],"lx":137.063384,"ly":35.111847},"geometry":{"type":"Polygon","coordinates":[[[137.060044,35.111404],[137.060048,35.111299],[137.060074,35.111117],[137.060126,35.110928],[137.060372,35.110722],[137.060449,35.110661],[137.060727,35.110464],[137.061015,35.110231],[137.061592,35.109978],[137.061666,35.109884],[137.06176,35.109747],[137.061887,35.109516],[137.061931,35.109301],[137.062055,35.109088],[137.062954,35.109239],[137.064344,35.109207],[137.064752,35.109159],[137.0648,35.109373],[137.06495,35.109512],[137.065305,35.109405],[137.065651,35.109675],[137.06574,35.109945],[137.066138,35.109764],[137.066433,35.110267],[137.066486,35.110287],[137.066424,35.110345],[137.066777,35.110451],[137.066793,35.110585],[137.066789,35.110724],[137.066756,35.111044],[137.066899,35.111208],[137.067013,35.111295],[137.067083,35.111353],[137.066921,35.111513],[137.066633,35.111909],[137.066337,35.112324],[137.065725,35.113182],[137.064819,35.113948],[137.064542,35.114197],[137.064354,35.114363],[137.064218,35.114445],[137.064026,35.114544],[137.063819,35.114652],[137.06376,35.114664],[137.063484,35.114694],[137.063226,35.114727],[137.062998,35.114757],[137.062531,35.114817],[137.06242,35.114807],[137.061243,35.114578],[137.061229,35.114542],[137.061182,35.114414],[137.061054,35.114081],[137.060905,35.113714],[137.060762,35.113339],[137.060619,35.112946],[137.060453,35.112485],[137.060284,35.112053],[137.060183,35.111773],[137.060125,35.111637],[137.06007,35.111495],[137.060044,35.111404]]]}},{"type":"Feature","properties":{"name":"春木台","city":"東郷町","code":"302","setai":1203,"jinko":3041,"n":5,"towns":["23302011001","23302011002","23302011003","23302011004","23302011005"],"lx":137.043919,"ly":35.088071},"geometry":{"type":"Polygon","coordinates":[[[137.038548,35.090598],[137.038625,35.090259],[137.038693,35.089797],[137.038703,35.089729],[137.039461,35.089677],[137.039689,35.089759],[137.039959,35.089302],[137.039752,35.08929],[137.039605,35.089162],[137.039563,35.089122],[137.039697,35.089023],[137.039714,35.089002],[137.039708,35.088957],[137.039665,35.088779],[137.039624,35.088564],[137.039581,35.088344],[137.040025,35.087939],[137.040147,35.087829],[137.039893,35.087784],[137.039858,35.086838],[137.040101,35.086641],[137.039993,35.08621],[137.039804,35.08618],[137.039873,35.08558],[137.039581,35.085546],[137.039478,35.085549],[137.039507,35.085491],[137.039871,35.085213],[137.039871,35.085049],[137.039918,35.085036],[137.040151,35.084935],[137.040982,35.084721],[137.041202,35.08465],[137.04121,35.084647],[137.04156,35.084535],[137.041512,35.084446],[137.041621,35.084399],[137.041627,35.084307],[137.041627,35.084298],[137.041707,35.084267],[137.041741,35.084342],[137.041798,35.084481],[137.042139,35.085061],[137.042667,35.084744],[137.043141,35.084478],[137.043356,35.084357],[137.043579,35.084233],[137.043769,35.084146],[137.043924,35.084082],[137.043997,35.084102],[137.044115,35.084161],[137.044213,35.084209],[137.044471,35.084383],[137.044703,35.084577],[137.044732,35.08461],[137.044814,35.084585],[137.045857,35.084448],[137.045808,35.084604],[137.045749,35.084675],[137.045634,35.084738],[137.045489,35.084796],[137.045393,35.084862],[137.045301,35.084935],[137.045288,35.085003],[137.045283,35.085144],[137.04523,35.085329],[137.045154,35.085527],[137.045115,35.085511],[137.045233,35.08643],[137.045271,35.086678],[137.045298,35.08688],[137.045369,35.087068],[137.045469,35.08729],[137.04553,35.087472],[137.045606,35.087644],[137.045608,35.087654],[137.045538,35.087652],[137.045447,35.087725],[137.045324,35.087742],[137.045137,35.087741],[137.044891,35.087712],[137.044741,35.08771],[137.044679,35.087723],[137.044686,35.087853],[137.044709,35.087986],[137.044723,35.088099],[137.044726,35.088205],[137.044708,35.088323],[137.044675,35.088402],[137.044633,35.088515],[137.044592,35.08863],[137.044485,35.088734],[137.044864,35.088837],[137.04499,35.088836],[137.045042,35.088874],[137.045115,35.088873],[137.045185,35.088916],[137.045292,35.088927],[137.045446,35.08901],[137.045715,35.089102],[137.045808,35.089086],[137.045847,35.088981],[137.045877,35.088936],[137.045922,35.088911],[137.045953,35.088889],[137.045991,35.08878],[137.046,35.088691],[137.046109,35.088673],[137.046164,35.088634],[137.046157,35.08861],[137.046257,35.088595],[137.046324,35.088536],[137.046452,35.088431],[137.046551,35.088322],[137.046635,35.088283],[137.046879,35.088224],[137.047133,35.088184],[137.047255,35.088197],[137.047728,35.088027],[137.047864,35.088141],[137.047941,35.088144],[137.048007,35.088124],[137.048299,35.088208],[137.048331,35.08823],[137.048413,35.087896],[137.048437,35.087816],[137.048454,35.087761],[137.048482,35.087682],[137.048537,35.087498],[137.048876,35.087772],[137.049403,35.08805],[137.049605,35.087913],[137.049651,35.088054],[137.049737,35.088314],[137.049762,35.088369],[137.049934,35.088931],[137.049987,35.089227],[137.050009,35.089629],[137.05004,35.089975],[137.050052,35.090164],[137.050081,35.090446],[137.050106,35.090556],[137.050164,35.090711],[137.05022,35.090847],[137.050337,35.091122],[137.050377,35.091247],[137.050202,35.091194],[137.050111,35.091129],[137.050037,35.091076],[137.049996,35.091047],[137.049958,35.091021],[137.049889,35.090973],[137.04982,35.090928],[137.0493,35.090781],[137.049094,35.090725],[137.048957,35.090702],[137.048846,35.090685],[137.048763,35.090682],[137.04862,35.090706],[137.048474,35.090723],[137.048386,35.09075],[137.048307,35.090764],[137.048162,35.090803],[137.047906,35.090859],[137.047682,35.090892],[137.047325,35.090926],[137.047149,35.090949],[137.047038,35.090959],[137.046804,35.090966],[137.046441,35.09087],[137.046339,35.090846],[137.045886,35.09071],[137.045722,35.090649],[137.04553,35.090586],[137.045448,35.090541],[137.045338,35.090473],[137.045224,35.090423],[137.044994,35.090318],[137.044649,35.090226],[137.044336,35.090135],[137.044173,35.090128],[137.043995,35.090144],[137.043835,35.090159],[137.043619,35.090159],[137.043581,35.090165],[137.04338,35.09014],[137.043268,35.090117],[137.043167,35.090106],[137.042913,35.090057],[137.042743,35.090081],[137.042638,35.09011],[137.042433,35.090143],[137.042254,35.090166],[137.041829,35.090243],[137.041384,35.09032],[137.041205,35.090361],[137.041097,35.090434],[137.040993,35.090491],[137.040852,35.090561],[137.040634,35.09059],[137.040453,35.090609],[137.040348,35.090626],[137.04006,35.090614],[137.039909,35.090614],[137.039664,35.090604],[137.03947,35.090602],[137.039213,35.090595],[137.038955,35.090596],[137.03873,35.090602],[137.038548,35.090598]]]}},{"type":"Feature","properties":{"name":"北山台","city":"東郷町","code":"302","setai":1188,"jinko":3003,"n":4,"towns":["23302012001","23302012002","23302012003","23302012004"],"lx":137.061705,"ly":35.098777},"geometry":{"type":"Polygon","coordinates":[[[137.057864,35.09724],[137.058128,35.097046],[137.058101,35.097005],[137.058172,35.096781],[137.058528,35.096594],[137.058794,35.096894],[137.059115,35.09664],[137.059842,35.096071],[137.060048,35.095888],[137.059593,35.095546],[137.059119,35.095162],[137.058883,35.095035],[137.059179,35.094969],[137.059823,35.095305],[137.060395,35.09552],[137.060883,35.095742],[137.061177,35.095872],[137.061394,35.095972],[137.061661,35.09609],[137.06195,35.096228],[137.062263,35.096367],[137.062834,35.096615],[137.063194,35.09678],[137.063363,35.096859],[137.063538,35.096942],[137.063823,35.097056],[137.064094,35.097197],[137.064426,35.097335],[137.064628,35.097455],[137.064786,35.097526],[137.064996,35.097674],[137.065099,35.097747],[137.065164,35.097792],[137.065401,35.097959],[137.065675,35.098228],[137.065876,35.098471],[137.065991,35.09861],[137.06614,35.098795],[137.066269,35.09895],[137.06624,35.098969],[137.064904,35.099878],[137.064724,35.100002],[137.064716,35.100007],[137.064523,35.100142],[137.064351,35.100257],[137.06422,35.100338],[137.064101,35.100436],[137.064041,35.100489],[137.063726,35.10069],[137.063261,35.100971],[137.063203,35.101],[137.062954,35.101127],[137.062762,35.101262],[137.06246,35.101464],[137.062309,35.101554],[137.062159,35.101656],[137.061994,35.101757],[137.061761,35.101881],[137.061514,35.101993],[137.06113,35.102162],[137.060658,35.102347],[137.059885,35.102093],[137.060031,35.101882],[137.059853,35.101704],[137.059783,35.101513],[137.059773,35.101462],[137.059599,35.10147],[137.059319,35.101506],[137.059351,35.101339],[137.059391,35.101125],[137.059398,35.101089],[137.059473,35.100973],[137.05961,35.10074],[137.059592,35.100621],[137.059474,35.100467],[137.059363,35.099661],[137.059128,35.099426],[137.059196,35.099179],[137.058997,35.09901],[137.058476,35.098568],[137.05827,35.098403],[137.05855,35.098235],[137.058513,35.097996],[137.058231,35.097653],[137.057864,35.09724]]]}},{"type":"Feature","properties":{"name":"三ツ池","city":"東郷町","code":"302","setai":817,"jinko":2304,"n":4,"towns":["23302016001","23302016002","23302016003","23302016004"],"lx":137.026798,"ly":35.095144},"geometry":{"type":"Polygon","coordinates":[[[137.023422,35.095459],[137.024421,35.094498],[137.025351,35.093593],[137.026145,35.092859],[137.026344,35.092659],[137.026828,35.092221],[137.027122,35.091908],[137.027608,35.0922],[137.028285,35.092587],[137.02938,35.093065],[137.029772,35.093263],[137.029451,35.094027],[137.02899,35.095542],[137.028674,35.096969],[137.028172,35.096871],[137.027772,35.096755],[137.027589,35.097167],[137.02736,35.097479],[137.027264,35.097591],[137.027096,35.097817],[137.026923,35.098015],[137.026875,35.098089],[137.026563,35.09842],[137.026191,35.098837],[137.025499,35.098035],[137.025227,35.097729],[137.025207,35.097635],[137.025062,35.09695],[137.024993,35.096736],[137.024899,35.09664],[137.024692,35.096831],[137.024658,35.096659],[137.02463,35.0966],[137.024531,35.096389],[137.024438,35.096224],[137.024291,35.096087],[137.024077,35.09591],[137.023949,35.095825],[137.023906,35.09579],[137.023844,35.095729],[137.023696,35.095628],[137.023548,35.095529],[137.023473,35.095482],[137.023422,35.095459]]]}},{"type":"Feature","properties":{"name":"兵庫","city":"東郷町","code":"302","setai":761,"jinko":2245,"n":4,"towns":["23302017001","23302017002","23302017003","23302017004"],"lx":137.02388,"ly":35.092128},"geometry":{"type":"Polygon","coordinates":[[[137.020737,35.094379],[137.020943,35.094154],[137.020888,35.094109],[137.021271,35.093487],[137.021284,35.093465],[137.02149,35.09313],[137.021482,35.092656],[137.021481,35.09265],[137.021453,35.09111],[137.021452,35.09103],[137.02222,35.090055],[137.022236,35.090038],[137.022565,35.089677],[137.022684,35.089547],[137.023031,35.089089],[137.023086,35.089017],[137.02309,35.089012],[137.02338,35.089338],[137.023421,35.089327],[137.02356,35.089293],[137.023573,35.08929],[137.023913,35.089271],[137.024095,35.089273],[137.024501,35.089353],[137.024666,35.089411],[137.024948,35.089544],[137.025185,35.089699],[137.025366,35.089839],[137.025369,35.089842],[137.025574,35.09005],[137.025597,35.089875],[137.025594,35.089799],[137.025608,35.089771],[137.025613,35.08976],[137.025619,35.089749],[137.025644,35.089772],[137.025852,35.089919],[137.025867,35.089929],[137.025925,35.089954],[137.026114,35.090013],[137.026192,35.090048],[137.026239,35.090069],[137.026608,35.0906],[137.026689,35.090717],[137.026732,35.090739],[137.026957,35.090875],[137.027408,35.091147],[137.027481,35.091213],[137.027546,35.091301],[137.02765,35.091258],[137.027849,35.091084],[137.027939,35.090995],[137.028025,35.091098],[137.027995,35.091126],[137.027491,35.091596],[137.027122,35.091908],[137.026828,35.092221],[137.026344,35.092659],[137.026145,35.092859],[137.025351,35.093593],[137.024421,35.094498],[137.023422,35.095459],[137.023389,35.095442],[137.023317,35.095408],[137.02317,35.095346],[137.022967,35.095265],[137.022797,35.095197],[137.022532,35.095092],[137.02226,35.09499],[137.021982,35.094882],[137.02173,35.094781],[137.021525,35.094706],[137.021515,35.094702],[137.021311,35.09463],[137.021069,35.094528],[137.020881,35.094446],[137.020737,35.094379]]]}},{"type":"Feature","properties":{"name":"清水","city":"東郷町","code":"302","setai":848,"jinko":2119,"n":4,"towns":["23302018001","23302018002","23302018003","23302018004"],"lx":137.029284,"ly":35.089279},"geometry":{"type":"Polygon","coordinates":[[[137.026716,35.086988],[137.026723,35.086912],[137.026787,35.086807],[137.026921,35.086652],[137.026917,35.086607],[137.02717,35.086327],[137.027202,35.086333],[137.027285,35.08624],[137.027311,35.086211],[137.027312,35.086177],[137.027271,35.086167],[137.027283,35.085911],[137.027318,35.085908],[137.027291,35.085745],[137.027386,35.085301],[137.028058,35.085258],[137.028593,35.085177],[137.028681,35.085163],[137.028772,35.085133],[137.028851,35.085077],[137.028877,35.085028],[137.028884,35.08496],[137.028814,35.084732],[137.029393,35.084833],[137.029529,35.085498],[137.02955,35.085566],[137.029568,35.085702],[137.029611,35.085902],[137.029651,35.086038],[137.02971,35.086206],[137.029759,35.086378],[137.029808,35.086537],[137.029808,35.08664],[137.029781,35.0868],[137.029784,35.087048],[137.029812,35.087146],[137.03006,35.087482],[137.030331,35.087804],[137.030582,35.088102],[137.030879,35.088511],[137.031019,35.088704],[137.031235,35.08886],[137.031366,35.089082],[137.031596,35.089534],[137.032336,35.090671],[137.032464,35.090899],[137.032516,35.090948],[137.032344,35.0911],[137.032217,35.09123],[137.031906,35.091496],[137.031755,35.091624],[137.031531,35.09178],[137.031265,35.09194],[137.03091,35.092206],[137.030733,35.092337],[137.030646,35.092387],[137.030522,35.092458],[137.030458,35.092502],[137.03022,35.092709],[137.030101,35.092843],[137.029941,35.09301],[137.029918,35.09304],[137.029772,35.093263],[137.02938,35.093065],[137.028285,35.092587],[137.027608,35.0922],[137.027122,35.091908],[137.027491,35.091596],[137.027995,35.091126],[137.028025,35.091098],[137.027939,35.090995],[137.028161,35.090832],[137.028184,35.090807],[137.028216,35.090774],[137.028422,35.090746],[137.028278,35.090506],[137.028118,35.090334],[137.028088,35.090301],[137.027793,35.090167],[137.027736,35.090071],[137.027533,35.089729],[137.027512,35.089461],[137.027512,35.08946],[137.027502,35.089285],[137.027493,35.089253],[137.02747,35.089168],[137.027332,35.088669],[137.027352,35.088543],[137.027381,35.088361],[137.027366,35.088312],[137.027364,35.088307],[137.02731,35.088123],[137.027261,35.087944],[137.027248,35.087907],[137.027247,35.087905],[137.027228,35.087891],[137.027085,35.087788],[137.027024,35.087674],[137.026976,35.08749],[137.026922,35.087386],[137.0268,35.087151],[137.02675,35.087077],[137.026716,35.086988]]]}}]}