{"type":"FeatureCollection","features":[{"type":"Feature","properties":{"name":"豊場","city":"豊山町","code":"342","setai":5226,"jinko":12340,"n":6,"towns":["23342001000","23342001001","23342001002","23342001002","23342001002","23342001002"],"lx":136.917916,"ly":35.249452},"geometry":{"type":"Polygon","coordinates":[[[136.901746,35.243612],[136.901754,35.243322],[136.901787,35.243004],[136.901904,35.242636],[136.901989,35.242404],[136.902153,35.241945],[136.902246,35.241683],[136.902401,35.241478],[136.903256,35.24041],[136.903343,35.240306],[136.90353,35.240042],[136.903618,35.239938],[136.903876,35.239815],[136.904065,35.239701],[136.904224,35.239552],[136.904616,35.239662],[136.904978,35.23978],[136.905339,35.239866],[136.905376,35.239862],[136.905436,35.239882],[136.905495,35.239788],[136.905909,35.239914],[136.906001,35.239962],[136.906247,35.240019],[136.90648,35.240054],[136.906912,35.240079],[136.90728,35.240109],[136.90763,35.240139],[136.907942,35.240179],[136.908013,35.240189],[136.908654,35.240322],[136.908913,35.240313],[136.909092,35.240257],[136.909114,35.240251],[136.909265,35.240206],[136.909329,35.240171],[136.90963,35.240004],[136.909925,35.239762],[136.910455,35.239314],[136.910742,35.239066],[136.910871,35.238962],[136.910964,35.238864],[136.911033,35.238785],[136.911034,35.238784],[136.911112,35.238655],[136.911146,35.238387],[136.911145,35.23829],[136.911143,35.238265],[136.911141,35.238228],[136.91112,35.238116],[136.910995,35.237737],[136.910936,35.237476],[136.910873,35.237264],[136.91085,35.237212],[136.910841,35.23719],[136.910818,35.237125],[136.910867,35.237106],[136.910836,35.237028],[136.910805,35.236839],[136.910804,35.236701],[136.910804,35.2367],[136.910803,35.236653],[136.910857,35.23641],[136.910971,35.236255],[136.91102,35.236149],[136.912197,35.236337],[136.912332,35.236365],[136.912749,35.236568],[136.913012,35.236705],[136.913356,35.23684],[136.913508,35.236906],[136.913539,35.23692],[136.913647,35.236963],[136.9139,35.237029],[136.914123,35.237063],[136.914359,35.23715],[136.914402,35.237178],[136.914745,35.237184],[136.914943,35.237173],[136.915241,35.237284],[136.915437,35.237266],[136.915541,35.237244],[136.915579,35.23724],[136.915696,35.237227],[136.915746,35.237223],[136.916139,35.237227],[136.916578,35.237104],[136.916643,35.237114],[136.916778,35.237098],[136.916976,35.237136],[136.917013,35.23716],[136.917015,35.237284],[136.917275,35.237283],[136.91727,35.237205],[136.917293,35.237184],[136.917465,35.237255],[136.917561,35.2373],[136.917751,35.237392],[136.917962,35.23745],[136.918007,35.237486],[136.917995,35.237554],[136.917983,35.237621],[136.918225,35.237739],[136.918519,35.237837],[136.918625,35.237914],[136.918713,35.237933],[136.918903,35.238008],[136.918996,35.23806],[136.919323,35.238014],[136.919403,35.237991],[136.919612,35.237928],[136.91999,35.238026],[136.920059,35.238049],[136.920155,35.238142],[136.920229,35.238222],[136.92029,35.238354],[136.920471,35.238373],[136.920538,35.238433],[136.920619,35.238527],[136.920654,35.238655],[136.92076,35.238996],[136.920768,35.239024],[136.920907,35.239098],[136.920962,35.239144],[136.921134,35.23927],[136.921231,35.239444],[136.921337,35.239712],[136.92141,35.239823],[136.92145,35.239879],[136.92151,35.239961],[136.921539,35.23998],[136.921696,35.240081],[136.921868,35.240216],[136.921945,35.240324],[136.9222,35.240559],[136.922295,35.240696],[136.922378,35.240732],[136.922725,35.240788],[136.923046,35.240968],[136.923066,35.240953],[136.923099,35.240928],[136.92372,35.240474],[136.923899,35.240537],[136.923997,35.240543],[136.924089,35.240592],[136.924257,35.240751],[136.924379,35.240695],[136.924702,35.24092],[136.924782,35.240977],[136.924931,35.241216],[136.924979,35.241263],[136.925082,35.241405],[136.925134,35.241447],[136.924843,35.241495],[136.924914,35.241739],[136.924705,35.241777],[136.924785,35.242032],[136.924965,35.242002],[136.925,35.242139],[136.925087,35.242191],[136.925114,35.242339],[136.92519,35.242398],[136.92519,35.242488],[136.925145,35.242717],[136.925342,35.24279],[136.925466,35.24288],[136.925558,35.242991],[136.925598,35.243075],[136.925984,35.242904],[136.926245,35.243285],[136.926419,35.24332],[136.926508,35.243257],[136.926487,35.243171],[136.926567,35.243138],[136.926498,35.242971],[136.926885,35.242816],[136.927131,35.243066],[136.927308,35.24318],[136.927538,35.243254],[136.927654,35.243306],[136.927823,35.24342],[136.927974,35.243502],[136.928052,35.243612],[136.928084,35.243638],[136.928132,35.243662],[136.928403,35.243775],[136.928661,35.244081],[136.928701,35.244121],[136.929058,35.244471],[136.929486,35.244863],[136.929866,35.245244],[136.930006,35.245403],[136.93038,35.245795],[136.930635,35.246008],[136.930906,35.246195],[136.931338,35.246412],[136.931409,35.246445],[136.931399,35.246682],[136.930026,35.24681],[136.930692,35.24785],[136.931802,35.248425],[136.932007,35.248531],[136.931689,35.248841],[136.931616,35.248925],[136.931631,35.248954],[136.931831,35.249199],[136.931901,35.249283],[136.931876,35.249312],[136.931786,35.249353],[136.931661,35.24941],[136.931339,35.249497],[136.930951,35.249619],[136.930964,35.249731],[136.930984,35.249926],[136.931015,35.25013],[136.931107,35.250564],[136.931171,35.250841],[136.931181,35.250945],[136.931173,35.25099],[136.931094,35.251284],[136.93102,35.251573],[136.930998,35.251677],[136.930983,35.251893],[136.930973,35.252028],[136.930975,35.252128],[136.930976,35.252185],[136.931006,35.252255],[136.93108,35.252402],[136.930771,35.252708],[136.93069,35.25306],[136.92967,35.253379],[136.929496,35.253465],[136.929352,35.253528],[136.929237,35.253597],[136.929143,35.253661],[136.929054,35.253732],[136.928932,35.253811],[136.928735,35.253965],[136.92851,35.254158],[136.928369,35.254289],[136.928265,35.25442],[136.928173,35.254541],[136.928124,35.254653],[136.928042,35.254808],[136.927806,35.255325],[136.927707,35.25562],[136.927704,35.255706],[136.927702,35.255857],[136.927722,35.255929],[136.92802,35.25656],[136.928834,35.256371],[136.929308,35.256528],[136.929612,35.256666],[136.929805,35.256754],[136.930011,35.256911],[136.930099,35.257099],[136.93011,35.257435],[136.930063,35.257648],[136.929951,35.257838],[136.929741,35.258024],[136.929471,35.258172],[136.92867,35.258421],[136.928738,35.258605],[136.929153,35.258508],[136.929492,35.258427],[136.929951,35.258225],[136.930457,35.257818],[136.930361,35.257619],[136.93055,35.257332],[136.93076,35.257395],[136.930643,35.257931],[136.929922,35.259647],[136.929846,35.259657],[136.929464,35.259679],[136.929212,35.259688],[136.928919,35.259705],[136.928712,35.259714],[136.928681,35.259763],[136.928655,35.259834],[136.928631,35.259939],[136.9286,35.260018],[136.928509,35.260142],[136.928461,35.260293],[136.928419,35.260305],[136.928308,35.260202],[136.928256,35.260183],[136.928223,35.260198],[136.928202,35.260242],[136.928162,35.260353],[136.927938,35.260371],[136.927651,35.260399],[136.927533,35.260405],[136.927439,35.260383],[136.927335,35.26034],[136.927173,35.260265],[136.927006,35.260185],[136.926871,35.260136],[136.926786,35.260121],[136.926624,35.260188],[136.926423,35.260292],[136.926373,35.26036],[136.926199,35.260656],[136.926177,35.260689],[136.92619,35.260726],[136.92619,35.260767],[136.926148,35.260829],[136.926098,35.260873],[136.92605,35.260884],[136.925915,35.261089],[136.925806,35.261263],[136.92536,35.261252],[136.925202,35.261271],[136.925148,35.261277],[136.925065,35.261288],[136.924899,35.261318],[136.924738,35.261374],[136.924578,35.261466],[136.924452,35.261677],[136.9244,35.261834],[136.924359,35.262029],[136.924349,35.262166],[136.924362,35.262252],[136.924392,35.262314],[136.924461,35.262374],[136.924505,35.262407],[136.924281,35.262494],[136.924076,35.262501],[136.923787,35.262465],[136.923859,35.262601],[136.923894,35.262683],[136.92388,35.262712],[136.923816,35.26281],[136.923808,35.262854],[136.92384,35.26292],[136.92391,35.262954],[136.924045,35.262966],[136.924057,35.263038],[136.924033,35.263167],[136.923959,35.263281],[136.923902,35.263335],[136.923836,35.263354],[136.922824,35.263658],[136.922801,35.263798],[136.92265,35.263854],[136.922388,35.26391],[136.922126,35.263946],[136.921893,35.26396],[136.921774,35.263967],[136.921568,35.263953],[136.921368,35.263938],[136.921111,35.263916],[136.920904,35.263894],[136.920749,35.263891],[136.920494,35.263908],[136.92036,35.263888],[136.92015,35.26389],[136.920009,35.263911],[136.919807,35.263973],[136.919502,35.264096],[136.919048,35.264432],[136.91859,35.264748],[136.918448,35.264832],[136.918333,35.264864],[136.918206,35.264625],[136.918083,35.264366],[136.917988,35.264107],[136.917713,35.26423],[136.917493,35.26432],[136.91719,35.264387],[136.916915,35.26442],[136.91664,35.264431],[136.915609,35.264735],[136.91534,35.26481],[136.915301,35.264794],[136.914944,35.264614],[136.914759,35.264522],[136.914668,35.26448],[136.917003,35.260835],[136.915221,35.259443],[136.914933,35.259236],[136.914302,35.258656],[136.914102,35.258476],[136.913936,35.25834],[136.913786,35.258141],[136.913685,35.258004],[136.91357,35.257807],[136.913422,35.257489],[136.913339,35.257292],[136.913157,35.256961],[136.912947,35.256701],[136.912465,35.256239],[136.910951,35.254814],[136.911165,35.254737],[136.912635,35.253572],[136.913131,35.253212],[136.912653,35.252332],[136.912379,35.25187],[136.911941,35.251497],[136.911037,35.250718],[136.910186,35.25167],[136.909689,35.251357],[136.908566,35.252547],[136.907886,35.251927],[136.907579,35.251657],[136.906834,35.251013],[136.906189,35.250376],[136.905703,35.249788],[136.904415,35.248111],[136.903906,35.247421],[136.903093,35.246367],[136.902934,35.246143],[136.902903,35.246097],[136.902826,35.245982],[136.902607,35.245624],[136.90238,35.245241],[136.902152,35.244856],[136.901843,35.244222],[136.901842,35.244218],[136.901795,35.243957],[136.901746,35.243612]]]}},{"type":"Feature","properties":{"name":"青山","city":"豊山町","code":"342","setai":1372,"jinko":3273,"n":2,"towns":["233420020","233420020"],"lx":136.913339,"ly":35.257292},"geometry":{"type":"MultiPolygon","coordinates":[[[[136.901518,35.252452],[136.901636,35.25228],[136.901734,35.251971],[136.901734,35.251969],[136.902032,35.251675],[136.902421,35.251333],[136.902828,35.250929],[136.903192,35.25052],[136.903602,35.250025],[136.903753,35.249819],[136.903783,35.249777],[136.903864,35.249667],[136.903913,35.249585],[136.904002,35.249291],[136.904108,35.248988],[136.904124,35.248944],[136.904415,35.248111],[136.905703,35.249788],[136.906189,35.250376],[136.906834,35.251013],[136.907579,35.251657],[136.907886,35.251927],[136.908566,35.252547],[136.909689,35.251357],[136.910186,35.25167],[136.911037,35.250718],[136.911941,35.251497],[136.912379,35.25187],[136.912653,35.252332],[136.913131,35.253212],[136.912635,35.253572],[136.911165,35.254737],[136.910951,35.254814],[136.912465,35.256239],[136.912947,35.256701],[136.913157,35.256961],[136.913339,35.257292],[136.913422,35.257489],[136.91357,35.257807],[136.913685,35.258004],[136.913786,35.258141],[136.913936,35.25834],[136.914102,35.258476],[136.914302,35.258656],[136.914933,35.259236],[136.915221,35.259443],[136.917003,35.260835],[136.914668,35.26448],[136.914509,35.264408],[136.91388,35.26412],[136.913561,35.263885],[136.91317,35.263897],[136.912919,35.263781],[136.912553,35.263686],[136.912517,35.263635],[136.911822,35.263153],[136.911753,35.263113],[136.911718,35.263081],[136.911385,35.262914],[136.911196,35.262846],[136.910984,35.262673],[136.910857,35.26257],[136.910641,35.262497],[136.910269,35.262337],[136.910076,35.262219],[136.90982,35.262172],[136.909518,35.262055],[136.909354,35.261915],[136.909272,35.261796],[136.909071,35.261732],[136.908889,35.261636],[136.908777,35.261597],[136.908571,35.261642],[136.908411,35.261707],[136.908192,35.261401],[136.907844,35.261088],[136.906806,35.260314],[136.906664,35.260218],[136.906474,35.260091],[136.906164,35.259947],[136.906229,35.259807],[136.906191,35.259713],[136.906214,35.25965],[136.906185,35.259557],[136.9061,35.259472],[136.905979,35.2594],[136.905896,35.259277],[136.905796,35.259094],[136.905677,35.258956],[136.905454,35.258782],[136.905438,35.258771],[136.905345,35.258765],[136.905234,35.258714],[136.905201,35.258561],[136.904995,35.258412],[136.904906,35.258268],[136.904865,35.25816],[136.904824,35.258025],[136.904822,35.257929],[136.904863,35.257846],[136.9048,35.257686],[136.904726,35.257523],[136.90468,35.25741],[136.904791,35.257315],[136.904699,35.257109],[136.904637,35.256948],[136.904619,35.256876],[136.904614,35.256634],[136.904622,35.256604],[136.904633,35.256567],[136.904713,35.256527],[136.904428,35.255436],[136.904202,35.255457],[136.904102,35.255453],[136.904036,35.255422],[136.903733,35.255492],[136.903302,35.255496],[136.902849,35.255383],[136.902797,35.25538],[136.902251,35.255345],[136.902219,35.255343],[136.90221,35.255027],[136.902183,35.254859],[136.902178,35.254802],[136.902168,35.254726],[136.902176,35.254621],[136.902191,35.254451],[136.902138,35.254387],[136.902101,35.254348],[136.902021,35.254035],[136.901955,35.253744],[136.90193,35.25364],[136.901911,35.253557],[136.901876,35.253442],[136.901819,35.25334],[136.901802,35.253309],[136.901639,35.25303],[136.901574,35.252902],[136.901558,35.252836],[136.901559,35.252777],[136.901522,35.252486],[136.901518,35.252452]]],[[[136.929922,35.259647],[136.930643,35.257931],[136.93076,35.257395],[136.930869,35.257428],[136.931571,35.257641],[136.931502,35.257849],[136.930963,35.259218],[136.930871,35.259281],[136.930971,35.259404],[136.930996,35.259498],[136.930971,35.259558],[136.93093,35.259591],[136.930854,35.259609],[136.930484,35.259589],[136.930395,35.259595],[136.930274,35.259602],[136.930081,35.259627],[136.929922,35.259647]]]]}}]}