{"type":"FeatureCollection","features":[{"type":"Feature","properties":{"name":"秋田","city":"大口町","code":"361","setai":259,"jinko":768,"n":4,"towns":["23361001001","23361001002","23361001003","23361001004"],"lx":136.902839,"ly":35.319716},"geometry":{"type":"Polygon","coordinates":[[[136.897441,35.317433],[136.898129,35.317446],[136.898494,35.317433],[136.898493,35.317408],[136.898538,35.316488],[136.898579,35.315197],[136.902208,35.315136],[136.903801,35.315118],[136.905391,35.31511],[136.905615,35.315114],[136.907343,35.315144],[136.907358,35.316058],[136.907374,35.31669],[136.90596,35.316699],[136.905717,35.316705],[136.905747,35.317826],[136.906287,35.317819],[136.906306,35.317979],[136.906401,35.318052],[136.906714,35.318342],[136.90682,35.318417],[136.906958,35.318491],[136.907014,35.318521],[136.907101,35.318676],[136.907191,35.318893],[136.907148,35.318901],[136.907076,35.318921],[136.906609,35.319014],[136.906992,35.319646],[136.907191,35.320042],[136.907478,35.320616],[136.907782,35.320626],[136.907959,35.320758],[136.908364,35.321132],[136.908531,35.321211],[136.908762,35.321339],[136.908853,35.321409],[136.909009,35.321459],[136.909354,35.321566],[136.909442,35.321643],[136.909578,35.321781],[136.909626,35.321999],[136.909661,35.322159],[136.909727,35.322136],[136.909732,35.322172],[136.909429,35.322268],[136.908375,35.322586],[136.908365,35.322811],[136.908319,35.323019],[136.908157,35.323603],[136.907764,35.32344],[136.907636,35.323374],[136.907556,35.323295],[136.907468,35.323173],[136.907391,35.323026],[136.905837,35.323023],[136.905877,35.32523],[136.904481,35.324788],[136.903942,35.324614],[136.903486,35.324458],[136.903064,35.324294],[136.902467,35.323973],[136.901897,35.323651],[136.901486,35.323376],[136.901318,35.323234],[136.901148,35.323106],[136.901055,35.323025],[136.901042,35.323032],[136.900601,35.323285],[136.898817,35.323898],[136.898463,35.322895],[136.898442,35.32281],[136.898184,35.322093],[136.897771,35.321019],[136.897951,35.320666],[136.898019,35.320528],[136.897524,35.320387],[136.897441,35.317433]]]}},{"type":"Feature","properties":{"name":"伝右","city":"大口町","code":"361","setai":156,"jinko":436,"n":2,"towns":["23361005001","23361005002"],"lx":136.910501,"ly":35.3263},"geometry":{"type":"Polygon","coordinates":[[[136.905837,35.323023],[136.907391,35.323026],[136.907468,35.323173],[136.907556,35.323295],[136.907636,35.323374],[136.907764,35.32344],[136.908157,35.323603],[136.908319,35.323019],[136.908365,35.322811],[136.908375,35.322586],[136.909429,35.322268],[136.909732,35.322172],[136.909727,35.322136],[136.909778,35.322118],[136.909948,35.322061],[136.909919,35.322381],[136.909848,35.322902],[136.909845,35.322924],[136.910216,35.322893],[136.910451,35.322981],[136.910782,35.323102],[136.91123,35.323389],[136.911669,35.323654],[136.912016,35.323854],[136.912229,35.324125],[136.91241,35.324362],[136.912429,35.324529],[136.912518,35.3251],[136.913102,35.325037],[136.91315,35.325188],[136.913242,35.325185],[136.913366,35.32537],[136.913407,35.325469],[136.913428,35.325563],[136.913399,35.325782],[136.913405,35.325855],[136.913435,35.325915],[136.913506,35.325934],[136.913571,35.325935],[136.913625,35.325904],[136.913704,35.325813],[136.913801,35.325897],[136.913877,35.325966],[136.914141,35.326337],[136.914223,35.326404],[136.914332,35.326431],[136.914386,35.326424],[136.914524,35.326348],[136.914628,35.326343],[136.914766,35.326367],[136.914809,35.326373],[136.914881,35.32622],[136.914921,35.326121],[136.914942,35.32608],[136.915,35.32604],[136.915093,35.326025],[136.915268,35.326069],[136.915363,35.32581],[136.915386,35.325786],[136.915421,35.325763],[136.915475,35.325766],[136.91547,35.325808],[136.916397,35.326441],[136.916708,35.326435],[136.916218,35.329016],[136.907587,35.329114],[136.90785,35.328175],[136.906857,35.328183],[136.906372,35.327959],[136.905921,35.327953],[136.905908,35.326848],[136.905909,35.326423],[136.905901,35.326309],[136.905877,35.32523],[136.905837,35.323023]]]}},{"type":"Feature","properties":{"name":"替地","city":"大口町","code":"361","setai":413,"jinko":1061,"n":3,"towns":["23361007001","23361007002","23361007003"],"lx":136.899535,"ly":35.312871},"geometry":{"type":"Polygon","coordinates":[[[136.894353,35.309635],[136.895075,35.309508],[136.89552,35.309396],[136.895589,35.309358],[136.89575,35.309297],[136.895859,35.309349],[136.896171,35.309241],[136.896247,35.309206],[136.89633,35.30918],[136.897904,35.308971],[136.898246,35.308977],[136.898273,35.308996],[136.898175,35.309328],[136.898158,35.309382],[136.898007,35.309596],[136.897995,35.309628],[136.898,35.309668],[136.898384,35.309834],[136.898553,35.310088],[136.898652,35.310228],[136.899279,35.310129],[136.899642,35.310056],[136.899876,35.310036],[136.900307,35.310003],[136.900482,35.310448],[136.900493,35.310502],[136.900481,35.310543],[136.900464,35.310578],[136.900436,35.310637],[136.900408,35.310695],[136.900396,35.310753],[136.900389,35.310852],[136.900399,35.310911],[136.900589,35.311536],[136.900706,35.31149],[136.900736,35.311541],[136.9013,35.312508],[136.901523,35.312963],[136.901903,35.312819],[136.902625,35.314065],[136.902699,35.314202],[136.904528,35.313508],[136.904798,35.313994],[136.90651,35.313347],[136.907507,35.315166],[136.907343,35.315144],[136.905615,35.315114],[136.905391,35.31511],[136.903801,35.315118],[136.902208,35.315136],[136.898579,35.315197],[136.898538,35.316488],[136.898493,35.317408],[136.898494,35.317433],[136.898129,35.317446],[136.897441,35.317433],[136.897394,35.315261],[136.897366,35.31509],[136.897314,35.313353],[136.89682,35.313161],[136.896348,35.312881],[136.896194,35.312766],[136.89583,35.312358],[136.895546,35.311951],[136.895174,35.311477],[136.895073,35.311363],[136.894954,35.311168],[136.894792,35.310811],[136.894459,35.31],[136.894353,35.309635]]]}},{"type":"Feature","properties":{"name":"堀尾跡","city":"大口町","code":"361","setai":62,"jinko":157,"n":2,"towns":["23361009001","23361009002"],"lx":136.889315,"ly":35.318451},"geometry":{"type":"Polygon","coordinates":[[[136.886473,35.317387],[136.887027,35.317272],[136.887667,35.317214],[136.88837,35.317077],[136.888509,35.317087],[136.888767,35.317119],[136.890034,35.317401],[136.890033,35.317373],[136.8902,35.31738],[136.890397,35.317352],[136.892007,35.317374],[136.892138,35.318319],[136.892194,35.319053],[136.89182,35.319153],[136.891307,35.319293],[136.890577,35.319496],[136.890108,35.319625],[136.889771,35.31972],[136.889129,35.319869],[136.88765,35.320154],[136.887535,35.319801],[136.887172,35.319007],[136.887076,35.31887],[136.886975,35.318666],[136.88687,35.318359],[136.886696,35.318023],[136.886473,35.317387]]]}},{"type":"Feature","properties":{"name":"御供所","city":"大口町","code":"361","setai":199,"jinko":574,"n":3,"towns":["23361010001","23361010002","23361010003"],"lx":136.889965,"ly":35.315658},"geometry":{"type":"Polygon","coordinates":[[[136.882732,35.314012],[136.884731,35.313661],[136.886579,35.313347],[136.887403,35.313223],[136.889926,35.312803],[136.890722,35.312699],[136.891663,35.312628],[136.89222,35.312579],[136.892734,35.312543],[136.89583,35.312358],[136.896194,35.312766],[136.896348,35.312881],[136.89682,35.313161],[136.897314,35.313353],[136.897366,35.31509],[136.897394,35.315261],[136.897441,35.317433],[136.892878,35.317376],[136.892007,35.317374],[136.890397,35.317352],[136.8902,35.31738],[136.890033,35.317373],[136.890034,35.317401],[136.888767,35.317119],[136.888509,35.317087],[136.88837,35.317077],[136.887667,35.317214],[136.887027,35.317272],[136.886473,35.317387],[136.886696,35.318023],[136.88687,35.318359],[136.886975,35.318666],[136.887076,35.31887],[136.887172,35.319007],[136.887535,35.319801],[136.88765,35.320154],[136.885931,35.3205],[136.885909,35.320504],[136.885769,35.320531],[136.885516,35.320584],[136.885272,35.32064],[136.885151,35.320668],[136.885086,35.320679],[136.884874,35.320714],[136.884794,35.320728],[136.884668,35.320519],[136.88426,35.31978],[136.884163,35.319594],[136.884033,35.319344],[136.883885,35.319115],[136.883866,35.319099],[136.883697,35.318962],[136.883435,35.3187],[136.883359,35.318541],[136.883314,35.318283],[136.883328,35.318177],[136.88334,35.318086],[136.883404,35.317895],[136.88349,35.317747],[136.88369,35.317476],[136.883776,35.317281],[136.883781,35.317078],[136.883722,35.316797],[136.883709,35.316772],[136.883512,35.316414],[136.883432,35.316211],[136.883358,35.315897],[136.883355,35.315807],[136.883332,35.3154],[136.883287,35.315237],[136.88317,35.314976],[136.883083,35.314821],[136.882816,35.314285],[136.882736,35.314035],[136.882732,35.314012]]]}},{"type":"Feature","properties":{"name":"豊田","city":"大口町","code":"361","setai":124,"jinko":321,"n":3,"towns":["23361011101","23361011102","23361011103"],"lx":136.889198,"ly":35.309983},"geometry":{"type":"Polygon","coordinates":[[[136.88244,35.31243],[136.882464,35.311445],[136.882535,35.310897],[136.882618,35.310634],[136.882657,35.310359],[136.882658,35.310164],[136.882612,35.30927],[136.884137,35.308662],[136.886437,35.307731],[136.888675,35.306825],[136.889001,35.306693],[136.888803,35.306326],[136.888789,35.306303],[136.888483,35.305803],[136.887973,35.304925],[136.88808,35.304974],[136.888392,35.305114],[136.889189,35.306151],[136.889265,35.306215],[136.890945,35.30674],[136.890995,35.306755],[136.891229,35.306695],[136.891468,35.306681],[136.891584,35.30666],[136.891841,35.306519],[136.892068,35.306429],[136.892448,35.306345],[136.892574,35.306309],[136.892658,35.306262],[136.892725,35.30583],[136.894423,35.305992],[136.894606,35.305966],[136.894882,35.30594],[136.894894,35.305939],[136.895097,35.306215],[136.896017,35.306774],[136.89599,35.306791],[136.895784,35.306827],[136.895666,35.306834],[136.895536,35.307067],[136.895321,35.307523],[136.895315,35.307535],[136.895283,35.307704],[136.895274,35.307803],[136.895274,35.308039],[136.895276,35.308157],[136.895679,35.308728],[136.895612,35.308744],[136.895566,35.30878],[136.895538,35.308803],[136.895534,35.308807],[136.895386,35.308878],[136.895336,35.308909],[136.895296,35.308981],[136.895262,35.309057],[136.89524,35.309111],[136.89525,35.309165],[136.895272,35.309192],[136.895315,35.309246],[136.895364,35.309292],[136.895452,35.309356],[136.895589,35.309358],[136.89552,35.309396],[136.895075,35.309508],[136.894353,35.309635],[136.894459,35.31],[136.894792,35.310811],[136.894954,35.311168],[136.895073,35.311363],[136.895174,35.311477],[136.895546,35.311951],[136.89583,35.312358],[136.892734,35.312543],[136.89222,35.312579],[136.891663,35.312628],[136.890722,35.312699],[136.889926,35.312803],[136.887403,35.313223],[136.886579,35.313347],[136.884731,35.313661],[136.882732,35.314012],[136.882652,35.313528],[136.882599,35.313122],[136.882508,35.31271],[136.88244,35.31243]]]}},{"type":"Feature","properties":{"name":"奈良子","city":"大口町","code":"361","setai":278,"jinko":734,"n":3,"towns":["23361011201","23361011202","23361011203"],"lx":136.893122,"ly":35.320915},"geometry":{"type":"Polygon","coordinates":[[[136.884794,35.320728],[136.884874,35.320714],[136.885086,35.320679],[136.885151,35.320668],[136.885272,35.32064],[136.885516,35.320584],[136.885769,35.320531],[136.885909,35.320504],[136.885931,35.3205],[136.88765,35.320154],[136.889129,35.319869],[136.889771,35.31972],[136.890108,35.319625],[136.890577,35.319496],[136.891307,35.319293],[136.89182,35.319153],[136.892194,35.319053],[136.892138,35.318319],[136.892007,35.317374],[136.892878,35.317376],[136.897441,35.317433],[136.897524,35.320387],[136.898019,35.320528],[136.897951,35.320666],[136.897771,35.321019],[136.898184,35.322093],[136.898442,35.32281],[136.897998,35.323053],[136.897464,35.323345],[136.897169,35.322948],[136.896974,35.322737],[136.896659,35.3225],[136.896391,35.322328],[136.89607,35.322099],[136.8958,35.32191],[136.895531,35.321657],[136.895378,35.321485],[136.895079,35.321637],[136.89467,35.322498],[136.894626,35.322609],[136.894088,35.32278],[136.893036,35.323118],[136.893825,35.324715],[136.892022,35.325565],[136.890809,35.326135],[136.890253,35.325],[136.891562,35.324584],[136.891163,35.323725],[136.890887,35.323147],[136.890268,35.323337],[136.889953,35.322743],[136.889577,35.321993],[136.889531,35.321848],[136.889476,35.321724],[136.889298,35.321487],[136.88901,35.321193],[136.886687,35.321211],[136.886027,35.32122],[136.886013,35.321221],[136.88601,35.321222],[136.885647,35.321249],[136.885624,35.321257],[136.885545,35.321285],[136.885396,35.321241],[136.885394,35.32124],[136.885368,35.321233],[136.885273,35.321202],[136.885249,35.321195],[136.885106,35.32115],[136.885011,35.321128],[136.885011,35.321127],[136.884794,35.320728]]]}},{"type":"Feature","properties":{"name":"高橋","city":"大口町","code":"361","setai":122,"jinko":383,"n":2,"towns":["23361012001","23361012002"],"lx":136.901527,"ly":35.324269},"geometry":{"type":"MultiPolygon","coordinates":[[[[136.893036,35.323118],[136.894088,35.32278],[136.894626,35.322609],[136.89467,35.322498],[136.895079,35.321637],[136.895378,35.321485],[136.895531,35.321657],[136.8958,35.32191],[136.89607,35.322099],[136.896391,35.322328],[136.896659,35.3225],[136.896974,35.322737],[136.897169,35.322948],[136.897464,35.323345],[136.897501,35.32341],[136.897585,35.323623],[136.897721,35.323978],[136.897773,35.32419],[136.897858,35.324458],[136.897939,35.32474],[136.898029,35.324914],[136.897604,35.324945],[136.897621,35.325339],[136.896357,35.32575],[136.895905,35.32588],[136.895244,35.326043],[136.894601,35.326362],[136.89384,35.324735],[136.893825,35.324715],[136.893036,35.323118]]],[[[136.900601,35.323285],[136.901042,35.323032],[136.901055,35.323025],[136.901148,35.323106],[136.901318,35.323234],[136.901486,35.323376],[136.901897,35.323651],[136.902467,35.323973],[136.903064,35.324294],[136.903486,35.324458],[136.903942,35.324614],[136.904481,35.324788],[136.905877,35.32523],[136.905901,35.326309],[136.905909,35.326423],[136.905908,35.326848],[136.905921,35.327953],[136.906372,35.327959],[136.906857,35.328183],[136.90785,35.328175],[136.907587,35.329114],[136.907133,35.329119],[136.906981,35.328996],[136.906053,35.328287],[136.905566,35.32796],[136.904782,35.327381],[136.90454,35.327239],[136.903993,35.326729],[136.903291,35.326093],[136.902545,35.325337],[136.902403,35.325181],[136.901527,35.324269],[136.900601,35.323285]]]]}},{"type":"Feature","properties":{"name":"大屋敷","city":"大口町","code":"361","setai":199,"jinko":600,"n":3,"towns":["23361013101","23361013102","23361013103"],"lx":136.898349,"ly":35.32719},"geometry":{"type":"Polygon","coordinates":[[[136.890809,35.326135],[136.892022,35.325565],[136.893825,35.324715],[136.89384,35.324735],[136.894601,35.326362],[136.895244,35.326043],[136.895905,35.32588],[136.896357,35.32575],[136.897621,35.325339],[136.897604,35.324945],[136.898029,35.324914],[136.897939,35.32474],[136.897858,35.324458],[136.897773,35.32419],[136.897721,35.323978],[136.897585,35.323623],[136.897501,35.32341],[136.897464,35.323345],[136.897998,35.323053],[136.898442,35.32281],[136.898463,35.322895],[136.898817,35.323898],[136.900601,35.323285],[136.901527,35.324269],[136.902403,35.325181],[136.902545,35.325337],[136.903291,35.326093],[136.903993,35.326729],[136.90454,35.327239],[136.904782,35.327381],[136.905566,35.32796],[136.906053,35.328287],[136.906981,35.328996],[136.907133,35.329119],[136.90541,35.329139],[136.90508,35.329129],[136.904889,35.329136],[136.904473,35.32918],[136.904092,35.329184],[136.903724,35.329197],[136.903107,35.329325],[136.902882,35.329371],[136.90244,35.32948],[136.90213,35.329532],[136.901733,35.329588],[136.900577,35.329624],[136.897778,35.329692],[136.897781,35.329639],[136.895907,35.329683],[136.892772,35.329755],[136.892185,35.328986],[136.892078,35.328738],[136.891801,35.328214],[136.891697,35.327968],[136.89133,35.327208],[136.89101,35.326566],[136.890809,35.326135]]]}},{"type":"Feature","properties":{"name":"大御堂","city":"大口町","code":"361","setai":83,"jinko":229,"n":2,"towns":["23361013201","23361013202"],"lx":136.896498,"ly":35.331463},"geometry":{"type":"Polygon","coordinates":[[[136.890783,35.32943],[136.892185,35.328986],[136.892772,35.329755],[136.895907,35.329683],[136.897781,35.329639],[136.897778,35.329692],[136.900577,35.329624],[136.900645,35.331402],[136.900647,35.331458],[136.900708,35.33285],[136.900749,35.333494],[136.900638,35.3335],[136.897885,35.333562],[136.897151,35.333579],[136.896716,35.333589],[136.896224,35.333755],[136.896414,35.334363],[136.895923,35.334385],[136.895768,35.334355],[136.895613,35.334315],[136.89552,35.334247],[136.895194,35.333988],[136.89511,35.333912],[136.895,35.333818],[136.894758,35.33352],[136.894893,35.333473],[136.894253,35.332157],[136.893033,35.332454],[136.892679,35.331893],[136.892648,35.331845],[136.892579,35.331768],[136.892136,35.331158],[136.891561,35.330398],[136.890783,35.32943]]]}},{"type":"Feature","properties":{"name":"丸","city":"大口町","code":"361","setai":138,"jinko":412,"n":2,"towns":["23361013301","23361013302"],"lx":136.903858,"ly":35.331085},"geometry":{"type":"Polygon","coordinates":[[[136.900577,35.329624],[136.901733,35.329588],[136.90213,35.329532],[136.90244,35.32948],[136.902882,35.329371],[136.903107,35.329325],[136.903724,35.329197],[136.904092,35.329184],[136.904473,35.32918],[136.904889,35.329136],[136.90508,35.329129],[136.90541,35.329139],[136.907133,35.329119],[136.907587,35.329114],[136.907281,35.330213],[136.907256,35.330303],[136.906846,35.331831],[136.906812,35.331939],[136.90664,35.332355],[136.906472,35.33267],[136.906458,35.332697],[136.906183,35.333251],[136.905468,35.33285],[136.905268,35.33277],[136.905105,35.332731],[136.904601,35.332675],[136.904108,35.332592],[136.902607,35.332519],[136.902628,35.332751],[136.902657,35.333449],[136.902327,35.333445],[136.901831,35.333447],[136.900821,35.333478],[136.900749,35.333494],[136.900708,35.33285],[136.900647,35.331458],[136.900645,35.331402],[136.900577,35.329624]]]}},{"type":"Feature","properties":{"name":"外坪","city":"大口町","code":"361","setai":240,"jinko":741,"n":5,"towns":["23361014001","23361014002","23361014003","23361014004","23361014005"],"lx":136.920333,"ly":35.323773},"geometry":{"type":"Polygon","coordinates":[[[136.913608,35.319881],[136.914179,35.319633],[136.914869,35.319308],[136.915165,35.319236],[136.915448,35.319199],[136.916622,35.319123],[136.916629,35.319123],[136.917978,35.319109],[136.917957,35.319198],[136.919067,35.319114],[136.919693,35.319074],[136.9198,35.319331],[136.919876,35.319325],[136.921084,35.319237],[136.921166,35.319237],[136.921227,35.319258],[136.921292,35.319298],[136.921454,35.319363],[136.921562,35.319393],[136.921674,35.319637],[136.921734,35.319735],[136.921818,35.319778],[136.921934,35.31998],[136.922155,35.320368],[136.922253,35.320545],[136.922506,35.321018],[136.922606,35.321202],[136.922743,35.32145],[136.922851,35.321641],[136.923086,35.322094],[136.923261,35.322459],[136.923573,35.323004],[136.923793,35.32339],[136.923938,35.323633],[136.924072,35.323955],[136.924131,35.324094],[136.924299,35.324274],[136.924527,35.324185],[136.924614,35.324122],[136.924831,35.324068],[136.924838,35.324585],[136.924829,35.325203],[136.925234,35.325379],[136.926062,35.325734],[136.926432,35.325892],[136.926954,35.326153],[136.927284,35.326322],[136.927462,35.326424],[136.927633,35.326589],[136.927817,35.326839],[136.927901,35.326986],[136.928044,35.327336],[136.928059,35.327361],[136.928786,35.327432],[136.929,35.327454],[136.929191,35.327474],[136.929395,35.327492],[136.92949,35.327517],[136.929558,35.327537],[136.929154,35.328845],[136.925672,35.32888],[136.924728,35.328867],[136.924721,35.327311],[136.923042,35.327213],[136.922626,35.327217],[136.922533,35.327228],[136.922229,35.327309],[136.922133,35.327313],[136.921541,35.327253],[136.921268,35.32723],[136.92099,35.327235],[136.920748,35.327225],[136.920704,35.327211],[136.920621,35.327082],[136.920386,35.327065],[136.92009,35.326961],[136.920066,35.326933],[136.920001,35.326476],[136.91753,35.326466],[136.917138,35.32644],[136.916708,35.326435],[136.916397,35.326441],[136.91547,35.325808],[136.915475,35.325766],[136.915499,35.325559],[136.915642,35.324587],[136.915645,35.324567],[136.915659,35.324498],[136.915512,35.324425],[136.915283,35.324251],[136.915121,35.324058],[136.915033,35.323936],[136.914356,35.324085],[136.914014,35.323108],[136.914587,35.322977],[136.913912,35.32112],[136.913878,35.321026],[136.913972,35.321008],[136.913947,35.320909],[136.913608,35.319881]]]}},{"type":"Feature","properties":{"name":"河北","city":"大口町","code":"361","setai":437,"jinko":1298,"n":4,"towns":["23361019101","23361019102","23361019103","233610192"],"lx":136.935439,"ly":35.349019},"geometry":{"type":"Polygon","coordinates":[[[136.929681,35.350717],[136.929753,35.3494],[136.929754,35.349379],[136.929759,35.349275],[136.929774,35.348913],[136.929832,35.347146],[136.929864,35.345399],[136.929853,35.345325],[136.929865,35.345096],[136.929886,35.345007],[136.929933,35.343987],[136.929987,35.342198],[136.930003,35.341536],[136.930015,35.341347],[136.935448,35.341476],[136.935486,35.341484],[136.93554,35.341491],[136.935584,35.341494],[136.935643,35.341493],[136.935641,35.341672],[136.935828,35.34193],[136.935939,35.342057],[136.936037,35.342125],[136.936363,35.342278],[136.936458,35.342316],[136.936467,35.34232],[136.93655,35.342356],[136.936591,35.343364],[136.936608,35.343901],[136.936397,35.343903],[136.936229,35.343907],[136.936022,35.344125],[136.935984,35.344196],[136.935988,35.344332],[136.935957,35.344434],[136.935896,35.344488],[136.935961,35.344695],[136.936004,35.344865],[136.935991,35.345039],[136.935971,35.345103],[136.93586,35.345259],[136.935781,35.345371],[136.935657,35.345409],[136.935412,35.345407],[136.93541,35.345688],[136.935401,35.345869],[136.935392,35.346285],[136.935964,35.34659],[136.936613,35.346938],[136.936637,35.346954],[136.937276,35.347382],[136.937588,35.34771],[136.937814,35.348143],[136.937909,35.348538],[136.937914,35.348562],[136.937921,35.348588],[136.937943,35.3487],[136.938061,35.349449],[136.938097,35.349676],[136.938154,35.349915],[136.938178,35.350014],[136.938287,35.350266],[136.938502,35.350517],[136.938354,35.350583],[136.938233,35.350638],[136.937978,35.35078],[136.937982,35.35107],[136.938781,35.351327],[136.938918,35.351313],[136.938919,35.351313],[136.939056,35.351305],[136.939057,35.351305],[136.939171,35.351318],[136.939624,35.351366],[136.939912,35.351439],[136.940245,35.351482],[136.940402,35.35152],[136.940636,35.351619],[136.940597,35.351703],[136.940562,35.351801],[136.940559,35.351851],[136.940611,35.351934],[136.940674,35.352063],[136.940709,35.352153],[136.940764,35.352323],[136.940792,35.352469],[136.941093,35.352656],[136.941227,35.352726],[136.94123,35.352944],[136.941273,35.353413],[136.941348,35.353828],[136.941439,35.354233],[136.941502,35.354526],[136.941562,35.354753],[136.941633,35.354913],[136.941675,35.35504],[136.941687,35.355191],[136.941671,35.355306],[136.941656,35.355392],[136.941667,35.35548],[136.941734,35.355728],[136.941766,35.355898],[136.941757,35.35611],[136.941711,35.356298],[136.941704,35.356565],[136.941687,35.356823],[136.941677,35.356972],[136.94163,35.357092],[136.941614,35.357331],[136.941611,35.357621],[136.941629,35.357989],[136.941634,35.358343],[136.941565,35.359105],[136.941555,35.359273],[136.941559,35.359356],[136.941558,35.359356],[136.940509,35.359334],[136.940493,35.359411],[136.94037,35.360009],[136.940193,35.360696],[136.940112,35.360798],[136.939738,35.361372],[136.939705,35.361424],[136.939655,35.361471],[136.939593,35.361503],[136.939415,35.361444],[136.939599,35.36081],[136.939573,35.360465],[136.939501,35.36029],[136.939461,35.360194],[136.939143,35.35964],[136.939611,35.359316],[136.938989,35.358847],[136.938926,35.358697],[136.938848,35.358523],[136.938787,35.358079],[136.938791,35.357698],[136.938792,35.357653],[136.938882,35.356597],[136.938962,35.355785],[136.938961,35.355678],[136.938945,35.355542],[136.938911,35.355439],[136.938855,35.355327],[136.938777,35.355228],[136.938646,35.355106],[136.938656,35.355027],[136.938715,35.354939],[136.93856,35.354791],[136.938252,35.354496],[136.938092,35.354362],[136.937885,35.354207],[136.937656,35.354043],[136.937501,35.353933],[136.936942,35.35359],[136.936793,35.353536],[136.936709,35.353518],[136.936721,35.353115],[136.936703,35.352492],[136.936736,35.351723],[136.936726,35.35161],[136.936665,35.351286],[136.93667,35.351227],[136.936695,35.35117],[136.936663,35.350631],[136.935433,35.350573],[136.935462,35.350052],[136.934583,35.350004],[136.934169,35.34998],[136.933036,35.349913],[136.930112,35.349787],[136.929864,35.349776],[136.929797,35.350736],[136.929681,35.350717]]]}},{"type":"Feature","properties":{"name":"仲沖","city":"大口町","code":"361","setai":64,"jinko":197,"n":2,"towns":["23361020001","23361020002"],"lx":136.931754,"ly":35.339049},"geometry":{"type":"Polygon","coordinates":[[[136.928498,35.340326],[136.928611,35.338409],[136.928697,35.336933],[136.928725,35.336454],[136.930695,35.336536],[136.931991,35.336601],[136.933453,35.336667],[136.933437,35.336543],[136.93359,35.33667],[136.933651,35.336985],[136.933694,35.337105],[136.933777,35.337202],[136.933849,35.337289],[136.93396,35.337674],[136.934011,35.337744],[136.934323,35.338214],[136.934489,35.338471],[136.934558,35.338567],[136.9346,35.33864],[136.934602,35.338643],[136.93469,35.338773],[136.93488,35.339049],[136.934916,35.339103],[136.934983,35.339208],[136.935029,35.339434],[136.935058,35.339602],[136.935169,35.340137],[136.935206,35.340311],[136.935245,35.34049],[136.935312,35.340798],[136.935327,35.340999],[136.935308,35.341256],[136.935332,35.341344],[136.93536,35.341408],[136.93541,35.341453],[136.935448,35.341476],[136.930015,35.341347],[136.930019,35.340525],[136.929524,35.340572],[136.929418,35.340578],[136.929314,35.340563],[136.928801,35.340421],[136.928498,35.340326]]]}},{"type":"Feature","properties":{"name":"二ツ屋","city":"大口町","code":"361","setai":71,"jinko":197,"n":2,"towns":["23361022001","23361022002"],"lx":136.930829,"ly":35.332799},"geometry":{"type":"Polygon","coordinates":[[[136.927808,35.333488],[136.929129,35.328922],[136.929154,35.328845],[136.929558,35.327537],[136.929574,35.327542],[136.929635,35.327567],[136.929758,35.327611],[136.929884,35.327659],[136.929965,35.327707],[136.930334,35.327907],[136.930696,35.328192],[136.930896,35.328341],[136.931219,35.328593],[136.931366,35.328751],[136.931508,35.328937],[136.93177,35.329251],[136.931977,35.329669],[136.932262,35.330176],[136.932453,35.330108],[136.932567,35.330068],[136.932489,35.33034],[136.932424,35.330557],[136.932111,35.33134],[136.933064,35.331674],[136.93328,35.331749],[136.933248,35.331778],[136.933242,35.331804],[136.933248,35.331876],[136.933269,35.332057],[136.933323,35.332286],[136.933421,35.332788],[136.933494,35.333386],[136.933557,35.333481],[136.933604,35.333541],[136.933621,35.333646],[136.933636,35.334056],[136.933668,35.334406],[136.933684,35.334807],[136.933689,35.334961],[136.933689,35.335139],[136.933666,35.335321],[136.93366,35.335367],[136.933592,35.33569],[136.933564,35.335785],[136.933548,35.335831],[136.933508,35.335895],[136.933481,35.33594],[136.933474,35.336016],[136.933456,35.336079],[136.933433,35.336238],[136.933425,35.336452],[136.933437,35.336543],[136.933453,35.336667],[136.931991,35.336601],[136.930695,35.336536],[136.928725,35.336454],[136.928816,35.334697],[136.92889,35.333539],[136.928825,35.333527],[136.928384,35.333511],[136.927972,35.333476],[136.927808,35.333488]]]}},{"type":"Feature","properties":{"name":"余野","city":"大口町","code":"361","setai":2245,"jinko":5724,"n":7,"towns":["23361024001","23361024002","23361024003","23361024004","23361024005","23361024006","233610456"],"lx":136.906775,"ly":35.342015},"geometry":{"type":"Polygon","coordinates":[[[136.899389,35.340704],[136.900188,35.340229],[136.900368,35.340113],[136.901074,35.339675],[136.901276,35.339547],[136.901552,35.339419],[136.901862,35.339275],[136.902171,35.339066],[136.902328,35.338953],[136.90257,35.33874],[136.902737,35.338552],[136.902875,35.338415],[136.903027,35.338289],[136.903473,35.338011],[136.90377,35.337756],[136.903941,35.337652],[136.904252,35.337402],[136.904358,35.337309],[136.904432,35.337214],[136.904446,35.337162],[136.904448,35.336984],[136.905298,35.336993],[136.906256,35.336932],[136.907826,35.336859],[136.908739,35.336841],[136.908744,35.336896],[136.90878,35.337446],[136.908783,35.337692],[136.908776,35.337798],[136.908732,35.338085],[136.908727,35.338228],[136.908726,35.338341],[136.908751,35.33849],[136.908777,35.338547],[136.908846,35.338682],[136.908888,35.338872],[136.908904,35.339097],[136.908928,35.339254],[136.908996,35.339481],[136.909055,35.339928],[136.909108,35.340219],[136.90916,35.340439],[136.909215,35.340593],[136.909253,35.340663],[136.909318,35.340705],[136.909475,35.340743],[136.909786,35.340844],[136.910354,35.340956],[136.910542,35.341036],[136.91087,35.341162],[136.911123,35.341273],[136.911232,35.341326],[136.911321,35.34137],[136.911506,35.341473],[136.912035,35.341801],[136.912239,35.342017],[136.912276,35.342036],[136.912398,35.342038],[136.913126,35.342049],[136.913429,35.342028],[136.913695,35.342053],[136.913712,35.342111],[136.913712,35.342348],[136.913925,35.342338],[136.913938,35.34253],[136.913676,35.342552],[136.913656,35.342779],[136.913489,35.342789],[136.913449,35.342796],[136.913049,35.342867],[136.913013,35.342873],[136.913048,35.342987],[136.913085,35.343073],[136.91316,35.343195],[136.913296,35.343419],[136.913357,35.343551],[136.913485,35.343913],[136.913652,35.344608],[136.913659,35.344641],[136.913686,35.344761],[136.913694,35.344796],[136.913769,35.345133],[136.913942,35.345477],[136.914058,35.345736],[136.914106,35.345977],[136.914188,35.346237],[136.914283,35.346485],[136.91433,35.346639],[136.914363,35.346906],[136.914382,35.347054],[136.914048,35.347093],[136.91356,35.347177],[136.913226,35.347264],[136.912768,35.347442],[136.911874,35.34786],[136.911682,35.347991],[136.911385,35.348124],[136.911089,35.347811],[136.910863,35.347498],[136.9108,35.3474],[136.91081,35.347215],[136.91101,35.347237],[136.91132,35.347012],[136.911405,35.346913],[136.911487,35.346851],[136.911694,35.346736],[136.911725,35.346682],[136.911712,35.346511],[136.911697,35.346237],[136.911661,35.346066],[136.9116,35.345954],[136.911293,35.34549],[136.911028,35.345142],[136.91094,35.345062],[136.91067,35.344877],[136.910406,35.344722],[136.910248,35.344648],[136.910195,35.344429],[136.90982,35.344459],[136.909586,35.344413],[136.909261,35.344376],[136.908906,35.344324],[136.908473,35.344366],[136.908254,35.344151],[136.908083,35.344011],[136.907878,35.344174],[136.907514,35.344593],[136.907454,35.344646],[136.907245,35.344805],[136.906848,35.345194],[136.906793,35.345181],[136.906424,35.345205],[136.905538,35.345366],[136.90543,35.345386],[136.90476,35.345486],[136.904096,35.345607],[136.903488,35.345719],[136.903483,35.345706],[136.903477,35.345691],[136.903415,35.345587],[136.903257,35.345359],[136.903032,35.345123],[136.902837,35.344944],[136.902335,35.34448],[136.90225,35.344355],[136.902187,35.34428],[136.902144,35.344251],[136.902054,35.344225],[136.902026,35.344203],[136.901983,35.344168],[136.901718,35.34392],[136.901519,35.343813],[136.901463,35.343767],[136.901343,35.343639],[136.901246,35.343587],[136.90105,35.343479],[136.900993,35.343429],[136.900779,35.34317],[136.900659,35.343068],[136.900523,35.342926],[136.900409,35.342814],[136.900345,35.342726],[136.900277,35.342598],[136.900206,35.342515],[136.900159,35.342464],[136.899962,35.342265],[136.899914,35.342197],[136.899869,35.342059],[136.899822,35.341852],[136.899768,35.34167],[136.899571,35.341096],[136.899403,35.340727],[136.899389,35.340704]]]}},{"type":"Feature","properties":{"name":"上小口","city":"大口町","code":"361","setai":668,"jinko":1771,"n":3,"towns":["23361025001","23361025002","23361025003"],"lx":136.923031,"ly":35.347194},"geometry":{"type":"Polygon","coordinates":[[[136.915628,35.347327],[136.915655,35.346939],[136.91572,35.346933],[136.916681,35.346847],[136.918015,35.346701],[136.91818,35.345771],[136.918436,35.344317],[136.918459,35.344185],[136.918631,35.343393],[136.922153,35.343427],[136.922328,35.343366],[136.922523,35.343287],[136.922482,35.341935],[136.923926,35.342137],[136.924723,35.342211],[136.925229,35.342264],[136.92524,35.342089],[136.925391,35.342041],[136.925557,35.342004],[136.925548,35.342261],[136.925579,35.342323],[136.925578,35.342585],[136.925575,35.342681],[136.925593,35.342754],[136.925622,35.342818],[136.925692,35.342885],[136.925928,35.34309],[136.927394,35.344271],[136.92752,35.344384],[136.927803,35.344603],[136.927879,35.34464],[136.928043,35.344759],[136.928305,35.344887],[136.928347,35.344902],[136.928589,35.344988],[136.929061,35.345055],[136.929499,35.345112],[136.929654,35.345118],[136.929865,35.345096],[136.929853,35.345325],[136.929864,35.345399],[136.929832,35.347146],[136.929774,35.348913],[136.929759,35.349275],[136.929754,35.349379],[136.929753,35.3494],[136.929681,35.350717],[136.929157,35.350631],[136.928732,35.350552],[136.928205,35.35045],[136.928098,35.350415],[136.928013,35.350368],[136.927899,35.350489],[136.927775,35.35042],[136.92737,35.350258],[136.927174,35.35021],[136.926944,35.350184],[136.926738,35.350186],[136.926078,35.350298],[136.926015,35.350309],[136.92505,35.350476],[136.925058,35.350533],[136.92362,35.350755],[136.923021,35.350848],[136.921649,35.351071],[136.921641,35.351072],[136.920723,35.351245],[136.920207,35.351327],[136.919803,35.35141],[136.919401,35.351541],[136.919153,35.351655],[136.918321,35.351135],[136.917831,35.350788],[136.917704,35.350703],[136.917703,35.350702],[136.917559,35.350605],[136.917346,35.350458],[136.917146,35.350398],[136.916685,35.350184],[136.91639,35.3501],[136.91609,35.350042],[136.915767,35.349593],[136.915723,35.349487],[136.915706,35.349299],[136.915628,35.347635],[136.915628,35.347327]]]}},{"type":"Feature","properties":{"name":"萩島","city":"大口町","code":"361","setai":109,"jinko":304,"n":2,"towns":["23361028001","23361028002"],"lx":136.926742,"ly":35.334407},"geometry":{"type":"Polygon","coordinates":[[[136.924702,35.333259],[136.92473,35.33136],[136.924729,35.328948],[136.924728,35.328867],[136.925672,35.32888],[136.929154,35.328845],[136.929129,35.328922],[136.927808,35.333488],[136.927972,35.333476],[136.928384,35.333511],[136.928825,35.333527],[136.92889,35.333539],[136.928816,35.334697],[136.928725,35.336454],[136.928697,35.336933],[136.928611,35.338409],[136.928498,35.340326],[136.925911,35.340229],[136.925041,35.339221],[136.924994,35.338411],[136.924957,35.338123],[136.924845,35.336342],[136.924863,35.336143],[136.924742,35.334154],[136.924702,35.333259]]]}},{"type":"Feature","properties":{"name":"中小口","city":"大口町","code":"361","setai":77,"jinko":191,"n":5,"towns":["23361030001","23361030002","23361030003","23361030004","23361030005"],"lx":136.921553,"ly":35.342129},"geometry":{"type":"MultiPolygon","coordinates":[[[[136.911682,35.347991],[136.911874,35.34786],[136.912768,35.347442],[136.913226,35.347264],[136.91356,35.347177],[136.914048,35.347093],[136.914382,35.347054],[136.915655,35.346939],[136.915628,35.347327],[136.915628,35.347635],[136.915706,35.349299],[136.915723,35.349487],[136.915767,35.349593],[136.91609,35.350042],[136.916014,35.350045],[136.915219,35.349887],[136.915013,35.349828],[136.91486,35.349786],[136.914581,35.349742],[136.91435,35.349734],[136.914269,35.349734],[136.913912,35.349614],[136.913736,35.349522],[136.913557,35.349408],[136.913421,35.349299],[136.913248,35.349166],[136.912947,35.348994],[136.912766,35.348876],[136.912706,35.348828],[136.912644,35.348778],[136.912392,35.348553],[136.912037,35.348367],[136.911948,35.348283],[136.911682,35.347991]]],[[[136.918631,35.343393],[136.918923,35.341936],[136.918978,35.341662],[136.919036,35.341385],[136.919041,35.341364],[136.919365,35.339606],[136.919845,35.337193],[136.919862,35.337105],[136.919864,35.337096],[136.919994,35.336555],[136.920605,35.333331],[136.920726,35.333315],[136.921059,35.333312],[136.921326,35.333311],[136.922008,35.3333],[136.924702,35.333259],[136.924742,35.334154],[136.924863,35.336143],[136.924845,35.336342],[136.924957,35.338123],[136.924994,35.338411],[136.925041,35.339221],[136.925911,35.340229],[136.928498,35.340326],[136.928801,35.340421],[136.929314,35.340563],[136.929418,35.340578],[136.929524,35.340572],[136.930019,35.340525],[136.930015,35.341347],[136.930003,35.341536],[136.929987,35.342198],[136.929933,35.343987],[136.929886,35.345007],[136.929865,35.345096],[136.929654,35.345118],[136.929499,35.345112],[136.929061,35.345055],[136.928589,35.344988],[136.928347,35.344902],[136.928305,35.344887],[136.928043,35.344759],[136.927879,35.34464],[136.927803,35.344603],[136.92752,35.344384],[136.927394,35.344271],[136.925928,35.34309],[136.925692,35.342885],[136.925622,35.342818],[136.925593,35.342754],[136.925575,35.342681],[136.925578,35.342585],[136.925579,35.342323],[136.925548,35.342261],[136.925557,35.342004],[136.925391,35.342041],[136.92524,35.342089],[136.925229,35.342264],[136.924723,35.342211],[136.923926,35.342137],[136.922482,35.341935],[136.922523,35.343287],[136.922328,35.343366],[136.922153,35.343427],[136.918631,35.343393]]]]}},{"type":"Feature","properties":{"name":"城屋敷","city":"大口町","code":"361","setai":170,"jinko":469,"n":2,"towns":["23361035001","23361035002"],"lx":136.917175,"ly":35.339789},"geometry":{"type":"Polygon","coordinates":[[[136.913513,35.341467],[136.913818,35.341391],[136.913968,35.341354],[136.914175,35.341302],[136.914404,35.341258],[136.914786,35.341248],[136.914959,35.341235],[136.914949,35.340839],[136.915019,35.340353],[136.915019,35.340081],[136.915045,35.339848],[136.916065,35.339723],[136.916291,35.339684],[136.916546,35.339629],[136.916737,35.339573],[136.917015,35.339451],[136.91648,35.338449],[136.916313,35.338125],[136.916085,35.337627],[136.915723,35.336779],[136.915867,35.336755],[136.917228,35.336695],[136.917265,35.336766],[136.917389,35.337078],[136.917453,35.337118],[136.918012,35.337148],[136.918416,35.33717],[136.91852,35.337175],[136.918946,35.337195],[136.919252,35.337205],[136.919564,35.337203],[136.919862,35.337105],[136.919845,35.337193],[136.919365,35.339606],[136.919041,35.341364],[136.919036,35.341385],[136.918978,35.341662],[136.918529,35.341622],[136.91834,35.341647],[136.917895,35.341723],[136.917747,35.341787],[136.917481,35.341941],[136.917266,35.342045],[136.917125,35.342095],[136.916857,35.342157],[136.91648,35.342241],[136.916514,35.342269],[136.916475,35.342286],[136.916309,35.342351],[136.916172,35.342397],[136.916063,35.342425],[136.915979,35.342437],[136.915907,35.342442],[136.915861,35.342444],[136.915745,35.34244],[136.915627,35.342431],[136.915381,35.342402],[136.915316,35.342394],[136.915312,35.342382],[136.915207,35.342372],[136.914693,35.342327],[136.914514,35.342321],[136.913925,35.342338],[136.913712,35.342348],[136.913712,35.342111],[136.913695,35.342053],[136.913606,35.341717],[136.913513,35.341467]]]}},{"type":"Feature","properties":{"name":"新宮","city":"大口町","code":"361","setai":91,"jinko":581,"n":2,"towns":["23361036001","23361036002"],"lx":136.921295,"ly":35.329627},"geometry":{"type":"Polygon","coordinates":[[[136.916218,35.329016],[136.916708,35.326435],[136.917138,35.32644],[136.91753,35.326466],[136.920001,35.326476],[136.920066,35.326933],[136.92009,35.326961],[136.920386,35.327065],[136.920621,35.327082],[136.920704,35.327211],[136.920748,35.327225],[136.92099,35.327235],[136.921268,35.32723],[136.921541,35.327253],[136.922133,35.327313],[136.922229,35.327309],[136.922533,35.327228],[136.922626,35.327217],[136.923042,35.327213],[136.924721,35.327311],[136.924728,35.328867],[136.924729,35.328948],[136.92473,35.33136],[136.924702,35.333259],[136.922008,35.3333],[136.921326,35.333311],[136.921059,35.333312],[136.920726,35.333315],[136.920434,35.332696],[136.919632,35.330982],[136.918687,35.328982],[136.916218,35.329016]]]}},{"type":"Feature","properties":{"name":"下小口","city":"大口町","code":"361","setai":1345,"jinko":3249,"n":7,"towns":["23361038001","23361038002","23361038003","23361038004","23361038005","23361038006","23361038007"],"lx":136.913432,"ly":35.33444},"geometry":{"type":"Polygon","coordinates":[[[136.906141,35.333339],[136.906183,35.333251],[136.906458,35.332697],[136.906472,35.33267],[136.90664,35.332355],[136.906812,35.331939],[136.906846,35.331831],[136.907256,35.330303],[136.907281,35.330213],[136.907587,35.329114],[136.916218,35.329016],[136.918687,35.328982],[136.919632,35.330982],[136.920434,35.332696],[136.920726,35.333315],[136.920605,35.333331],[136.919994,35.336555],[136.919864,35.337096],[136.919862,35.337105],[136.919564,35.337203],[136.919252,35.337205],[136.918946,35.337195],[136.91852,35.337175],[136.918416,35.33717],[136.918012,35.337148],[136.917453,35.337118],[136.917389,35.337078],[136.917265,35.336766],[136.917228,35.336695],[136.915867,35.336755],[136.915723,35.336779],[136.916085,35.337627],[136.916313,35.338125],[136.91648,35.338449],[136.917015,35.339451],[136.916737,35.339573],[136.916546,35.339629],[136.916291,35.339684],[136.916065,35.339723],[136.915045,35.339848],[136.915019,35.340081],[136.915019,35.340353],[136.914949,35.340839],[136.914959,35.341235],[136.914786,35.341248],[136.914404,35.341258],[136.914175,35.341302],[136.913968,35.341354],[136.913818,35.341391],[136.913513,35.341467],[136.913606,35.341717],[136.913695,35.342053],[136.913429,35.342028],[136.913126,35.342049],[136.912398,35.342038],[136.912276,35.342036],[136.912239,35.342017],[136.912035,35.341801],[136.911506,35.341473],[136.911321,35.34137],[136.911232,35.341326],[136.911123,35.341273],[136.91087,35.341162],[136.910542,35.341036],[136.910354,35.340956],[136.909786,35.340844],[136.909475,35.340743],[136.909318,35.340705],[136.909253,35.340663],[136.909215,35.340593],[136.90916,35.340439],[136.909108,35.340219],[136.909055,35.339928],[136.908996,35.339481],[136.908928,35.339254],[136.908904,35.339097],[136.908888,35.338872],[136.908846,35.338682],[136.908777,35.338547],[136.908751,35.33849],[136.908726,35.338341],[136.908727,35.338228],[136.908732,35.338085],[136.908776,35.337798],[136.908783,35.337692],[136.90878,35.337446],[136.908744,35.336896],[136.908739,35.336841],[136.908667,35.336455],[136.908607,35.336219],[136.908518,35.335962],[136.90849,35.335879],[136.908376,35.335592],[136.908227,35.335289],[136.908139,35.335149],[136.908056,35.335016],[136.907813,35.334675],[136.907568,35.33436],[136.907301,35.334058],[136.906954,35.333762],[136.906582,35.33353],[136.906441,35.333441],[136.906141,35.333339]]]}},{"type":"Feature","properties":{"name":"竹田","city":"大口町","code":"361","setai":362,"jinko":865,"n":3,"towns":["23361045201","23361045202","23361045203"],"lx":136.901048,"ly":35.335842},"geometry":{"type":"Polygon","coordinates":[[[136.893033,35.332454],[136.894253,35.332157],[136.894893,35.333473],[136.894758,35.33352],[136.895,35.333818],[136.89511,35.333912],[136.895194,35.333988],[136.89552,35.334247],[136.895613,35.334315],[136.895768,35.334355],[136.895923,35.334385],[136.896414,35.334363],[136.896224,35.333755],[136.896716,35.333589],[136.897151,35.333579],[136.897885,35.333562],[136.900638,35.3335],[136.900749,35.333494],[136.900821,35.333478],[136.901831,35.333447],[136.902327,35.333445],[136.902657,35.333449],[136.902628,35.332751],[136.902607,35.332519],[136.904108,35.332592],[136.904601,35.332675],[136.905105,35.332731],[136.905268,35.33277],[136.905468,35.33285],[136.906183,35.333251],[136.906141,35.333339],[136.906441,35.333441],[136.906582,35.33353],[136.906954,35.333762],[136.907301,35.334058],[136.907568,35.33436],[136.907813,35.334675],[136.908056,35.335016],[136.908139,35.335149],[136.908227,35.335289],[136.908376,35.335592],[136.90849,35.335879],[136.908518,35.335962],[136.908607,35.336219],[136.908667,35.336455],[136.908739,35.336841],[136.907826,35.336859],[136.906256,35.336932],[136.905298,35.336993],[136.904448,35.336984],[136.904446,35.337162],[136.904432,35.337214],[136.904358,35.337309],[136.904252,35.337402],[136.903941,35.337652],[136.90377,35.337756],[136.903473,35.338011],[136.903027,35.338289],[136.902875,35.338415],[136.902737,35.338552],[136.90257,35.33874],[136.902328,35.338953],[136.902171,35.339066],[136.901862,35.339275],[136.901552,35.339419],[136.901276,35.339547],[136.901074,35.339675],[136.900368,35.340113],[136.900188,35.340229],[136.899389,35.340704],[136.899125,35.340283],[136.898837,35.339941],[136.898708,35.339804],[136.898358,35.339443],[136.898095,35.339111],[136.897866,35.338856],[136.897574,35.338593],[136.897246,35.33826],[136.897012,35.338034],[136.8973,35.337719],[136.897383,35.337595],[136.896927,35.337367],[136.896547,35.337214],[136.896497,35.337186],[136.896088,35.336954],[136.895776,35.336719],[136.895539,35.336516],[136.895383,35.336386],[136.895235,35.336241],[136.895038,35.336096],[136.894892,35.335961],[136.89475,35.335856],[136.894583,35.335727],[136.894456,35.335612],[136.8944,35.335522],[136.894327,35.335397],[136.894282,35.335193],[136.894237,35.334939],[136.894164,35.334669],[136.894146,35.334633],[136.893685,35.333708],[136.893478,35.333321],[136.893033,35.332454]]]}},{"type":"Feature","properties":{"name":"小口","city":"大口町","code":"361","setai":544,"jinko":1487,"n":9,"towns":["23361045300","23361045301","23361045302","23361045303","23361045304","23361045305","23361045306","23361045307","23361045308"],"lx":136.916143,"ly":35.344344},"geometry":{"type":"Polygon","coordinates":[[[136.913013,35.342873],[136.913049,35.342867],[136.913449,35.342796],[136.913489,35.342789],[136.913656,35.342779],[136.913676,35.342552],[136.913938,35.34253],[136.913925,35.342338],[136.914514,35.342321],[136.914693,35.342327],[136.915207,35.342372],[136.915312,35.342382],[136.915316,35.342394],[136.915381,35.342402],[136.915627,35.342431],[136.915745,35.34244],[136.915861,35.342444],[136.915907,35.342442],[136.915979,35.342437],[136.916063,35.342425],[136.916172,35.342397],[136.916309,35.342351],[136.916475,35.342286],[136.916514,35.342269],[136.91648,35.342241],[136.916857,35.342157],[136.917125,35.342095],[136.917266,35.342045],[136.917481,35.341941],[136.917747,35.341787],[136.917895,35.341723],[136.91834,35.341647],[136.918529,35.341622],[136.918978,35.341662],[136.918923,35.341936],[136.918631,35.343393],[136.918459,35.344185],[136.918436,35.344317],[136.91818,35.345771],[136.918015,35.346701],[136.916681,35.346847],[136.91572,35.346933],[136.915655,35.346939],[136.914382,35.347054],[136.914363,35.346906],[136.91433,35.346639],[136.914283,35.346485],[136.914188,35.346237],[136.914106,35.345977],[136.914058,35.345736],[136.913942,35.345477],[136.913769,35.345133],[136.913694,35.344796],[136.913686,35.344761],[136.913659,35.344641],[136.913652,35.344608],[136.913485,35.343913],[136.913357,35.343551],[136.913296,35.343419],[136.91316,35.343195],[136.913085,35.343073],[136.913048,35.342987],[136.913013,35.342873]]]}},{"type":"Feature","properties":{"name":"さつきケ丘","city":"大口町","code":"361","setai":350,"jinko":841,"n":2,"towns":["23361045401","23361045402"],"lx":136.908773,"ly":35.346367},"geometry":{"type":"Polygon","coordinates":[[[136.906848,35.345194],[136.907245,35.344805],[136.907454,35.344646],[136.907514,35.344593],[136.907878,35.344174],[136.908083,35.344011],[136.908254,35.344151],[136.908473,35.344366],[136.908906,35.344324],[136.909261,35.344376],[136.909586,35.344413],[136.90982,35.344459],[136.910195,35.344429],[136.910248,35.344648],[136.910406,35.344722],[136.91067,35.344877],[136.91094,35.345062],[136.911028,35.345142],[136.91079,35.345301],[136.910453,35.345007],[136.910353,35.344931],[136.91027,35.3449],[136.909971,35.345003],[136.909529,35.34525],[136.90933,35.345347],[136.908627,35.345688],[136.908549,35.345712],[136.908981,35.346182],[136.909246,35.346349],[136.909378,35.346427],[136.90951,35.346503],[136.909654,35.346719],[136.910043,35.347282],[136.910103,35.347367],[136.910108,35.347425],[136.910342,35.347753],[136.910545,35.348048],[136.910632,35.34817],[136.910714,35.348208],[136.910825,35.348373],[136.910654,35.348452],[136.909814,35.348837],[136.909654,35.348913],[136.909318,35.349074],[136.909287,35.349033],[136.909279,35.349023],[136.909091,35.348773],[136.909105,35.348705],[136.908782,35.348293],[136.908771,35.348279],[136.908681,35.348164],[136.908586,35.348198],[136.90816,35.347546],[136.907811,35.347057],[136.907807,35.34705],[136.907558,35.346685],[136.907325,35.346415],[136.907368,35.346386],[136.907349,35.346361],[136.907015,35.346042],[136.906918,35.345739],[136.906856,35.345472],[136.906848,35.345194]]]}},{"type":"Feature","properties":{"name":"垣田","city":"大口町","code":"361","setai":344,"jinko":715,"n":1,"towns":["233610455"],"lx":136.910389,"ly":35.346332},"geometry":{"type":"Polygon","coordinates":[[[136.9108,35.3474],[136.91081,35.347215],[136.91101,35.347237],[136.91132,35.347012],[136.911405,35.346913],[136.911487,35.346851],[136.911694,35.346736],[136.911725,35.346682],[136.911712,35.346511],[136.911697,35.346237],[136.911661,35.346066],[136.9116,35.345954],[136.911293,35.34549],[136.911028,35.345142],[136.91079,35.345301],[136.910453,35.345007],[136.910353,35.344931],[136.91027,35.3449],[136.909971,35.345003],[136.909529,35.34525],[136.90933,35.345347],[136.908627,35.345688],[136.908549,35.345712],[136.908981,35.346182],[136.909246,35.346349],[136.909378,35.346427],[136.90951,35.346503],[136.909654,35.346719],[136.910043,35.347282],[136.910103,35.347367],[136.910108,35.347425],[136.910342,35.347753],[136.910545,35.348048],[136.910632,35.34817],[136.910714,35.348208],[136.910825,35.348373],[136.911385,35.348124],[136.911089,35.347811],[136.910863,35.347498],[136.9108,35.3474]]]}}]}