{"type":"FeatureCollection","features":[{"type":"Feature","properties":{"name":"高雄","city":"扶桑町","code":"362","setai":5774,"jinko":14617,"n":3,"towns":["23362001000","23362001001","23362001001"],"lx":136.928777,"ly":35.35912},"geometry":{"type":"Polygon","coordinates":[[[136.9094,35.363899],[136.909757,35.363669],[136.909827,35.363618],[136.910164,35.363387],[136.910553,35.363076],[136.910811,35.362848],[136.910033,35.362119],[136.910646,35.361621],[136.910507,35.361553],[136.910341,35.361422],[136.91028,35.361334],[136.910167,35.361245],[136.910708,35.360775],[136.911023,35.36057],[136.911249,35.360447],[136.911481,35.360327],[136.911894,35.360166],[136.912276,35.360055],[136.91208,35.359853],[136.912428,35.35925],[136.912524,35.35911],[136.912849,35.358523],[136.913196,35.357925],[136.913508,35.357478],[136.913996,35.357122],[136.913792,35.356942],[136.91376,35.356894],[136.913748,35.356846],[136.913773,35.356731],[136.913524,35.356402],[136.913969,35.35609],[136.914153,35.356253],[136.9143,35.356065],[136.914598,35.355739],[136.915881,35.354791],[136.917288,35.353734],[136.917401,35.353605],[136.917611,35.353278],[136.917753,35.352915],[136.917791,35.352632],[136.917831,35.350788],[136.918321,35.351135],[136.919153,35.351655],[136.919401,35.351541],[136.919803,35.35141],[136.920207,35.351327],[136.920723,35.351245],[136.921641,35.351072],[136.921649,35.351071],[136.923021,35.350848],[136.92362,35.350755],[136.925058,35.350533],[136.92505,35.350476],[136.926015,35.350309],[136.926078,35.350298],[136.926738,35.350186],[136.926944,35.350184],[136.927174,35.35021],[136.92737,35.350258],[136.927775,35.35042],[136.927899,35.350489],[136.928013,35.350368],[136.928098,35.350415],[136.928205,35.35045],[136.928732,35.350552],[136.929157,35.350631],[136.929681,35.350717],[136.929797,35.350736],[136.929864,35.349776],[136.930112,35.349787],[136.933036,35.349913],[136.934169,35.34998],[136.934583,35.350004],[136.935462,35.350052],[136.935433,35.350573],[136.936663,35.350631],[136.936695,35.35117],[136.93667,35.351227],[136.936665,35.351286],[136.936726,35.35161],[136.936736,35.351723],[136.936703,35.352492],[136.936721,35.353115],[136.936709,35.353518],[136.936793,35.353536],[136.936942,35.35359],[136.937501,35.353933],[136.937656,35.354043],[136.937885,35.354207],[136.938092,35.354362],[136.938252,35.354496],[136.93856,35.354791],[136.938715,35.354939],[136.938656,35.355027],[136.938646,35.355106],[136.938777,35.355228],[136.938855,35.355327],[136.938911,35.355439],[136.938945,35.355542],[136.938961,35.355678],[136.938962,35.355785],[136.938882,35.356597],[136.938792,35.357653],[136.938791,35.357698],[136.938787,35.358079],[136.938848,35.358523],[136.938926,35.358697],[136.938989,35.358847],[136.939611,35.359316],[136.939143,35.35964],[136.939461,35.360194],[136.939501,35.36029],[136.939573,35.360465],[136.939599,35.36081],[136.939415,35.361444],[136.939593,35.361503],[136.939533,35.361519],[136.939413,35.361534],[136.93927,35.361555],[136.939242,35.361574],[136.938801,35.361882],[136.938615,35.361709],[136.938434,35.361851],[136.938304,35.361843],[136.938043,35.361913],[136.937777,35.36202],[136.937436,35.362165],[136.937345,35.362219],[136.937491,35.362419],[136.937263,35.36268],[136.937053,35.362689],[136.936938,35.362661],[136.936784,35.362623],[136.936733,35.362596],[136.936704,35.362579],[136.936656,35.362563],[136.936509,35.362521],[136.936511,35.362687],[136.936512,35.362737],[136.936507,35.363166],[136.936512,35.363262],[136.936468,35.363254],[136.936333,35.363231],[136.936332,35.363231],[136.936315,35.36335],[136.936373,35.363357],[136.93646,35.363367],[136.93646,35.363372],[136.936461,35.363381],[136.936466,35.36355],[136.93647,35.363769],[136.936538,35.363811],[136.936744,35.364308],[136.936856,35.364605],[136.936767,35.364616],[136.936837,35.364833],[136.937,35.365112],[136.937133,35.365329],[136.937094,35.365399],[136.937048,35.365528],[136.937023,35.365671],[136.937014,35.365845],[136.936963,35.365838],[136.93697,35.366132],[136.937032,35.366134],[136.937039,35.366394],[136.937248,35.366433],[136.937849,35.366547],[136.937461,35.36864],[136.935797,35.368445],[136.9354,35.370461],[136.93402,35.370266],[136.933861,35.371116],[136.93364,35.371083],[136.933617,35.371208],[136.933787,35.371312],[136.93383,35.371334],[136.933785,35.3714],[136.933779,35.371408],[136.933708,35.371453],[136.933668,35.371475],[136.933657,35.371461],[136.933547,35.371292],[136.933492,35.371199],[136.933387,35.370988],[136.933058,35.370656],[136.932761,35.370407],[136.9325,35.370062],[136.932205,35.369655],[136.932169,35.369606],[136.932158,35.369612],[136.931959,35.369709],[136.931668,35.369248],[136.931462,35.368914],[136.931299,35.368718],[136.931192,35.36859],[136.930983,35.368357],[136.930682,35.368052],[136.930519,35.367702],[136.930362,35.367751],[136.930118,35.367823],[136.930051,35.367843],[136.929963,35.367869],[136.929869,35.367895],[136.929882,35.367929],[136.929696,35.368053],[136.929601,35.368127],[136.929494,35.368214],[136.929401,35.368288],[136.929284,35.368365],[136.929159,35.368413],[136.928925,35.368444],[136.92876,35.368501],[136.928696,35.368528],[136.928507,35.368633],[136.928291,35.368682],[136.928237,35.368718],[136.92816,35.368708],[136.928094,35.368691],[136.928056,35.368681],[136.927831,35.368637],[136.927768,35.36863],[136.927581,35.368664],[136.927563,35.368667],[136.927459,35.368689],[136.927314,35.368721],[136.92707,35.368783],[136.926933,35.368818],[136.926897,35.368827],[136.926823,35.368854],[136.926804,35.368861],[136.926738,35.368885],[136.92661,35.368942],[136.926557,35.368966],[136.926208,35.369125],[136.926099,35.368854],[136.925948,35.368482],[136.925826,35.368053],[136.925769,35.367907],[136.925717,35.367771],[136.925635,35.367309],[136.925586,35.366966],[136.925581,35.366937],[136.924722,35.367058],[136.924715,35.367059],[136.924607,35.367081],[136.924514,35.36709],[136.924214,35.367193],[136.923922,35.36736],[136.923749,35.367456],[136.923506,35.367285],[136.923262,35.367376],[136.923086,35.367265],[136.922792,35.367081],[136.92264,35.366984],[136.922827,35.366813],[136.922391,35.366518],[136.922298,35.366601],[136.922224,35.366669],[136.922163,35.366714],[136.922086,35.366663],[136.921993,35.36673],[136.921735,35.366529],[136.92167,35.366478],[136.921601,35.366424],[136.921552,35.366445],[136.921496,35.366468],[136.921261,35.366554],[136.920723,35.366774],[136.921081,35.367119],[136.921392,35.367498],[136.921069,35.367796],[136.920647,35.368274],[136.920481,35.368498],[136.92038,35.368438],[136.92008,35.368694],[136.91995,35.368755],[136.919667,35.368555],[136.919539,35.368653],[136.919181,35.368916],[136.919101,35.369009],[136.919,35.369092],[136.919156,35.369212],[136.919061,35.369277],[136.918558,35.369612],[136.918183,35.369949],[136.918178,35.369954],[136.917992,35.370137],[136.917776,35.37038],[136.917728,35.370461],[136.917707,35.370495],[136.917702,35.370509],[136.917691,35.370529],[136.917592,35.370716],[136.917505,35.370806],[136.917472,35.370841],[136.917048,35.371264],[136.916931,35.371381],[136.916907,35.371404],[136.916558,35.371102],[136.916292,35.370859],[136.916021,35.370611],[136.915736,35.370409],[136.915318,35.370113],[136.914945,35.369821],[136.91428,35.369271],[136.913452,35.368651],[136.91285,35.368146],[136.912437,35.367834],[136.912168,35.367552],[136.911796,35.367091],[136.911621,35.366798],[136.911608,35.366368],[136.911567,35.366023],[136.911364,35.365765],[136.911207,35.36562],[136.910955,35.365362],[136.910472,35.364858],[136.910121,35.364488],[136.909783,35.364182],[136.9094,35.363899]]]}},{"type":"Feature","properties":{"name":"山那","city":"扶桑町","code":"362","setai":202,"jinko":695,"n":1,"towns":["233620020"],"lx":136.915971,"ly":35.374632},"geometry":{"type":"Polygon","coordinates":[[[136.921588,35.377613],[136.922334,35.376577],[136.92276,35.376578],[136.922884,35.376545],[136.922966,35.3765],[136.923055,35.376423],[136.923167,35.376288],[136.923182,35.376253],[136.923221,35.376158],[136.923317,35.375953],[136.923415,35.375754],[136.923374,35.375668],[136.923332,35.375569],[136.923286,35.375444],[136.923116,35.375512],[136.923023,35.375451],[136.922802,35.375312],[136.922586,35.375181],[136.92239,35.375072],[136.921994,35.374826],[136.92166,35.374629],[136.9216,35.374581],[136.921414,35.374431],[136.920453,35.373742],[136.919683,35.373215],[136.919354,35.372964],[136.919007,35.372786],[136.918669,35.372595],[136.918011,35.372253],[136.917942,35.372217],[136.917649,35.372028],[136.916931,35.371381],[136.916907,35.371404],[136.916558,35.371102],[136.916292,35.370859],[136.916021,35.370611],[136.915736,35.370409],[136.915166,35.370966],[136.914609,35.371562],[136.914238,35.371924],[136.913977,35.372215],[136.913701,35.372524],[136.913154,35.372304],[136.912706,35.372127],[136.912475,35.372029],[136.911871,35.371836],[136.911294,35.371714],[136.910819,35.371623],[136.910478,35.371533],[136.909915,35.371371],[136.909198,35.371335],[136.908447,35.371298],[136.907652,35.371289],[136.907139,35.371281],[136.906953,35.371248],[136.90649,35.371164],[136.906225,35.371106],[136.905974,35.37108],[136.905559,35.371085],[136.905068,35.371102],[136.904727,35.371122],[136.904796,35.371575],[136.905611,35.371791],[136.905628,35.371964],[136.906249,35.371976],[136.906375,35.372751],[136.906378,35.372775],[136.906382,35.372825],[136.906543,35.373742],[136.906024,35.373756],[136.905135,35.373803],[136.90414,35.373882],[136.903266,35.374008],[136.902292,35.37415],[136.901743,35.374188],[136.901708,35.374215],[136.901624,35.374353],[136.901541,35.374431],[136.901467,35.374477],[136.901387,35.374514],[136.901368,35.374207],[136.900501,35.374278],[136.899883,35.374289],[136.899699,35.374277],[136.899461,35.374247],[136.899241,35.374183],[136.899039,35.374107],[136.898885,35.374024],[136.898431,35.373749],[136.898,35.373582],[136.897636,35.373472],[136.897592,35.373514],[136.897576,35.37353],[136.897391,35.373713],[136.897105,35.373937],[136.896874,35.374128],[136.896656,35.374311],[136.896472,35.374434],[136.896287,35.37453],[136.89588,35.374586],[136.895541,35.374609],[136.89519,35.374636],[136.894801,35.374685],[136.894535,35.374735],[136.894382,35.374957],[136.894339,35.375037],[136.894231,35.375262],[136.893401,35.376679],[136.892516,35.378085],[136.89251,35.378094],[136.89252,35.378616],[136.897408,35.378269],[136.900571,35.377996],[136.901955,35.377738],[136.905008,35.377524],[136.909427,35.377469],[136.913677,35.377451],[136.91597,35.377756],[136.916564,35.377888],[136.918122,35.378183],[136.919727,35.378464],[136.921082,35.378686],[136.921425,35.378846],[136.921588,35.377613]]]}},{"type":"Feature","properties":{"name":"小淵","city":"扶桑町","code":"362","setai":246,"jinko":654,"n":1,"towns":["233620030"],"lx":136.900696,"ly":35.372454},"geometry":{"type":"Polygon","coordinates":[[[136.901708,35.374215],[136.901743,35.374188],[136.902292,35.37415],[136.903266,35.374008],[136.90414,35.373882],[136.905135,35.373803],[136.906024,35.373756],[136.906543,35.373742],[136.906382,35.372825],[136.906378,35.372775],[136.906375,35.372751],[136.906249,35.371976],[136.905628,35.371964],[136.905611,35.371791],[136.904796,35.371575],[136.904727,35.371122],[136.904349,35.371147],[136.903836,35.371152],[136.903466,35.371153],[136.902854,35.37107],[136.902235,35.370925],[136.901564,35.370769],[136.901273,35.370702],[136.900988,35.370664],[136.900652,35.370647],[136.900206,35.370578],[136.89944,35.370474],[136.899067,35.370419],[136.89866,35.370384],[136.898428,35.370388],[136.898241,35.370428],[136.898366,35.370564],[136.898603,35.370886],[136.898862,35.371342],[136.898936,35.371523],[136.898969,35.371642],[136.898986,35.371764],[136.898962,35.371888],[136.898938,35.37205],[136.898908,35.372203],[136.898823,35.372435],[136.898683,35.372742],[136.898487,35.373098],[136.898333,35.373383],[136.89803,35.37335],[136.897832,35.37324],[136.897711,35.373401],[136.897636,35.373472],[136.898,35.373582],[136.898431,35.373749],[136.898885,35.374024],[136.899039,35.374107],[136.899241,35.374183],[136.899461,35.374247],[136.899699,35.374277],[136.899883,35.374289],[136.900501,35.374278],[136.901368,35.374207],[136.901387,35.374514],[136.901467,35.374477],[136.901541,35.374431],[136.901624,35.374353],[136.901708,35.374215]]]}},{"type":"Feature","properties":{"name":"南山名","city":"扶桑町","code":"362","setai":1230,"jinko":3395,"n":1,"towns":["233620040"],"lx":136.903025,"ly":35.365416},"geometry":{"type":"Polygon","coordinates":[[[136.914609,35.371562],[136.915166,35.370966],[136.915736,35.370409],[136.915318,35.370113],[136.914945,35.369821],[136.91428,35.369271],[136.913452,35.368651],[136.91285,35.368146],[136.912437,35.367834],[136.912168,35.367552],[136.911796,35.367091],[136.911621,35.366798],[136.911608,35.366368],[136.911567,35.366023],[136.911364,35.365765],[136.911207,35.36562],[136.910955,35.365362],[136.910472,35.364858],[136.910121,35.364488],[136.909783,35.364182],[136.9094,35.363899],[136.909229,35.363752],[136.909111,35.363604],[136.908986,35.363407],[136.908443,35.362715],[136.908132,35.362467],[136.907767,35.362124],[136.907501,35.36192],[136.907218,35.361613],[136.906757,35.361231],[136.906018,35.360748],[136.905817,35.360616],[136.905501,35.360448],[136.904886,35.360118],[136.904418,35.360012],[136.904204,35.359956],[136.903453,35.359887],[136.903094,35.35984],[136.902728,35.359796],[136.902423,35.359749],[136.901716,35.359694],[136.901317,35.359705],[136.900979,35.359794],[136.900706,35.359836],[136.896888,35.360717],[136.896891,35.360728],[136.89687,35.360733],[136.895715,35.361027],[136.895328,35.36116],[136.895013,35.361291],[136.894777,35.361453],[136.894704,35.361511],[136.894553,35.361633],[136.894921,35.361788],[136.895219,35.361972],[136.895313,35.362098],[136.895364,35.36219],[136.895452,35.362325],[136.895533,35.362432],[136.895579,35.362585],[136.89558,35.362706],[136.895614,35.362803],[136.895692,35.362926],[136.895752,35.363053],[136.895854,35.363236],[136.895891,35.363396],[136.895893,35.363402],[136.895868,35.363552],[136.895787,35.363721],[136.895742,35.363818],[136.895661,35.363994],[136.89563,35.364109],[136.895672,35.364211],[136.895766,35.364369],[136.895768,35.364372],[136.895894,35.364524],[136.895944,35.364675],[136.895958,35.364818],[136.895965,35.364858],[136.895974,35.364915],[136.896153,35.365296],[136.896284,35.365509],[136.896393,35.365693],[136.896407,35.365788],[136.896387,35.365859],[136.896307,35.366009],[136.896182,35.36622],[136.896128,35.366336],[136.896069,35.36645],[136.896,35.366609],[136.895988,35.366739],[136.896014,35.366837],[136.896116,35.367035],[136.896305,35.367415],[136.89639,35.367622],[136.896632,35.367786],[136.896688,35.367833],[136.8967,35.367843],[136.896831,35.368008],[136.896947,35.368231],[136.89698,35.368285],[136.897076,35.368491],[136.897199,35.368698],[136.897315,35.368992],[136.897351,35.369094],[136.897461,35.369272],[136.897596,35.36948],[136.897716,35.369765],[136.897761,35.369853],[136.897996,35.370151],[136.898162,35.37034],[136.89822,35.370405],[136.898241,35.370428],[136.898428,35.370388],[136.89866,35.370384],[136.899067,35.370419],[136.89944,35.370474],[136.900206,35.370578],[136.900652,35.370647],[136.900988,35.370664],[136.901273,35.370702],[136.901564,35.370769],[136.902235,35.370925],[136.902854,35.37107],[136.903466,35.371153],[136.903836,35.371152],[136.904349,35.371147],[136.904727,35.371122],[136.905068,35.371102],[136.905559,35.371085],[136.905974,35.37108],[136.906225,35.371106],[136.90649,35.371164],[136.906953,35.371248],[136.907139,35.371281],[136.907652,35.371289],[136.908447,35.371298],[136.909198,35.371335],[136.909915,35.371371],[136.910478,35.371533],[136.910819,35.371623],[136.911294,35.371714],[136.911871,35.371836],[136.912475,35.372029],[136.912706,35.372127],[136.913154,35.372304],[136.913701,35.372524],[136.913977,35.372215],[136.914238,35.371924],[136.914609,35.371562]]]}},{"type":"Feature","properties":{"name":"斎藤","city":"扶桑町","code":"362","setai":1883,"jinko":4858,"n":1,"towns":["233620050"],"lx":136.899113,"ly":35.355851},"geometry":{"type":"Polygon","coordinates":[[[136.907086,35.360873],[136.907856,35.360116],[136.908163,35.359812],[136.90807,35.359707],[136.907848,35.359554],[136.90844,35.359211],[136.909069,35.3589],[136.908771,35.358753],[136.908785,35.358735],[136.909105,35.358298],[136.909437,35.357848],[136.909655,35.357552],[136.909805,35.35731],[136.910118,35.356878],[136.910153,35.356653],[136.910205,35.356255],[136.910257,35.355946],[136.910159,35.355954],[136.909343,35.355887],[136.908456,35.355777],[136.908023,35.355675],[136.907385,35.355496],[136.906604,35.35496],[136.904842,35.353804],[136.904175,35.353364],[136.903807,35.353135],[136.903534,35.352959],[136.902662,35.352392],[136.902306,35.35215],[136.901964,35.352645],[136.90085,35.351923],[136.899896,35.351289],[136.89951,35.351018],[136.898969,35.35067],[136.898581,35.350433],[136.898211,35.349915],[136.897932,35.350198],[136.897701,35.349863],[136.897601,35.349625],[136.897454,35.349272],[136.897223,35.348741],[136.896436,35.348222],[136.895057,35.347304],[136.894986,35.347361],[136.894768,35.347612],[136.894766,35.347615],[136.894617,35.347699],[136.894481,35.347757],[136.894323,35.347801],[136.894179,35.348078],[136.894255,35.348147],[136.893945,35.348343],[136.89407,35.348474],[136.893941,35.348556],[136.894103,35.34873],[136.894067,35.348757],[136.894119,35.348858],[136.89414,35.3489],[136.89418,35.34907],[136.894192,35.349227],[136.894156,35.34938],[136.89412,35.349524],[136.894048,35.349715],[136.894015,35.349751],[136.893971,35.349761],[136.893867,35.349677],[136.893697,35.349852],[136.893717,35.34993],[136.893841,35.35002],[136.893794,35.350103],[136.893665,35.350162],[136.893604,35.350257],[136.893122,35.351012],[136.893107,35.351036],[136.892812,35.351797],[136.892372,35.352886],[136.892363,35.352898],[136.892019,35.353364],[136.891645,35.353676],[136.892275,35.354182],[136.892661,35.354534],[136.892727,35.354601],[136.892741,35.354615],[136.892909,35.354786],[136.893135,35.35501],[136.893262,35.355165],[136.893457,35.355369],[136.893595,35.355518],[136.89377,35.355741],[136.894032,35.3561],[136.894204,35.356381],[136.894574,35.356963],[136.894577,35.356968],[136.894586,35.356982],[136.894923,35.357378],[136.895183,35.357699],[136.895453,35.358051],[136.895719,35.358394],[136.895953,35.358744],[136.896119,35.359057],[136.896269,35.35931],[136.896432,35.359585],[136.896505,35.359711],[136.896521,35.35974],[136.896645,35.359956],[136.896794,35.360418],[136.896888,35.360717],[136.900706,35.359836],[136.900979,35.359794],[136.901317,35.359705],[136.901716,35.359694],[136.902423,35.359749],[136.902728,35.359796],[136.903094,35.35984],[136.903453,35.359887],[136.904204,35.359956],[136.904418,35.360012],[136.904886,35.360118],[136.905501,35.360448],[136.905817,35.360616],[136.906018,35.360748],[136.906552,35.360441],[136.90664,35.360489],[136.907086,35.360873]]]}},{"type":"Feature","properties":{"name":"高木","city":"扶桑町","code":"362","setai":714,"jinko":1623,"n":1,"towns":["233620060"],"lx":136.911822,"ly":35.356937},"geometry":{"type":"Polygon","coordinates":[[[136.910167,35.361245],[136.910708,35.360775],[136.911023,35.36057],[136.911249,35.360447],[136.911481,35.360327],[136.911894,35.360166],[136.912276,35.360055],[136.91208,35.359853],[136.912428,35.35925],[136.912524,35.35911],[136.912849,35.358523],[136.913196,35.357925],[136.913508,35.357478],[136.913996,35.357122],[136.913792,35.356942],[136.91376,35.356894],[136.913748,35.356846],[136.913773,35.356731],[136.913524,35.356402],[136.913253,35.356024],[136.912794,35.355408],[136.912058,35.354461],[136.911652,35.353961],[136.911285,35.354127],[136.910921,35.354312],[136.910824,35.354366],[136.910768,35.354417],[136.910727,35.354471],[136.910523,35.354293],[136.91024,35.354554],[136.910265,35.354619],[136.910342,35.354619],[136.910344,35.354741],[136.91018,35.354767],[136.9102,35.354905],[136.910158,35.354945],[136.910171,35.355223],[136.909771,35.355229],[136.909463,35.355288],[136.909176,35.35526],[136.909168,35.35526],[136.908952,35.355294],[136.908016,35.355152],[136.908009,35.354996],[136.906737,35.354988],[136.906604,35.35496],[136.907385,35.355496],[136.908023,35.355675],[136.908456,35.355777],[136.909343,35.355887],[136.910159,35.355954],[136.910257,35.355946],[136.910205,35.356255],[136.910153,35.356653],[136.910118,35.356878],[136.909805,35.35731],[136.909655,35.357552],[136.909437,35.357848],[136.909105,35.358298],[136.908785,35.358735],[136.908771,35.358753],[136.909069,35.3589],[136.90844,35.359211],[136.907848,35.359554],[136.90807,35.359707],[136.908163,35.359812],[136.907856,35.360116],[136.907086,35.360873],[136.90664,35.360489],[136.906552,35.360441],[136.906018,35.360748],[136.906757,35.361231],[136.907218,35.361613],[136.907501,35.36192],[136.907767,35.362124],[136.908132,35.362467],[136.908443,35.362715],[136.908986,35.363407],[136.909111,35.363604],[136.909229,35.363752],[136.9094,35.363899],[136.909757,35.363669],[136.909827,35.363618],[136.910164,35.363387],[136.910553,35.363076],[136.910811,35.362848],[136.910033,35.362119],[136.910646,35.361621],[136.910507,35.361553],[136.910341,35.361422],[136.91028,35.361334],[136.910167,35.361245]]]}},{"type":"Feature","properties":{"name":"柏森","city":"扶桑町","code":"362","setai":3460,"jinko":8291,"n":1,"towns":["233620070"],"lx":136.904796,"ly":35.349299},"geometry":{"type":"Polygon","coordinates":[[[136.913524,35.356402],[136.913969,35.35609],[136.914153,35.356253],[136.9143,35.356065],[136.914598,35.355739],[136.915881,35.354791],[136.917288,35.353734],[136.917401,35.353605],[136.917611,35.353278],[136.917753,35.352915],[136.917791,35.352632],[136.917831,35.350788],[136.917704,35.350703],[136.917703,35.350702],[136.917559,35.350605],[136.917346,35.350458],[136.917146,35.350398],[136.916685,35.350184],[136.91639,35.3501],[136.91609,35.350042],[136.916014,35.350045],[136.915219,35.349887],[136.915013,35.349828],[136.91486,35.349786],[136.914581,35.349742],[136.91435,35.349734],[136.914269,35.349734],[136.913912,35.349614],[136.913736,35.349522],[136.913557,35.349408],[136.913421,35.349299],[136.913248,35.349166],[136.912947,35.348994],[136.912766,35.348876],[136.912706,35.348828],[136.912644,35.348778],[136.912392,35.348553],[136.912037,35.348367],[136.911948,35.348283],[136.911682,35.347991],[136.911385,35.348124],[136.910825,35.348373],[136.910654,35.348452],[136.909814,35.348837],[136.909654,35.348913],[136.909318,35.349074],[136.909287,35.349033],[136.909279,35.349023],[136.909091,35.348773],[136.909105,35.348705],[136.908782,35.348293],[136.908771,35.348279],[136.908681,35.348164],[136.908586,35.348198],[136.90816,35.347546],[136.907811,35.347057],[136.907807,35.34705],[136.907558,35.346685],[136.907325,35.346415],[136.907368,35.346386],[136.907349,35.346361],[136.907015,35.346042],[136.906918,35.345739],[136.906856,35.345472],[136.906848,35.345194],[136.906793,35.345181],[136.906424,35.345205],[136.905538,35.345366],[136.90543,35.345386],[136.90476,35.345486],[136.904096,35.345607],[136.903488,35.345719],[136.903483,35.345706],[136.903477,35.345691],[136.903415,35.345587],[136.903257,35.345359],[136.903032,35.345123],[136.902837,35.344944],[136.902335,35.34448],[136.90225,35.344355],[136.902187,35.34428],[136.902144,35.344251],[136.902054,35.344225],[136.902026,35.344203],[136.901983,35.344168],[136.901718,35.34392],[136.901519,35.343813],[136.901463,35.343767],[136.901343,35.343639],[136.901246,35.343587],[136.90105,35.343479],[136.900993,35.343429],[136.900779,35.34317],[136.900699,35.343102],[136.900659,35.343068],[136.900523,35.342926],[136.900409,35.342814],[136.900345,35.342726],[136.900277,35.342598],[136.900206,35.342515],[136.900159,35.342464],[136.899962,35.342265],[136.899914,35.342197],[136.899869,35.342059],[136.899822,35.341852],[136.899795,35.341761],[136.899768,35.34167],[136.899571,35.341096],[136.899375,35.341224],[136.898842,35.341442],[136.89833,35.341649],[136.897662,35.341775],[136.897106,35.341891],[136.897034,35.341904],[136.896666,35.341972],[136.896327,35.342034],[136.895979,35.342114],[136.895781,35.342197],[136.895397,35.342285],[136.89512,35.342348],[136.894929,35.342359],[136.894761,35.342373],[136.89462,35.342419],[136.894105,35.342675],[136.893683,35.342937],[136.893463,35.34309],[136.893118,35.343375],[136.893083,35.343516],[136.89299,35.343713],[136.892915,35.343774],[136.892825,35.343847],[136.892655,35.343982],[136.892399,35.344242],[136.891946,35.344639],[136.892694,35.345052],[136.893124,35.345258],[136.893193,35.345469],[136.893386,35.345614],[136.893438,35.345653],[136.893607,35.345754],[136.893759,35.345846],[136.893972,35.345966],[136.894064,35.346057],[136.894193,35.346189],[136.894312,35.346331],[136.89445,35.34651],[136.894452,35.346512],[136.894666,35.34681],[136.895243,35.347155],[136.895057,35.347304],[136.896436,35.348222],[136.897223,35.348741],[136.897454,35.349272],[136.897601,35.349625],[136.897701,35.349863],[136.897932,35.350198],[136.898211,35.349915],[136.898581,35.350433],[136.898969,35.35067],[136.89951,35.351018],[136.899896,35.351289],[136.90085,35.351923],[136.901964,35.352645],[136.902306,35.35215],[136.902662,35.352392],[136.903534,35.352959],[136.903807,35.353135],[136.904175,35.353364],[136.904842,35.353804],[136.906604,35.35496],[136.906737,35.354988],[136.908009,35.354996],[136.908016,35.355152],[136.908952,35.355294],[136.909168,35.35526],[136.909176,35.35526],[136.909463,35.355288],[136.909771,35.355229],[136.910171,35.355223],[136.910158,35.354945],[136.9102,35.354905],[136.91018,35.354767],[136.910344,35.354741],[136.910342,35.354619],[136.910265,35.354619],[136.91024,35.354554],[136.910523,35.354293],[136.910727,35.354471],[136.910768,35.354417],[136.910824,35.354366],[136.910921,35.354312],[136.911285,35.354127],[136.911652,35.353961],[136.912058,35.354461],[136.912794,35.355408],[136.913253,35.356024],[136.913524,35.356402]]]}}]}