{"type":"FeatureCollection","features":[{"type":"Feature","properties":{"name":"服岡","city":"飛島村","code":"427","setai":151,"jinko":634,"n":1,"towns":["234270010"],"lx":136.788744,"ly":35.090601},"geometry":{"type":"Polygon","coordinates":[[[136.795003,35.097148],[136.795462,35.097127],[136.795901,35.097133],[136.796317,35.097157],[136.796327,35.097491],[136.796829,35.097341],[136.797208,35.097187],[136.797907,35.096952],[136.797904,35.096874],[136.798346,35.096721],[136.798384,35.0967],[136.798458,35.096669],[136.798888,35.09652],[136.799313,35.096388],[136.799559,35.096301],[136.799908,35.096187],[136.800003,35.096157],[136.800522,35.096092],[136.800961,35.096017],[136.799365,35.093552],[136.797093,35.093519],[136.797167,35.091892],[136.797179,35.089585],[136.79716,35.088972],[136.79718,35.087951],[136.797187,35.087896],[136.797017,35.087883],[136.792337,35.087831],[136.787987,35.087794],[136.785685,35.087776],[136.785203,35.087753],[136.785162,35.087701],[136.785166,35.0875],[136.785259,35.085921],[136.785372,35.084537],[136.780985,35.084396],[136.774418,35.084185],[136.774539,35.085454],[136.775153,35.085526],[136.775182,35.085653],[136.775561,35.085618],[136.77596,35.085679],[136.776181,35.085723],[136.776511,35.086001],[136.776875,35.086297],[136.777595,35.086529],[136.77783,35.086641],[136.77797,35.086749],[136.778047,35.086935],[136.777983,35.087115],[136.777931,35.08745],[136.777924,35.087518],[136.777958,35.08759],[136.778762,35.088709],[136.779478,35.089709],[136.779939,35.090405],[136.780293,35.09088],[136.78034,35.090916],[136.780477,35.090947],[136.780519,35.090957],[136.782006,35.091297],[136.78298,35.091497],[136.784016,35.091764],[136.784721,35.092017],[136.785082,35.09218],[136.785975,35.092697],[136.786692,35.093136],[136.7871,35.09339],[136.788505,35.094264],[136.789903,35.095062],[136.790454,35.095386],[136.791231,35.095896],[136.791559,35.096163],[136.792075,35.096792],[136.792445,35.09754],[136.792634,35.097976],[136.793311,35.097674],[136.793866,35.097426],[136.795003,35.097148]]]}},{"type":"Feature","properties":{"name":"三福","city":"飛島村","code":"427","setai":32,"jinko":106,"n":1,"towns":["234270020"],"lx":136.804552,"ly":35.091269},"geometry":{"type":"Polygon","coordinates":[[[136.804522,35.087972],[136.797187,35.087896],[136.79718,35.087951],[136.79716,35.088972],[136.797179,35.089585],[136.797167,35.091892],[136.797093,35.093519],[136.799365,35.093552],[136.800961,35.096017],[136.801898,35.095888],[136.802046,35.095879],[136.802558,35.095841],[136.802798,35.095823],[136.803011,35.095807],[136.803388,35.095766],[136.803699,35.095732],[136.80402,35.095686],[136.804328,35.095641],[136.804506,35.095616],[136.804729,35.095577],[136.805133,35.095508],[136.805163,35.095503],[136.805299,35.095475],[136.805398,35.095455],[136.805517,35.095431],[136.805517,35.095431],[136.805518,35.095431],[136.805583,35.095417],[136.805901,35.095337],[136.80607,35.095295],[136.806185,35.095266],[136.806305,35.095231],[136.806698,35.095115],[136.806698,35.095115],[136.806827,35.095076],[136.806828,35.095076],[136.806991,35.095025],[136.807076,35.094998],[136.807076,35.094997],[136.807077,35.094997],[136.807378,35.094894],[136.807378,35.094894],[136.807483,35.094851],[136.807483,35.094851],[136.807526,35.094832],[136.807547,35.094823],[136.807623,35.094788],[136.807678,35.094764],[136.807685,35.09476],[136.807698,35.094755],[136.807712,35.094748],[136.807726,35.094742],[136.807742,35.094735],[136.807761,35.094726],[136.807783,35.094716],[136.807783,35.094716],[136.807785,35.094715],[136.80779,35.094713],[136.807796,35.09471],[136.807851,35.094682],[136.807974,35.094619],[136.807999,35.094606],[136.808062,35.094574],[136.808152,35.094529],[136.808181,35.094514],[136.808185,35.094512],[136.808186,35.094511],[136.808187,35.094511],[136.808188,35.09451],[136.808196,35.094506],[136.808207,35.0945],[136.808337,35.094431],[136.808337,35.09443],[136.808337,35.09443],[136.808338,35.09443],[136.8084,35.094396],[136.808459,35.094365],[136.808704,35.094232],[136.808761,35.0942],[136.808761,35.0942],[136.808806,35.094175],[136.808916,35.094114],[136.808917,35.094113],[136.808917,35.094113],[136.808918,35.094113],[136.808918,35.094113],[136.808918,35.094113],[136.808921,35.094111],[136.808924,35.09411],[136.808925,35.094109],[136.808926,35.094108],[136.808928,35.094107],[136.80893,35.094106],[136.808931,35.094105],[136.808933,35.094104],[136.808935,35.094103],[136.808939,35.094101],[136.808941,35.0941],[136.808945,35.094098],[136.808949,35.094096],[136.808952,35.094094],[136.808956,35.094091],[136.808961,35.094089],[136.808967,35.094085],[136.808977,35.09408],[136.808985,35.094075],[136.808992,35.094071],[136.809021,35.094055],[136.809028,35.094051],[136.809034,35.094048],[136.809045,35.094041],[136.809057,35.094035],[136.809067,35.094029],[136.809088,35.094018],[136.809111,35.094005],[136.809115,35.094002],[136.809125,35.093997],[136.809129,35.093994],[136.809136,35.09399],[136.809142,35.093987],[136.809147,35.093984],[136.809151,35.093982],[136.809155,35.09398],[136.809157,35.093979],[136.80916,35.093977],[136.809163,35.093975],[136.809168,35.093973],[136.809172,35.093971],[136.809174,35.093969],[136.809175,35.093969],[136.809176,35.093968],[136.809177,35.093968],[136.809178,35.093967],[136.809181,35.093966],[136.809181,35.093965],[136.809187,35.093962],[136.80945,35.093798],[136.809653,35.093647],[136.809653,35.093647],[136.809656,35.093644],[136.809658,35.093642],[136.80966,35.093641],[136.809662,35.093639],[136.809664,35.093637],[136.809666,35.093635],[136.809669,35.093633],[136.809671,35.093631],[136.809673,35.093629],[136.809675,35.093627],[136.809677,35.093625],[136.80968,35.093623],[136.809682,35.09362],[136.809685,35.093618],[136.809687,35.093617],[136.809689,35.093615],[136.809691,35.093613],[136.809693,35.093611],[136.809696,35.093608],[136.809699,35.093606],[136.809702,35.093603],[136.809705,35.0936],[136.809708,35.093597],[136.809711,35.093595],[136.809713,35.093593],[136.809717,35.093589],[136.809721,35.093586],[136.809724,35.093583],[136.809728,35.09358],[136.809731,35.093577],[136.809734,35.093574],[136.809737,35.093572],[136.809739,35.09357],[136.809742,35.093567],[136.809746,35.093564],[136.809749,35.09356],[136.809933,35.093395],[136.809941,35.093389],[136.809952,35.093379],[136.809963,35.093369],[136.809971,35.093362],[136.809977,35.093356],[136.809979,35.093354],[136.809981,35.093353],[136.809982,35.093352],[136.809984,35.09335],[136.810149,35.093126],[136.81023,35.093017],[136.81039,35.092802],[136.810588,35.092544],[136.810702,35.092396],[136.810839,35.092219],[136.810937,35.092067],[136.810949,35.092049],[136.811064,35.091873],[136.811143,35.09175],[136.811419,35.091457],[136.811488,35.091384],[136.812122,35.090724],[136.812473,35.090369],[136.813032,35.089804],[136.813153,35.089686],[136.813602,35.089275],[136.81399,35.08892],[136.814426,35.088521],[136.814705,35.088265],[136.814806,35.088172],[136.809886,35.088033],[136.804522,35.087972]]]}},{"type":"Feature","properties":{"name":"渚","city":"飛島村","code":"427","setai":167,"jinko":566,"n":1,"towns":["234270030"],"lx":136.801747,"ly":35.085964},"geometry":{"type":"Polygon","coordinates":[[[136.820115,35.083961],[136.820122,35.083955],[136.820101,35.083958],[136.819991,35.083975],[136.812419,35.08403],[136.811573,35.084031],[136.809894,35.084043],[136.808822,35.084062],[136.793015,35.084145],[136.792329,35.084148],[136.789297,35.084176],[136.785922,35.084184],[136.78542,35.084189],[136.785376,35.08419],[136.785372,35.084537],[136.785259,35.085921],[136.785166,35.0875],[136.785162,35.087701],[136.785203,35.087753],[136.785685,35.087776],[136.787987,35.087794],[136.792337,35.087831],[136.797017,35.087883],[136.797187,35.087896],[136.804522,35.087972],[136.809886,35.088033],[136.814806,35.088172],[136.814912,35.088076],[136.814923,35.088065],[136.814924,35.088065],[136.814926,35.088063],[136.814928,35.088061],[136.81493,35.088059],[136.814936,35.088054],[136.814941,35.088049],[136.814945,35.088045],[136.814948,35.088043],[136.814951,35.08804],[136.814954,35.088038],[136.814958,35.088034],[136.81496,35.088032],[136.814966,35.088027],[136.81497,35.088023],[136.814974,35.088019],[136.814978,35.088016],[136.814981,35.088013],[136.814982,35.088012],[136.814986,35.088008],[136.814989,35.088005],[136.814992,35.088003],[136.814996,35.087999],[136.815006,35.08799],[136.815016,35.087981],[136.815023,35.087974],[136.815029,35.087969],[136.815034,35.087965],[136.815043,35.087956],[136.815053,35.087947],[136.81506,35.087941],[136.815067,35.087934],[136.815072,35.08793],[136.81508,35.087922],[136.815087,35.087916],[136.815092,35.087911],[136.815099,35.087905],[136.815106,35.087899],[136.815112,35.087893],[136.815124,35.087882],[136.81513,35.087877],[136.815134,35.087873],[136.815143,35.087865],[136.815151,35.087857],[136.815155,35.087854],[136.815164,35.087846],[136.815171,35.087839],[136.815178,35.087833],[136.815179,35.087832],[136.815304,35.087718],[136.815628,35.087424],[136.815908,35.087171],[136.81611,35.086986],[136.816233,35.08687],[136.816321,35.086787],[136.816467,35.086648],[136.816649,35.086483],[136.816962,35.086225],[136.817198,35.086054],[136.817229,35.086031],[136.817368,35.08593],[136.817596,35.085781],[136.817866,35.085611],[136.817868,35.08561],[136.818063,35.085472],[136.818173,35.085394],[136.818188,35.085383],[136.818328,35.085284],[136.818358,35.085263],[136.818358,35.085262],[136.81839,35.085239],[136.818393,35.085237],[136.818412,35.085223],[136.818431,35.085208],[136.818441,35.085201],[136.818454,35.085192],[136.81847,35.08518],[136.818494,35.085162],[136.81852,35.085142],[136.818569,35.085106],[136.81864,35.085053],[136.818683,35.085022],[136.818742,35.084978],[136.818793,35.08494],[136.818954,35.084821],[136.819208,35.084633],[136.819253,35.084599],[136.819552,35.084377],[136.819738,35.084239],[136.819743,35.084236],[136.820115,35.083961]]]}},{"type":"Feature","properties":{"name":"大宝","city":"飛島村","code":"427","setai":178,"jinko":629,"n":1,"towns":["234270041"],"lx":136.771213,"ly":35.089807},"geometry":{"type":"Polygon","coordinates":[[[136.780591,35.091778],[136.780594,35.091747],[136.780601,35.091649],[136.780599,35.091602],[136.780586,35.091392],[136.780584,35.091356],[136.780589,35.091279],[136.780594,35.091247],[136.780429,35.091223],[136.780309,35.091187],[136.78034,35.090916],[136.780293,35.09088],[136.779939,35.090405],[136.779478,35.089709],[136.778762,35.088709],[136.777958,35.08759],[136.777924,35.087518],[136.777931,35.08745],[136.777983,35.087115],[136.778047,35.086935],[136.77797,35.086749],[136.77783,35.086641],[136.777595,35.086529],[136.776875,35.086297],[136.776511,35.086001],[136.776181,35.085723],[136.77596,35.085679],[136.775561,35.085618],[136.775182,35.085653],[136.775153,35.085526],[136.774539,35.085454],[136.774418,35.084185],[136.774039,35.08417],[136.773856,35.084151],[136.772896,35.083881],[136.771906,35.083658],[136.771561,35.083611],[136.770953,35.083546],[136.770276,35.083543],[136.76947,35.083583],[136.768506,35.083685],[136.766886,35.083982],[136.766229,35.084196],[136.765913,35.083404],[136.765511,35.083534],[136.764717,35.08381],[136.764535,35.083866],[136.76426,35.083981],[136.764102,35.08409],[136.763989,35.084195],[136.763985,35.084199],[136.761861,35.086733],[136.761834,35.086765],[136.758335,35.090812],[136.759365,35.091197],[136.759445,35.091199],[136.759992,35.091078],[136.760917,35.091092],[136.761575,35.091088],[136.761941,35.091085],[136.76219,35.091066],[136.763288,35.091092],[136.763889,35.091155],[136.76461,35.091265],[136.764631,35.091268],[136.766289,35.0915],[136.767832,35.091748],[136.767992,35.091734],[136.768173,35.09177],[136.768225,35.091815],[136.769067,35.091921],[136.769173,35.091949],[136.769255,35.091965],[136.769826,35.092068],[136.770022,35.092126],[136.770366,35.092272],[136.770565,35.092374],[136.770791,35.092497],[136.771163,35.09275],[136.771392,35.092945],[136.771996,35.093524],[136.772285,35.093974],[136.772349,35.094148],[136.772424,35.094431],[136.772457,35.094716],[136.772362,35.095069],[136.772137,35.095558],[136.771964,35.095867],[136.770749,35.097576],[136.770699,35.097638],[136.770703,35.097645],[136.770707,35.097681],[136.770777,35.097718],[136.771275,35.097684],[136.772053,35.09763],[136.772939,35.097569],[136.774019,35.097494],[136.774849,35.097436],[136.775163,35.097415],[136.775264,35.097407],[136.775722,35.097371],[136.776101,35.097342],[136.776603,35.097302],[136.776832,35.097278],[136.776936,35.097267],[136.777053,35.097255],[136.777056,35.097254],[136.777057,35.097254],[136.777065,35.097252],[136.777118,35.09724],[136.777494,35.097155],[136.777578,35.097131],[136.777652,35.097109],[136.777828,35.097058],[136.777973,35.096977],[136.778208,35.096797],[136.778356,35.096678],[136.778419,35.096627],[136.778509,35.096539],[136.778524,35.096524],[136.77859,35.096459],[136.778654,35.096397],[136.778825,35.096227],[136.778846,35.096205],[136.778869,35.096182],[136.778908,35.096141],[136.779197,35.095844],[136.779289,35.095742],[136.779385,35.095584],[136.779398,35.095562],[136.779484,35.095375],[136.779569,35.095192],[136.779671,35.09497],[136.779671,35.094969],[136.779728,35.094847],[136.779877,35.094505],[136.779946,35.094324],[136.78006,35.094026],[136.780134,35.093754],[136.780223,35.093429],[136.780223,35.093428],[136.780259,35.093298],[136.780303,35.093138],[136.780378,35.09286],[136.780393,35.092805],[136.78043,35.092647],[136.780468,35.092484],[136.78047,35.092478],[136.78048,35.092444],[136.780495,35.09239],[136.780531,35.092267],[136.780542,35.092201],[136.780569,35.091994],[136.78059,35.09179],[136.780591,35.091779],[136.780591,35.091778]]]}},{"type":"Feature","properties":{"name":"重宝","city":"飛島村","code":"427","setai":7,"jinko":24,"n":1,"towns":["234270042"],"lx":136.771528,"ly":35.083015},"geometry":{"type":"Polygon","coordinates":[[[136.774418,35.084185],[136.774423,35.084035],[136.77444,35.083898],[136.774541,35.083708],[136.77475,35.083421],[136.774892,35.083261],[136.776112,35.081199],[136.775158,35.081603],[136.774646,35.081802],[136.774127,35.081948],[136.773955,35.081997],[136.773589,35.082054],[136.773306,35.082105],[136.772571,35.082224],[136.7713,35.082375],[136.770016,35.082519],[136.769188,35.082608],[136.768768,35.082664],[136.768294,35.082736],[136.768175,35.082754],[136.767452,35.082913],[136.766915,35.083073],[136.765925,35.0834],[136.765913,35.083404],[136.766229,35.084196],[136.766886,35.083982],[136.768506,35.083685],[136.76947,35.083583],[136.770276,35.083543],[136.770953,35.083546],[136.771561,35.083611],[136.771906,35.083658],[136.772896,35.083881],[136.773856,35.084151],[136.774039,35.08417],[136.774418,35.084185]]]}},{"type":"Feature","properties":{"name":"松之郷","city":"飛島村","code":"427","setai":107,"jinko":384,"n":1,"towns":["234270050"],"lx":136.797456,"ly":35.082056},"geometry":{"type":"Polygon","coordinates":[[[136.786393,35.079774],[136.785723,35.079763],[136.785621,35.081224],[136.785559,35.082111],[136.785553,35.082198],[136.785514,35.082773],[136.78544,35.083878],[136.78542,35.084189],[136.785922,35.084184],[136.789297,35.084176],[136.792329,35.084148],[136.793015,35.084145],[136.808822,35.084062],[136.809894,35.084043],[136.810016,35.080238],[136.796594,35.07996],[136.793571,35.079895],[136.793346,35.07989],[136.792343,35.079873],[136.791113,35.079852],[136.78795,35.079798],[136.786393,35.079774]]]}},{"type":"Feature","properties":{"name":"元起","city":"飛島村","code":"427","setai":147,"jinko":445,"n":1,"towns":["234270060"],"lx":136.781447,"ly":35.081017},"geometry":{"type":"Polygon","coordinates":[[[136.785844,35.077029],[136.785855,35.076835],[136.785928,35.075894],[136.785754,35.075908],[136.784619,35.076021],[136.783405,35.076265],[136.783301,35.076283],[136.782085,35.076739],[136.781803,35.076969],[136.781319,35.07696],[136.781282,35.077001],[136.780839,35.077492],[136.780127,35.078479],[136.779734,35.078914],[136.77953,35.079106],[136.77926,35.079361],[136.778687,35.079899],[136.777985,35.080288],[136.777141,35.080754],[136.776112,35.081199],[136.774892,35.083261],[136.77475,35.083421],[136.774541,35.083708],[136.77444,35.083898],[136.774423,35.084035],[136.774418,35.084185],[136.780985,35.084396],[136.785372,35.084537],[136.785376,35.08419],[136.78542,35.084189],[136.78544,35.083878],[136.785514,35.082773],[136.785553,35.082198],[136.785559,35.082111],[136.785621,35.081224],[136.785723,35.079763],[136.785676,35.079622],[136.785844,35.077029]]]}},{"type":"Feature","properties":{"name":"竹之郷","city":"飛島村","code":"427","setai":214,"jinko":545,"n":1,"towns":["234270070"],"lx":136.799226,"ly":35.076927},"geometry":{"type":"Polygon","coordinates":[[[136.810079,35.077292],[136.810106,35.073393],[136.811605,35.073249],[136.813169,35.073099],[136.813927,35.073004],[136.814959,35.072893],[136.814922,35.07264],[136.81321,35.072849],[136.811276,35.073014],[136.810318,35.073109],[136.809139,35.073219],[136.808796,35.073229],[136.807973,35.073255],[136.806955,35.073279],[136.80673,35.073291],[136.80588,35.073369],[136.803424,35.073633],[136.802139,35.073753],[136.80175,35.073766],[136.800994,35.073767],[136.800312,35.073491],[136.799675,35.073239],[136.798424,35.072797],[136.798165,35.072761],[136.797832,35.07272],[136.797449,35.072671],[136.797223,35.072598],[136.797228,35.072692],[136.797308,35.072887],[136.796754,35.073114],[136.796455,35.073266],[136.796181,35.073451],[136.795715,35.073804],[136.795067,35.074229],[136.794702,35.074422],[136.793806,35.074745],[136.79332,35.074859],[136.792333,35.074999],[136.792051,35.075038],[136.790754,35.075189],[136.790756,35.075363],[136.789898,35.075482],[136.78881,35.075615],[136.786386,35.075844],[136.785928,35.075894],[136.785855,35.076835],[136.785844,35.077029],[136.785676,35.079622],[136.785723,35.079763],[136.786393,35.079774],[136.78795,35.079798],[136.791113,35.079852],[136.792343,35.079873],[136.793346,35.07989],[136.793571,35.079895],[136.796594,35.07996],[136.810016,35.080238],[136.810028,35.079842],[136.810079,35.077292]]]}},{"type":"Feature","properties":{"name":"梅之郷","city":"飛島村","code":"427","setai":54,"jinko":173,"n":1,"towns":["234270080"],"lx":136.816622,"ly":35.078334},"geometry":{"type":"Polygon","coordinates":[[[136.825088,35.08077],[136.825137,35.080742],[136.825147,35.080736],[136.825154,35.080732],[136.825191,35.080711],[136.825245,35.080681],[136.8252,35.080632],[136.824983,35.08075],[136.824983,35.08075],[136.82439,35.080117],[136.824146,35.079867],[136.823713,35.079417],[136.823451,35.079151],[136.823323,35.079006],[136.823232,35.078739],[136.823183,35.078469],[136.823095,35.078154],[136.823041,35.077977],[136.823009,35.07793],[136.822963,35.0779],[136.822906,35.077894],[136.822825,35.077898],[136.82272,35.078006],[136.822366,35.078451],[136.821693,35.078128],[136.821418,35.078009],[136.821142,35.077907],[136.821079,35.077884],[136.821257,35.077686],[136.82175,35.077062],[136.822077,35.076672],[136.822344,35.076492],[136.822615,35.076345],[136.822769,35.076222],[136.822912,35.076039],[136.823004,35.075755],[136.823028,35.075528],[136.823296,35.072859],[136.823315,35.072483],[136.823286,35.072314],[136.823249,35.072248],[136.823098,35.072219],[136.822568,35.072222],[136.821308,35.07233],[136.820208,35.072416],[136.819958,35.072406],[136.819837,35.072347],[136.819718,35.072272],[136.819581,35.072213],[136.819321,35.072444],[136.819208,35.072475],[136.819052,35.072499],[136.818345,35.072565],[136.814959,35.072893],[136.813927,35.073004],[136.813169,35.073099],[136.811605,35.073249],[136.810106,35.073393],[136.810079,35.077292],[136.810028,35.079842],[136.810016,35.080238],[136.809894,35.084043],[136.811573,35.084031],[136.812419,35.08403],[136.819991,35.083975],[136.820101,35.083958],[136.820122,35.083955],[136.820423,35.083735],[136.820461,35.083707],[136.820892,35.083382],[136.821132,35.083201],[136.821253,35.083129],[136.821295,35.083104],[136.821329,35.083084],[136.82135,35.083071],[136.821365,35.083063],[136.821365,35.083063],[136.821366,35.083062],[136.821408,35.083036],[136.821763,35.082812],[136.821944,35.082698],[136.822145,35.082571],[136.8222,35.082536],[136.822479,35.08236],[136.822717,35.08221],[136.822907,35.08209],[136.82308,35.081981],[136.823159,35.081931],[136.823496,35.081719],[136.823754,35.081555],[136.824031,35.081381],[136.824285,35.081224],[136.824355,35.081184],[136.824521,35.08109],[136.824639,35.081023],[136.824766,35.080951],[136.824769,35.08095],[136.824794,35.080936],[136.82484,35.08091],[136.824914,35.080867],[136.824939,35.080853],[136.825031,35.080802],[136.825046,35.080793],[136.825088,35.08077]]]}},{"type":"Feature","properties":{"name":"古政成","city":"飛島村","code":"427","setai":211,"jinko":469,"n":1,"towns":["234270090"],"lx":136.789568,"ly":35.073388},"geometry":{"type":"Polygon","coordinates":[[[136.789804,35.069514],[136.789751,35.069469],[136.789642,35.069558],[136.788372,35.070591],[136.787898,35.070949],[136.785773,35.072672],[136.783968,35.074095],[136.783827,35.074214],[136.783748,35.074281],[136.783515,35.07451],[136.783332,35.074712],[136.78314,35.074904],[136.783029,35.07504],[136.782841,35.075264],[136.782536,35.075612],[136.781911,35.076299],[136.781319,35.07696],[136.781803,35.076969],[136.782085,35.076739],[136.783301,35.076283],[136.783405,35.076265],[136.784619,35.076021],[136.785754,35.075908],[136.785928,35.075894],[136.786386,35.075844],[136.78881,35.075615],[136.789898,35.075482],[136.790756,35.075363],[136.790754,35.075189],[136.792051,35.075038],[136.792333,35.074999],[136.79332,35.074859],[136.793806,35.074745],[136.794702,35.074422],[136.795067,35.074229],[136.795715,35.073804],[136.796181,35.073451],[136.796455,35.073266],[136.796754,35.073114],[136.797308,35.072887],[136.797228,35.072692],[136.797223,35.072598],[136.797221,35.072562],[136.797164,35.072543],[136.795949,35.072187],[136.794694,35.071776],[136.79343,35.071378],[136.79228,35.071062],[136.791258,35.070733],[136.789804,35.069514]]]}},{"type":"Feature","properties":{"name":"新政成","city":"飛島村","code":"427","setai":186,"jinko":548,"n":1,"towns":["234270100"],"lx":136.806084,"ly":35.068283},"geometry":{"type":"Polygon","coordinates":[[[136.81321,35.072849],[136.814922,35.07264],[136.814959,35.072893],[136.818345,35.072565],[136.819052,35.072499],[136.819208,35.072475],[136.819321,35.072444],[136.819581,35.072213],[136.81955,35.072133],[136.819488,35.071972],[136.819455,35.071763],[136.819084,35.069506],[136.818668,35.066721],[136.818442,35.065193],[136.818372,35.064852],[136.818323,35.064744],[136.818276,35.064637],[136.818254,35.064598],[136.818167,35.064444],[136.818076,35.064281],[136.817899,35.064119],[136.817741,35.064001],[136.817424,35.063861],[136.817164,35.063771],[136.816805,35.063686],[136.816276,35.06363],[136.815919,35.063595],[136.812673,35.063304],[136.811195,35.063139],[136.810965,35.063089],[136.810685,35.063012],[136.810593,35.062986],[136.810451,35.062972],[136.810209,35.062953],[136.810043,35.06296],[136.809828,35.062987],[136.809658,35.062988],[136.807269,35.062717],[136.805238,35.062486],[136.804259,35.062391],[136.80417,35.062179],[136.803986,35.061808],[136.803879,35.061641],[136.802898,35.062056],[136.802601,35.062215],[136.801581,35.062763],[136.800929,35.063062],[136.800465,35.063291],[136.799413,35.063781],[136.79887,35.064051],[136.79725,35.064822],[136.795728,35.065548],[136.795454,35.065676],[136.795348,35.065726],[136.795047,35.065892],[136.794617,35.066173],[136.794398,35.066316],[136.793923,35.066611],[136.793771,35.066707],[136.793272,35.067023],[136.791902,35.067906],[136.79118,35.06836],[136.790475,35.068857],[136.789751,35.069469],[136.789804,35.069514],[136.791258,35.070733],[136.79228,35.071062],[136.79343,35.071378],[136.794694,35.071776],[136.795949,35.072187],[136.797164,35.072543],[136.797221,35.072562],[136.797223,35.072598],[136.797449,35.072671],[136.797832,35.07272],[136.798165,35.072761],[136.798424,35.072797],[136.799675,35.073239],[136.800312,35.073491],[136.800994,35.073767],[136.80175,35.073766],[136.802139,35.073753],[136.803424,35.073633],[136.80588,35.073369],[136.80673,35.073291],[136.806955,35.073279],[136.807973,35.073255],[136.808796,35.073229],[136.809139,35.073219],[136.810318,35.073109],[136.811276,35.073014],[136.81321,35.072849]]]}},{"type":"Feature","properties":{"name":"木場","city":"飛島村","code":"427","setai":52,"jinko":52,"n":1,"towns":["234270110"],"lx":136.82159,"ly":35.04585},"geometry":{"type":"Polygon","coordinates":[[[136.823602,35.065212],[136.8236,35.068249],[136.824453,35.067891],[136.824997,35.06766],[136.825462,35.067455],[136.825542,35.06758],[136.82574,35.067495],[136.825659,35.067374],[136.826397,35.067066],[136.826443,35.067118],[136.826544,35.067076],[136.826798,35.066967],[136.82676,35.066907],[136.827365,35.066642],[136.827528,35.06694],[136.827612,35.066906],[136.827517,35.066746],[136.827555,35.066747],[136.827587,35.066751],[136.827608,35.066759],[136.82762,35.066767],[136.827631,35.066773],[136.827639,35.066776],[136.827645,35.06678],[136.827655,35.066779],[136.827672,35.066772],[136.827689,35.066764],[136.827696,35.066762],[136.827696,35.066755],[136.82769,35.066733],[136.827685,35.06671],[136.827682,35.066696],[136.827683,35.066689],[136.827687,35.066681],[136.827696,35.066671],[136.827703,35.066658],[136.827708,35.066645],[136.82771,35.06663],[136.827713,35.066623],[136.827728,35.06661],[136.827752,35.066597],[136.827769,35.066591],[136.827775,35.06659],[136.82778,35.066588],[136.827785,35.066584],[136.827791,35.066574],[136.827802,35.066557],[136.827828,35.066532],[136.827864,35.066504],[136.827888,35.066484],[136.827896,35.066476],[136.827908,35.066473],[136.82793,35.066473],[136.827957,35.066473],[136.827983,35.066477],[136.828009,35.066488],[136.828033,35.066504],[136.828052,35.06652],[136.828064,35.066531],[136.828068,35.066537],[136.828072,35.066539],[136.82809,35.066539],[136.82812,35.06654],[136.828141,35.066543],[136.828153,35.066542],[136.828177,35.066531],[136.828212,35.06651],[136.828238,35.066498],[136.828253,35.066498],[136.828269,35.066495],[136.828292,35.066487],[136.828315,35.066479],[136.828337,35.066473],[136.828347,35.066471],[136.828372,35.066469],[136.828392,35.066469],[136.828406,35.066469],[136.828415,35.066468],[136.828444,35.066457],[136.828484,35.066436],[136.828525,35.066418],[136.828556,35.066407],[136.828579,35.066401],[136.828594,35.066394],[136.828604,35.066386],[136.828611,35.066377],[136.82862,35.06637],[136.828634,35.066366],[136.828641,35.066364],[136.828716,35.066484],[136.828757,35.066492],[136.828779,35.06646],[136.828653,35.066276],[136.828656,35.066262],[136.828663,35.066242],[136.828674,35.066214],[136.828688,35.066182],[136.828704,35.066157],[136.828718,35.066137],[136.828728,35.066117],[136.828734,35.0661],[136.828741,35.066085],[136.828747,35.066073],[136.828875,35.066018],[136.828926,35.066083],[136.82899,35.066059],[136.82894,35.065993],[136.828994,35.065972],[136.828993,35.065968],[136.829033,35.065952],[136.829119,35.066069],[136.829106,35.066074],[136.829245,35.066249],[136.829305,35.066218],[136.829177,35.066036],[136.829149,35.066049],[136.829074,35.065943],[136.829127,35.065938],[136.829178,35.065939],[136.829228,35.065947],[136.82927,35.065957],[136.829299,35.065963],[136.829323,35.065968],[136.829353,35.065971],[136.829388,35.065977],[136.829422,35.065989],[136.829455,35.066003],[136.829487,35.066012],[136.82951,35.06602],[136.82952,35.066024],[136.829526,35.066024],[136.829546,35.066022],[136.82958,35.066011],[136.829614,35.065996],[136.829644,35.06598],[136.829678,35.065968],[136.829715,35.065958],[136.829751,35.06595],[136.829784,35.065942],[136.8298,35.065939],[136.829933,35.066142],[136.829969,35.066126],[136.829825,35.065889],[136.829922,35.06585],[136.829924,35.065841],[136.829816,35.065656],[136.829841,35.065643],[136.829846,35.06561],[136.82986,35.065588],[136.830024,35.065854],[136.830254,35.065759],[136.830087,35.065489],[136.830545,35.065291],[136.830637,35.065414],[136.830661,35.065404],[136.830683,35.065394],[136.830701,35.065382],[136.830717,35.065366],[136.830732,35.065343],[136.830743,35.065316],[136.830748,35.065291],[136.830749,35.065268],[136.830744,35.065233],[136.83074,35.065215],[136.830907,35.065143],[136.830923,35.065143],[136.830946,35.065144],[136.830975,35.065145],[136.831,35.065145],[136.831017,35.065142],[136.831046,35.06514],[136.831105,35.06514],[136.831168,35.065142],[136.83121,35.065144],[136.831238,35.065147],[136.831265,35.065152],[136.831293,35.065162],[136.831315,35.065177],[136.831332,35.065191],[136.831343,35.065198],[136.831351,35.065201],[136.831356,35.065203],[136.831364,35.065203],[136.831375,35.065199],[136.831386,35.06519],[136.831393,35.065174],[136.8314,35.065156],[136.831418,35.065141],[136.831438,35.065129],[136.831453,35.065121],[136.831465,35.065114],[136.831476,35.065106],[136.831485,35.065098],[136.831527,35.065168],[136.831496,35.065183],[136.831534,35.065235],[136.831608,35.065332],[136.831669,35.065301],[136.831616,35.065235],[136.831554,35.065155],[136.831543,35.065161],[136.831488,35.065074],[136.831494,35.06507],[136.831494,35.065056],[136.831488,35.06503],[136.831479,35.065002],[136.831472,35.064984],[136.831462,35.064974],[136.831449,35.064964],[136.831437,35.064953],[136.831432,35.06494],[136.831432,35.064929],[136.831434,35.064922],[136.831436,35.064917],[136.83187,35.064731],[136.832077,35.065052],[136.832279,35.064961],[136.832076,35.064641],[136.832654,35.064393],[136.832812,35.064635],[136.833075,35.064516],[136.832919,35.064278],[136.833357,35.064094],[136.833353,35.063928],[136.833621,35.063925],[136.833621,35.059601],[136.831551,35.056265],[136.830342,35.054314],[136.830351,35.052151],[136.83035,35.052023],[136.830349,35.051979],[136.830091,35.05198],[136.830087,35.050247],[136.824743,35.050241],[136.824735,35.049333],[136.82999,35.049338],[136.829987,35.049374],[136.830907,35.049374],[136.836249,35.036734],[136.836303,35.036752],[136.836295,35.036782],[136.836324,35.036797],[136.83632,35.036817],[136.83641,35.036847],[136.836421,35.036826],[136.836452,35.03683],[136.836462,35.036803],[136.836432,35.036793],[136.836456,35.036734],[136.836499,35.036741],[136.836643,35.036407],[136.836403,35.036336],[136.836105,35.03648],[136.836008,35.036707],[136.835512,35.036568],[136.836114,35.035118],[136.836121,35.035125],[136.836136,35.035138],[136.836156,35.035148],[136.836179,35.035154],[136.836192,35.035153],[136.836216,35.035141],[136.836236,35.035123],[136.836248,35.035104],[136.836257,35.035084],[136.836268,35.035064],[136.836291,35.035029],[136.836333,35.034966],[136.836377,35.03489],[136.836409,35.034816],[136.836439,35.034729],[136.836479,35.034612],[136.836522,35.034473],[136.836561,35.034329],[136.836588,35.034208],[136.8366,35.034133],[136.836605,35.03409],[136.836605,35.034063],[136.836604,35.034043],[136.836565,35.034031],[136.836711,35.033698],[136.83672,35.033673],[136.837674,35.031386],[136.838039,35.030524],[136.837123,35.030353],[136.836238,35.030187],[136.835588,35.030063],[136.835591,35.030234],[136.835589,35.030259],[136.835584,35.030283],[136.835539,35.030384],[136.835464,35.030588],[136.83546,35.030621],[136.835444,35.030648],[136.835377,35.030656],[136.835346,35.030625],[136.83534,35.030596],[136.834963,35.029947],[136.83379,35.029728],[136.833977,35.029112],[136.833996,35.029116],[136.834006,35.029084],[136.83418,35.029119],[136.834185,35.029103],[136.834003,35.029068],[136.83401,35.029033],[136.833935,35.029017],[136.83393,35.029034],[136.833765,35.029002],[136.833758,35.02902],[136.833926,35.029058],[136.83391,35.0291],[136.833957,35.029112],[136.833761,35.029722],[136.833243,35.029597],[136.832286,35.029442],[136.832467,35.028831],[136.832498,35.028839],[136.832517,35.028788],[136.832687,35.028821],[136.832691,35.028803],[136.832518,35.028774],[136.832522,35.028763],[136.832436,35.028745],[136.832427,35.028775],[136.832251,35.028741],[136.832242,35.028767],[136.832419,35.028797],[136.832415,35.028827],[136.832443,35.028829],[136.832261,35.029436],[136.831925,35.029349],[136.831791,35.029323],[136.830776,35.02915],[136.830941,35.028639],[136.829274,35.028314],[136.829118,35.028845],[136.8282,35.028667],[136.828365,35.028088],[136.828421,35.028098],[136.828437,35.028033],[136.828525,35.028048],[136.828519,35.02807],[136.828583,35.028081],[136.828597,35.028023],[136.828535,35.028013],[136.828532,35.028028],[136.828445,35.028014],[136.828454,35.02798],[136.828313,35.027957],[136.828302,35.028002],[136.828195,35.027985],[136.828208,35.027938],[136.828101,35.02792],[136.82809,35.027965],[136.827729,35.027904],[136.827741,35.027853],[136.82751,35.027815],[136.827498,35.027861],[136.827166,35.027799],[136.827179,35.027743],[136.827063,35.027723],[136.82705,35.027778],[136.826946,35.027761],[136.826959,35.027706],[136.826807,35.02768],[136.826801,35.027702],[136.826727,35.027685],[136.826733,35.027664],[136.826706,35.027657],[136.826652,35.027646],[136.826633,35.027708],[136.826706,35.027729],[136.826713,35.02773],[136.826719,35.027713],[136.826787,35.02773],[136.82678,35.027782],[136.82693,35.027808],[136.826935,35.027793],[136.828288,35.028041],[136.828275,35.028092],[136.828289,35.028096],[136.828137,35.028656],[136.824623,35.027989],[136.824706,35.027726],[136.82203,35.027219],[136.821945,35.027484],[136.818491,35.026816],[136.817319,35.026614],[136.815042,35.026184],[136.815198,35.025646],[136.815361,35.025667],[136.815403,35.025526],[136.815017,35.02546],[136.81498,35.025598],[136.815105,35.025621],[136.814933,35.026163],[136.814218,35.026024],[136.814325,35.025585],[136.814462,35.025554],[136.81451,35.025342],[136.812363,35.024933],[136.812303,35.025157],[136.812393,35.025212],[136.812265,35.025744],[136.810868,35.026659],[136.810826,35.036223],[136.810085,35.036233],[136.810048,35.049052],[136.81005,35.049306],[136.812352,35.049322],[136.812365,35.04905],[136.81286,35.049053],[136.812873,35.049318],[136.814653,35.049323],[136.814652,35.049049],[136.815186,35.04905],[136.815187,35.049317],[136.815388,35.049322],[136.815388,35.049348],[136.816363,35.049344],[136.816365,35.049323],[136.816532,35.049319],[136.816534,35.049394],[136.816727,35.049397],[136.816729,35.049322],[136.8176,35.049324],[136.817596,35.050227],[136.817169,35.050223],[136.817153,35.051571],[136.807278,35.05156],[136.807255,35.051568],[136.807244,35.051587],[136.80724,35.051656],[136.807238,35.051723],[136.807238,35.051759],[136.807239,35.052038],[136.807237,35.053347],[136.807276,35.053373],[136.80728,35.053383],[136.807284,35.053397],[136.807289,35.053953],[136.80729,35.055678],[136.807275,35.056123],[136.807275,35.056151],[136.807276,35.056185],[136.807267,35.058289],[136.807271,35.060626],[136.807271,35.060658],[136.80727,35.06069],[136.807271,35.061085],[136.807271,35.061604],[136.807271,35.061655],[136.807179,35.061615],[136.807171,35.061628],[136.807271,35.06167],[136.80727,35.061963],[136.807099,35.061965],[136.807098,35.061982],[136.807273,35.061983],[136.807273,35.062563],[136.807269,35.062717],[136.809658,35.062988],[136.809828,35.062987],[136.810043,35.06296],[136.810209,35.062953],[136.810451,35.062972],[136.810593,35.062986],[136.810685,35.063012],[136.810965,35.063089],[136.811195,35.063139],[136.812673,35.063304],[136.815919,35.063595],[136.816276,35.06363],[136.816805,35.063686],[136.817164,35.063771],[136.817424,35.063861],[136.817741,35.064001],[136.817899,35.064119],[136.818076,35.064281],[136.818167,35.064444],[136.818254,35.064598],[136.818464,35.064513],[136.818574,35.064467],[136.818579,35.064429],[136.818588,35.064448],[136.8186,35.064463],[136.818615,35.064471],[136.818629,35.064474],[136.818638,35.064474],[136.818644,35.064462],[136.818648,35.06443],[136.818651,35.064411],[136.818658,35.064394],[136.81868,35.064365],[136.818694,35.06435],[136.818721,35.064302],[136.818733,35.064269],[136.818746,35.064207],[136.818746,35.064184],[136.818738,35.064152],[136.818729,35.064133],[136.818723,35.064122],[136.818713,35.064112],[136.818709,35.064107],[136.818709,35.064101],[136.818734,35.064086],[136.818784,35.064066],[136.818833,35.064042],[136.818865,35.064015],[136.818886,35.063992],[136.818891,35.06398],[136.818892,35.063967],[136.818888,35.063949],[136.818863,35.063896],[136.818849,35.063865],[136.818838,35.06383],[136.818833,35.063795],[136.818833,35.06373],[136.818833,35.06369],[136.818831,35.063674],[136.818839,35.063668],[136.818857,35.06366],[136.818876,35.063647],[136.818896,35.063631],[136.818908,35.063626],[136.818943,35.063624],[136.818983,35.063627],[136.819002,35.063628],[136.819021,35.063625],[136.81904,35.063617],[136.819058,35.063602],[136.819096,35.063552],[136.819129,35.063501],[136.819153,35.063479],[136.819172,35.063466],[136.819186,35.063443],[136.819193,35.063412],[136.81919,35.063379],[136.81918,35.063346],[136.820086,35.063348],[136.820099,35.063363],[136.820106,35.063374],[136.820103,35.063383],[136.820092,35.063396],[136.820082,35.063418],[136.820082,35.063431],[136.820088,35.063446],[136.820119,35.063477],[136.820141,35.06349],[136.820164,35.063499],[136.820187,35.063503],[136.820233,35.063499],[136.820288,35.063484],[136.820347,35.063471],[136.820373,35.06347],[136.820395,35.063474],[136.820429,35.063493],[136.820445,35.063504],[136.820461,35.063511],[136.820499,35.063517],[136.820521,35.063515],[136.820545,35.06351],[136.820571,35.0635],[136.820595,35.063487],[136.820617,35.063468],[136.820634,35.063443],[136.820661,35.063383],[136.820673,35.063349],[136.821535,35.06335],[136.821536,35.063381],[136.821506,35.063387],[136.821506,35.063399],[136.821538,35.063421],[136.821552,35.063408],[136.821553,35.063393],[136.8216,35.063392],[136.821609,35.06342],[136.821628,35.063415],[136.821647,35.063395],[136.821636,35.063385],[136.821616,35.063384],[136.821615,35.063351],[136.823059,35.063354],[136.823068,35.063335],[136.823607,35.063342],[136.82361,35.064802],[136.823602,35.065212]]]}}]}