{"type":"FeatureCollection","features":[{"type":"Feature","properties":{"name":"蟹江本町","city":"蟹江町","code":"425","setai":185,"jinko":434,"n":4,"towns":["23425001001","23425001001","23425001001","23425001002"],"lx":136.79012,"ly":35.112613},"geometry":{"type":"MultiPolygon","coordinates":[[[[136.78807,35.112602],[136.789791,35.111088],[136.789817,35.111067],[136.791549,35.109883],[136.793014,35.108873],[136.793312,35.108944],[136.79371,35.108644],[136.793797,35.108686],[136.793993,35.10878],[136.79417,35.108908],[136.794229,35.10897],[136.794108,35.109095],[136.793695,35.109355],[136.793565,35.109458],[136.793438,35.109597],[136.793292,35.109738],[136.793007,35.110092],[136.792926,35.110214],[136.792863,35.110333],[136.792665,35.110577],[136.792623,35.11066],[136.792506,35.111004],[136.792312,35.111549],[136.79207,35.112212],[136.791945,35.112504],[136.791812,35.112794],[136.791456,35.112876],[136.791108,35.115254],[136.790817,35.115021],[136.790366,35.114677],[136.789394,35.113793],[136.78807,35.112602]]],[[[136.788112,35.132261],[136.78848,35.13227],[136.788751,35.13227],[136.789009,35.132304],[136.789311,35.132326],[136.789514,35.132343],[136.789548,35.13252],[136.789561,35.132605],[136.789565,35.132735],[136.789591,35.133243],[136.789599,35.133482],[136.789608,35.133698],[136.789546,35.13428],[136.788911,35.134517],[136.788547,35.134572],[136.788481,35.134106],[136.788456,35.134057],[136.788413,35.13405],[136.788376,35.133762],[136.788357,35.133567],[136.788339,35.133433],[136.788238,35.133434],[136.788233,35.133104],[136.788218,35.133018],[136.788195,35.132873],[136.788175,35.132754],[136.788112,35.132261]]],[[[136.792536,35.137903],[136.793826,35.138013],[136.793989,35.138037],[136.794739,35.138099],[136.794956,35.138117],[136.794941,35.138354],[136.794905,35.138842],[136.79488,35.139202],[136.795417,35.13921],[136.795416,35.139313],[136.795442,35.139719],[136.795456,35.139953],[136.795162,35.13997],[136.794749,35.140005],[136.794717,35.140105],[136.793498,35.140216],[136.79283,35.140251],[136.792757,35.139726],[136.792715,35.139156],[136.792668,35.138877],[136.792536,35.137903]]],[[[136.797238,35.138361],[136.797996,35.138455],[136.798556,35.138514],[136.79905,35.138567],[136.799472,35.1386],[136.799806,35.138607],[136.799991,35.138623],[136.800116,35.139449],[136.800164,35.13975],[136.800218,35.140099],[136.800324,35.140764],[136.800392,35.141188],[136.800433,35.141447],[136.800359,35.141453],[136.799197,35.141541],[136.798929,35.141547],[136.798881,35.141135],[136.79877,35.13989],[136.798184,35.139941],[136.797367,35.139975],[136.797339,35.139676],[136.797334,35.139626],[136.797275,35.139083],[136.797247,35.138585],[136.797238,35.138361]]]]}},{"type":"Feature","properties":{"name":"須成","city":"蟹江町","code":"425","setai":1297,"jinko":3180,"n":4,"towns":["234250030","234250030","234250030","234250030"],"lx":136.788921,"ly":35.146506},"geometry":{"type":"Polygon","coordinates":[[[136.77852,35.146315],[136.778585,35.14603],[136.778656,35.14572],[136.779178,35.145854],[136.779325,35.145898],[136.779422,35.145934],[136.77971,35.146059],[136.780345,35.146361],[136.780693,35.145829],[136.780133,35.145432],[136.779991,35.144596],[136.780379,35.144811],[136.780802,35.145052],[136.780942,35.145142],[136.781079,35.145247],[136.781229,35.145373],[136.781483,35.145609],[136.781685,35.145828],[136.781789,35.145975],[136.781889,35.146169],[136.783205,35.146281],[136.783731,35.146293],[136.784529,35.146264],[136.784941,35.146245],[136.78513,35.146222],[136.78514,35.146087],[136.785116,35.145786],[136.785083,35.145692],[136.784899,35.145297],[136.784753,35.145019],[136.784517,35.145076],[136.784403,35.144878],[136.784203,35.144917],[136.784088,35.144612],[136.783655,35.144661],[136.783631,35.144383],[136.784013,35.144352],[136.784385,35.144305],[136.784377,35.14402],[136.784379,35.143935],[136.784619,35.143909],[136.784615,35.143769],[136.784633,35.143739],[136.785127,35.143282],[136.78543,35.143097],[136.785606,35.143],[136.785942,35.142757],[136.786014,35.142673],[136.786192,35.142404],[136.786785,35.14144],[136.786825,35.141367],[136.78757,35.141711],[136.78764,35.142203],[136.788091,35.142324],[136.788367,35.142315],[136.788548,35.142309],[136.788658,35.142313],[136.788776,35.14232],[136.78886,35.142331],[136.788979,35.142348],[136.789064,35.142378],[136.789198,35.142446],[136.789379,35.142558],[136.789673,35.142735],[136.789743,35.142777],[136.789992,35.142859],[136.790379,35.142952],[136.790897,35.143066],[136.791078,35.143113],[136.791192,35.143131],[136.791334,35.143155],[136.791432,35.143152],[136.791561,35.143157],[136.791722,35.143228],[136.791929,35.143309],[136.792051,35.143358],[136.792185,35.143377],[136.792326,35.143401],[136.792341,35.143401],[136.792361,35.143403],[136.792586,35.143425],[136.792942,35.143452],[136.793294,35.143469],[136.793633,35.143468],[136.793958,35.143457],[136.794107,35.143448],[136.794347,35.143433],[136.794788,35.143396],[136.795277,35.143357],[136.795416,35.143356],[136.795486,35.143367],[136.795531,35.143387],[136.795571,35.143426],[136.795611,35.143488],[136.795634,35.143564],[136.795667,35.143738],[136.795703,35.143999],[136.795739,35.144259],[136.795743,35.14432],[136.795763,35.144545],[136.795797,35.144813],[136.795857,35.145079],[136.795893,35.145236],[136.795959,35.145415],[136.796434,35.145391],[136.797081,35.145324],[136.797247,35.14551],[136.797387,35.145528],[136.797664,35.145554],[136.797953,35.1456],[136.798146,35.145632],[136.798338,35.145631],[136.798468,35.14563],[136.798581,35.145633],[136.798623,35.145645],[136.798659,35.145673],[136.798693,35.145738],[136.798772,35.146287],[136.799778,35.146172],[136.800862,35.146064],[136.800976,35.146718],[136.801028,35.146793],[136.801053,35.147216],[136.80106,35.147336],[136.801155,35.148114],[136.800579,35.148171],[136.79906,35.148333],[136.799047,35.148334],[136.798994,35.148341],[136.798876,35.148273],[136.798554,35.148435],[136.797875,35.148421],[136.797467,35.148418],[136.797118,35.148474],[136.796621,35.148509],[136.796407,35.14851],[136.796126,35.147529],[136.795871,35.147547],[136.794225,35.147649],[136.794153,35.147654],[136.794133,35.147655],[136.79378,35.147677],[136.79377,35.147676],[136.793621,35.147692],[136.793657,35.147827],[136.793693,35.147946],[136.793752,35.148115],[136.793785,35.148398],[136.793794,35.148635],[136.793768,35.148857],[136.793753,35.149008],[136.793727,35.149188],[136.793701,35.149397],[136.793665,35.149598],[136.79362,35.149598],[136.793606,35.149672],[136.793575,35.149817],[136.793406,35.14987],[136.793401,35.149872],[136.7932,35.149885],[136.793102,35.150349],[136.792951,35.150793],[136.792611,35.150656],[136.79256,35.150649],[136.791887,35.150546],[136.791857,35.150541],[136.790885,35.150059],[136.7906,35.150417],[136.790442,35.150305],[136.790316,35.150274],[136.790142,35.150267],[136.789599,35.150277],[136.789485,35.150284],[136.789094,35.150305],[136.788757,35.150309],[136.78842,35.150303],[136.78831,35.150309],[136.788162,35.150291],[136.787473,35.15008],[136.787013,35.149952],[136.786859,35.149934],[136.786831,35.149937],[136.786711,35.149949],[136.786583,35.149972],[136.78644,35.150019],[136.786316,35.15013],[136.785583,35.151172],[136.785591,35.1513],[136.785632,35.151514],[136.7857,35.151834],[136.785745,35.152062],[136.785987,35.152994],[136.786072,35.153301],[136.786175,35.153601],[136.78627,35.153978],[136.786332,35.154238],[136.786358,35.15437],[136.786366,35.154408],[136.786416,35.154561],[136.786467,35.154727],[136.7865,35.154877],[136.786142,35.155041],[136.785455,35.155329],[136.785315,35.155461],[136.785216,35.155584],[136.785146,35.155676],[136.785108,35.155757],[136.78508,35.155834],[136.785057,35.155945],[136.785051,35.155974],[136.785051,35.156065],[136.785056,35.156088],[136.785135,35.156273],[136.78514,35.156289],[136.785142,35.156325],[136.785145,35.156505],[136.785134,35.156609],[136.785103,35.156831],[136.785058,35.157058],[136.785032,35.15721],[136.785028,35.157469],[136.784707,35.157435],[136.784457,35.157358],[136.784527,35.157199],[136.784597,35.157019],[136.784643,35.156899],[136.784688,35.156755],[136.784698,35.156651],[136.784736,35.156417],[136.784791,35.156173],[136.784873,35.155945],[136.784925,35.155822],[136.785002,35.155707],[136.785071,35.155614],[136.785138,35.155523],[136.78518,35.155388],[136.785182,35.155378],[136.785221,35.155205],[136.785017,35.155053],[136.784584,35.154715],[136.784061,35.154774],[136.78399,35.15472],[136.783772,35.154747],[136.783835,35.154587],[136.783907,35.154458],[136.783962,35.154393],[136.784001,35.154361],[136.7841,35.154237],[136.78418,35.153678],[136.784186,35.153375],[136.784162,35.153143],[136.784105,35.15294],[136.783986,35.152694],[136.783657,35.152134],[136.783006,35.151328],[136.782926,35.151217],[136.782874,35.151184],[136.782767,35.151181],[136.782716,35.151156],[136.782575,35.151043],[136.782502,35.150931],[136.782456,35.150722],[136.782452,35.150531],[136.78246,35.150263],[136.782432,35.150134],[136.782346,35.149896],[136.782313,35.149772],[136.782857,35.149613],[136.782517,35.148992],[136.782263,35.148566],[136.781715,35.148695],[136.781231,35.148714],[136.780901,35.14866],[136.780569,35.14852],[136.780311,35.148318],[136.780143,35.148107],[136.780016,35.147634],[136.779872,35.147182],[136.779638,35.146881],[136.779408,35.14671],[136.779168,35.14657],[136.77852,35.146315]]]}},{"type":"Feature","properties":{"name":"蟹江新田","city":"蟹江町","code":"425","setai":808,"jinko":2190,"n":2,"towns":["234250040","234250040"],"lx":136.784579,"ly":35.120219},"geometry":{"type":"MultiPolygon","coordinates":[[[[136.767005,35.12153],[136.768112,35.121098],[136.768337,35.12101],[136.769402,35.120656],[136.769484,35.120629],[136.771052,35.120117],[136.771047,35.120101],[136.771424,35.119974],[136.771922,35.120072],[136.772358,35.120139],[136.772586,35.120172],[136.772815,35.119233],[136.772826,35.119193],[136.774398,35.119479],[136.774644,35.119532],[136.774908,35.118553],[136.776735,35.11888],[136.777118,35.117463],[136.778303,35.117676],[136.778367,35.117745],[136.779007,35.117543],[136.779649,35.117387],[136.779595,35.117087],[136.779901,35.116997],[136.780962,35.116687],[136.781894,35.116515],[136.781786,35.116643],[136.782009,35.116623],[136.782604,35.116065],[136.782858,35.115828],[136.783135,35.115568],[136.783449,35.115272],[136.783758,35.114986],[136.784486,35.114362],[136.784878,35.114152],[136.785338,35.113935],[136.786147,35.113573],[136.78807,35.112602],[136.789394,35.113793],[136.790366,35.114677],[136.790817,35.115021],[136.791108,35.115254],[136.791204,35.115463],[136.791549,35.116327],[136.791655,35.116592],[136.791776,35.116911],[136.791838,35.117094],[136.791906,35.117279],[136.791932,35.117363],[136.791956,35.117562],[136.791942,35.117684],[136.791894,35.117833],[136.791653,35.118497],[136.79161,35.118689],[136.791589,35.118881],[136.791546,35.119007],[136.791415,35.119163],[136.79133,35.119274],[136.791186,35.119435],[136.79075,35.119919],[136.79038,35.120341],[136.790001,35.120764],[136.789907,35.120852],[136.78972,35.12107],[136.789395,35.121435],[136.788633,35.12227],[136.788453,35.122481],[136.788306,35.12265],[136.788158,35.122813],[136.788013,35.123025],[136.787943,35.123211],[136.787925,35.123336],[136.787913,35.123577],[136.787934,35.123857],[136.787959,35.124125],[136.787951,35.124612],[136.78799,35.124795],[136.787977,35.124885],[136.787885,35.125135],[136.787806,35.125338],[136.787777,35.12545],[136.787763,35.125508],[136.787764,35.125586],[136.787758,35.125704],[136.787797,35.12585],[136.78781,35.126],[136.787822,35.126171],[136.787857,35.126242],[136.787948,35.126349],[136.788047,35.126474],[136.788165,35.12665],[136.788205,35.126727],[136.788229,35.126838],[136.788286,35.127267],[136.788403,35.127937],[136.78843,35.128142],[136.788726,35.128215],[136.788841,35.128752],[136.788905,35.129127],[136.78849,35.129165],[136.788205,35.129194],[136.787935,35.129222],[136.787645,35.129207],[136.787369,35.129225],[136.787135,35.129147],[136.786947,35.129059],[136.78665,35.128962],[136.786398,35.129003],[136.78598,35.128918],[136.785882,35.128871],[136.785721,35.128688],[136.785498,35.128628],[136.784931,35.128492],[136.784614,35.12845],[136.784415,35.128382],[136.784438,35.12822],[136.784057,35.128244],[136.784067,35.128179],[136.784068,35.127933],[136.784067,35.127818],[136.784093,35.127816],[136.784106,35.127113],[136.784107,35.126237],[136.784119,35.125815],[136.784138,35.125412],[136.783624,35.12535],[136.783637,35.124938],[136.782705,35.124796],[136.78281,35.12427],[136.78117,35.124081],[136.780885,35.124043],[136.779797,35.123892],[136.779315,35.123823],[136.778052,35.123652],[136.777575,35.123579],[136.775528,35.123249],[136.773729,35.122937],[136.771428,35.122501],[136.771428,35.122495],[136.769576,35.122091],[136.769263,35.122023],[136.768377,35.121829],[136.767005,35.12153]]],[[[136.771498,35.133224],[136.771603,35.132671],[136.771749,35.13184],[136.771772,35.131763],[136.771798,35.131704],[136.771835,35.131642],[136.771947,35.131564],[136.771981,35.13154],[136.771984,35.131538],[136.772172,35.131446],[136.772262,35.131594],[136.772303,35.131628],[136.772344,35.131617],[136.772331,35.131583],[136.772231,35.13142],[136.77226,35.131407],[136.772333,35.131374],[136.772339,35.13137],[136.772352,35.131363],[136.772424,35.131322],[136.772647,35.131427],[136.773249,35.13162],[136.773455,35.131609],[136.773565,35.131632],[136.773688,35.13161],[136.773716,35.131588],[136.773648,35.131542],[136.773511,35.131531],[136.773291,35.131541],[136.77299,35.131484],[136.772675,35.131382],[136.772493,35.131262],[136.772533,35.130937],[136.772578,35.130723],[136.772632,35.130582],[136.772688,35.130467],[136.772873,35.130207],[136.77311,35.129813],[136.77317,35.129626],[136.773245,35.129245],[136.773344,35.128767],[136.773363,35.128663],[136.773523,35.127794],[136.773518,35.127757],[136.773496,35.127708],[136.773484,35.127673],[136.773508,35.12767],[136.7736,35.127671],[136.773614,35.127671],[136.773641,35.127664],[136.773698,35.12762],[136.773755,35.127571],[136.77379,35.127527],[136.773946,35.127286],[136.773951,35.127272],[136.773947,35.127258],[136.773933,35.127246],[136.773916,35.127235],[136.773966,35.127119],[136.773994,35.127136],[136.77408,35.127158],[136.774201,35.127135],[136.774506,35.12701],[136.774733,35.126889],[136.775033,35.126712],[136.775243,35.126601],[136.775526,35.126456],[136.775705,35.126364],[136.775869,35.126285],[136.775962,35.126238],[136.776099,35.1262],[136.776218,35.126172],[136.776349,35.12614],[136.776465,35.126173],[136.776518,35.126237],[136.776496,35.1263],[136.776527,35.126421],[136.776611,35.126448],[136.776575,35.126522],[136.776817,35.126598],[136.777092,35.126004],[136.777264,35.125632],[136.777324,35.125493],[136.777792,35.125602],[136.777539,35.126171],[136.776959,35.127483],[136.776177,35.129254],[136.775702,35.130332],[136.776568,35.130522],[136.777139,35.130629],[136.777988,35.130771],[136.777979,35.130787],[136.777945,35.130832],[136.777875,35.130916],[136.777748,35.131077],[136.777713,35.131229],[136.777641,35.131494],[136.777632,35.131529],[136.777564,35.131876],[136.77757,35.132061],[136.77762,35.132248],[136.777698,35.132403],[136.777758,35.132531],[136.777818,35.132689],[136.777622,35.132776],[136.777498,35.132833],[136.77728,35.132948],[136.777327,35.13304],[136.777444,35.133161],[136.777524,35.133242],[136.777627,35.133336],[136.777712,35.133429],[136.777775,35.133509],[136.777835,35.133647],[136.777864,35.133777],[136.777884,35.134049],[136.777892,35.134134],[136.777843,35.134322],[136.777815,35.134427],[136.77777,35.134538],[136.777699,35.134625],[136.777615,35.134704],[136.777471,35.134815],[136.777289,35.135072],[136.777273,35.135117],[136.777237,35.135212],[136.776863,35.135405],[136.776398,35.135642],[136.776548,35.135696],[136.776266,35.136344],[136.776332,35.136361],[136.776246,35.136539],[136.776063,35.136493],[136.775804,35.137135],[136.776013,35.137193],[136.776313,35.137271],[136.776132,35.137721],[136.775833,35.137621],[136.77455,35.137183],[136.773333,35.136772],[136.772704,35.136552],[136.77231,35.136418],[136.772091,35.135531],[136.772128,35.135466],[136.772139,35.135404],[136.772125,35.1353],[136.772097,35.135197],[136.771811,35.133861],[136.771794,35.133761],[136.771792,35.133737],[136.771787,35.133653],[136.771778,35.133564],[136.771765,35.133504],[136.771743,35.133464],[136.771703,35.133423],[136.771632,35.133353],[136.771608,35.133296],[136.771595,35.133233],[136.771498,35.133224]]]]}},{"type":"Feature","properties":{"name":"西之森","city":"蟹江町","code":"425","setai":766,"jinko":1910,"n":5,"towns":["234250050","234250050","234250050","23425022000","23425022003"],"lx":136.776081,"ly":35.14167},"geometry":{"type":"MultiPolygon","coordinates":[[[[136.770773,35.14282],[136.770848,35.142757],[136.771023,35.14264],[136.771205,35.142505],[136.771505,35.142277],[136.771785,35.142078],[136.771932,35.141935],[136.772081,35.141709],[136.772163,35.141581],[136.77225,35.141449],[136.772368,35.141277],[136.772417,35.14113],[136.772459,35.140956],[136.772463,35.140943],[136.772504,35.14082],[136.772563,35.14064],[136.772547,35.140549],[136.77252,35.140422],[136.772465,35.140382],[136.77251,35.140288],[136.772552,35.140211],[136.772676,35.139996],[136.772677,35.139915],[136.772661,35.13984],[136.772659,35.139812],[136.772656,35.139781],[136.772629,35.139622],[136.772609,35.139531],[136.772587,35.139374],[136.772556,35.139211],[136.77267,35.139173],[136.77276,35.139161],[136.772891,35.139162],[136.77295,35.139153],[136.772989,35.139126],[136.773034,35.139073],[136.773104,35.138959],[136.773146,35.138883],[136.773138,35.138791],[136.773094,35.138688],[136.773019,35.138607],[136.772841,35.138459],[136.772729,35.138372],[136.77259,35.138265],[136.772587,35.138263],[136.772457,35.138197],[136.77234,35.13816],[136.77191,35.138016],[136.77155,35.137888],[136.771086,35.137742],[136.771134,35.137639],[136.771157,35.137483],[136.770855,35.137384],[136.770946,35.136944],[136.770966,35.136744],[136.77231,35.136418],[136.772704,35.136552],[136.773333,35.136772],[136.77455,35.137183],[136.775833,35.137621],[136.776132,35.137721],[136.776313,35.137271],[136.776013,35.137193],[136.775804,35.137135],[136.776063,35.136493],[136.776246,35.136539],[136.776332,35.136361],[136.776266,35.136344],[136.776548,35.135696],[136.776398,35.135642],[136.776863,35.135405],[136.777237,35.135212],[136.777273,35.135117],[136.777659,35.135154],[136.777633,35.135211],[136.777583,35.13528],[136.777443,35.135453],[136.777334,35.135577],[136.777075,35.135865],[136.776635,35.136433],[136.777061,35.136504],[136.776867,35.137415],[136.77703,35.137471],[136.777035,35.137508],[136.776989,35.137621],[136.776839,35.137955],[136.778325,35.138369],[136.778901,35.138515],[136.779531,35.138677],[136.780004,35.138799],[136.779624,35.140724],[136.779937,35.14076],[136.779989,35.140987],[136.780298,35.140959],[136.780252,35.141317],[136.780206,35.141428],[136.780157,35.141555],[136.780052,35.14183],[136.780067,35.142487],[136.780077,35.14267],[136.780075,35.142701],[136.780069,35.143253],[136.780077,35.143629],[136.779961,35.143718],[136.779952,35.143751],[136.779928,35.143912],[136.779927,35.144061],[136.779935,35.144223],[136.77995,35.144343],[136.779973,35.144489],[136.779991,35.144596],[136.780133,35.145432],[136.780693,35.145829],[136.780345,35.146361],[136.77971,35.146059],[136.779422,35.145934],[136.779325,35.145898],[136.779178,35.145854],[136.778656,35.14572],[136.778585,35.14603],[136.777378,35.145641],[136.776372,35.145324],[136.776044,35.146468],[136.773903,35.145821],[136.773781,35.146041],[136.773869,35.146357],[136.773427,35.14639],[136.773195,35.146388],[136.771915,35.146668],[136.771495,35.145805],[136.7715,35.145712],[136.771328,35.145263],[136.771236,35.144754],[136.771029,35.14408],[136.77148,35.143317],[136.770919,35.142925],[136.770773,35.14282]]],[[[136.77728,35.132948],[136.777498,35.132833],[136.777622,35.132776],[136.777818,35.132689],[136.777758,35.132531],[136.777698,35.132403],[136.77762,35.132248],[136.77757,35.132061],[136.777564,35.131876],[136.777632,35.131529],[136.777641,35.131494],[136.778466,35.131615],[136.779048,35.131788],[136.778456,35.134205],[136.777892,35.134134],[136.777884,35.134049],[136.777864,35.133777],[136.777835,35.133647],[136.777775,35.133509],[136.777712,35.133429],[136.777627,35.133336],[136.777524,35.133242],[136.777444,35.133161],[136.777327,35.13304],[136.77728,35.132948]]],[[[136.784009,35.128848],[136.784029,35.128427],[136.784057,35.128244],[136.784438,35.12822],[136.784415,35.128382],[136.784614,35.12845],[136.784931,35.128492],[136.785498,35.128628],[136.785721,35.128688],[136.785882,35.128871],[136.78598,35.128918],[136.786398,35.129003],[136.78665,35.128962],[136.786947,35.129059],[136.787135,35.129147],[136.787369,35.129225],[136.787645,35.129207],[136.787935,35.129222],[136.788205,35.129194],[136.78849,35.129165],[136.788905,35.129127],[136.789094,35.130121],[136.789204,35.130707],[136.789297,35.131198],[136.789366,35.131558],[136.789429,35.131894],[136.789514,35.132343],[136.789311,35.132326],[136.789009,35.132304],[136.788751,35.13227],[136.78848,35.13227],[136.788112,35.132261],[136.788051,35.131964],[136.787984,35.131732],[136.787869,35.131158],[136.787906,35.130946],[136.787877,35.130519],[136.787883,35.13026],[136.786951,35.130239],[136.786469,35.130252],[136.786166,35.130258],[136.785778,35.130258],[136.784573,35.130245],[136.784574,35.130231],[136.784577,35.129951],[136.784604,35.129774],[136.784693,35.129356],[136.784766,35.12908],[136.784009,35.128848]]]]}},{"type":"Feature","properties":{"name":"今","city":"蟹江町","code":"425","setai":937,"jinko":2259,"n":3,"towns":["234250060","234250060","234250060"],"lx":136.788894,"ly":35.141086},"geometry":{"type":"MultiPolygon","coordinates":[[[[136.786825,35.141367],[136.787155,35.140831],[136.787502,35.140166],[136.787864,35.139494],[136.78811,35.139036],[136.78828,35.138721],[136.788751,35.137848],[136.78901,35.13785],[136.789776,35.137884],[136.790746,35.137875],[136.791477,35.137875],[136.79197,35.137885],[136.792521,35.137903],[136.792536,35.137903],[136.792668,35.138877],[136.792715,35.139156],[136.792757,35.139726],[136.79283,35.140251],[136.793498,35.140216],[136.794717,35.140105],[136.794749,35.140005],[136.795162,35.13997],[136.795178,35.140274],[136.795295,35.140311],[136.795314,35.140539],[136.794619,35.140604],[136.79454,35.140989],[136.794484,35.141183],[136.794632,35.141172],[136.794671,35.141817],[136.795263,35.142062],[136.795604,35.142229],[136.795742,35.142313],[136.795586,35.142293],[136.795146,35.14223],[136.794155,35.142095],[136.793895,35.142057],[136.793494,35.142],[136.792902,35.141917],[136.792578,35.14187],[136.792157,35.141818],[136.791976,35.141795],[136.791022,35.141663],[136.790704,35.141606],[136.79066,35.141949],[136.790638,35.142002],[136.790594,35.142053],[136.790477,35.142129],[136.789673,35.142735],[136.789379,35.142558],[136.789198,35.142446],[136.789064,35.142378],[136.788979,35.142348],[136.78886,35.142331],[136.788776,35.14232],[136.788658,35.142313],[136.788548,35.142309],[136.788367,35.142315],[136.788091,35.142324],[136.78764,35.142203],[136.78757,35.141711],[136.786825,35.141367]],[[136.788743,35.139212],[136.789049,35.139187],[136.789033,35.139452],[136.789021,35.139556],[136.788768,35.139553],[136.788781,35.13985],[136.789553,35.139775],[136.789884,35.139748],[136.789972,35.140471],[136.790585,35.140429],[136.790982,35.140404],[136.791776,35.140324],[136.791717,35.139824],[136.791657,35.139328],[136.791433,35.139327],[136.791424,35.139187],[136.790876,35.139177],[136.790832,35.138636],[136.790821,35.13852],[136.790315,35.138564],[136.7903,35.138472],[136.789784,35.138507],[136.789816,35.138915],[136.789386,35.138931],[136.788843,35.138898],[136.788804,35.139017],[136.788743,35.139212]]],[[[136.795743,35.14432],[136.79617,35.144293],[136.797027,35.144235],[136.797111,35.144248],[136.797616,35.144228],[136.798409,35.144217],[136.798483,35.144654],[136.798523,35.14489],[136.798554,35.145082],[136.7986,35.14537],[136.798701,35.145428],[136.79874,35.145663],[136.798693,35.145738],[136.798659,35.145673],[136.798623,35.145645],[136.798581,35.145633],[136.798468,35.14563],[136.798338,35.145631],[136.798146,35.145632],[136.797953,35.1456],[136.797664,35.145554],[136.797387,35.145528],[136.797247,35.14551],[136.797081,35.145324],[136.796434,35.145391],[136.795959,35.145415],[136.795893,35.145236],[136.795857,35.145079],[136.795797,35.144813],[136.795763,35.144545],[136.795743,35.14432]]],[[[136.79971,35.14557],[136.800245,35.145497],[136.800746,35.145429],[136.800756,35.145476],[136.800862,35.14606],[136.800862,35.146064],[136.799778,35.146172],[136.79971,35.14557]]]]}},{"type":"Feature","properties":{"name":"蟹江新町","city":"蟹江町","code":"425","setai":120,"jinko":292,"n":1,"towns":["234250070"],"lx":136.787965,"ly":35.135585},"geometry":{"type":"Polygon","coordinates":[[[136.788788,35.137263],[136.78882,35.136899],[136.788858,35.136592],[136.788903,35.136459],[136.789135,35.135771],[136.789189,35.135613],[136.789325,35.135226],[136.789475,35.134765],[136.789502,35.134687],[136.789546,35.13428],[136.788911,35.134517],[136.788547,35.134572],[136.788481,35.134106],[136.788456,35.134057],[136.788413,35.13405],[136.788376,35.133762],[136.788357,35.133567],[136.788339,35.133433],[136.788238,35.133434],[136.788233,35.133104],[136.788218,35.133018],[136.787573,35.13319],[136.787559,35.133246],[136.78748,35.133353],[136.787368,35.13348],[136.787142,35.133773],[136.786959,35.133773],[136.786884,35.13479],[136.786793,35.135542],[136.786601,35.136292],[136.787119,35.136409],[136.787075,35.136653],[136.787282,35.136692],[136.787588,35.13672],[136.787881,35.136893],[136.787942,35.136948],[136.788078,35.136939],[136.788143,35.137313],[136.788788,35.137263]]]}},{"type":"Feature","properties":{"name":"鍋蓋新田","city":"蟹江町","code":"425","setai":9,"jinko":27,"n":1,"towns":["234250081"],"lx":136.781226,"ly":35.114997},"geometry":{"type":"Polygon","coordinates":[[[136.781786,35.116643],[136.782009,35.116623],[136.782604,35.116065],[136.782858,35.115828],[136.783135,35.115568],[136.783055,35.115336],[136.783048,35.115319],[136.783036,35.115285],[136.783025,35.115253],[136.783011,35.115217],[136.782998,35.115178],[136.782988,35.115148],[136.782974,35.115107],[136.782959,35.115062],[136.782945,35.11502],[136.782935,35.114991],[136.782925,35.114961],[136.78291,35.11492],[136.782899,35.114887],[136.782887,35.114851],[136.782874,35.114814],[136.78286,35.114778],[136.782846,35.114739],[136.782832,35.114701],[136.782821,35.114668],[136.782809,35.114633],[136.782798,35.114602],[136.782787,35.114572],[136.782772,35.11453],[136.782762,35.114501],[136.782751,35.114468],[136.782739,35.114434],[136.782727,35.114399],[136.782712,35.114355],[136.782696,35.114308],[136.782678,35.114256],[136.782657,35.114193],[136.782633,35.114125],[136.782614,35.114072],[136.782594,35.114015],[136.78257,35.113945],[136.782546,35.113878],[136.782527,35.113824],[136.782513,35.113784],[136.782501,35.113747],[136.782483,35.113701],[136.78247,35.113665],[136.782456,35.113627],[136.78244,35.11358],[136.782424,35.113536],[136.782408,35.113489],[136.782391,35.11344],[136.782376,35.113398],[136.782353,35.113332],[136.78233,35.113268],[136.782309,35.113206],[136.782285,35.11314],[136.78226,35.113069],[136.782234,35.112997],[136.782008,35.112402],[136.781805,35.112487],[136.78171,35.112277],[136.781674,35.112243],[136.781099,35.112572],[136.780631,35.112873],[136.780229,35.113369],[136.779722,35.113993],[136.779667,35.114315],[136.779658,35.114383],[136.779631,35.114681],[136.779619,35.11485],[136.779576,35.115184],[136.779555,35.115465],[136.779519,35.115683],[136.779482,35.116019],[136.779489,35.116355],[136.779517,35.116757],[136.779595,35.117087],[136.779901,35.116997],[136.780962,35.116687],[136.781894,35.116515],[136.781786,35.116643]]]}},{"type":"Feature","properties":{"name":"南","city":"蟹江町","code":"425","setai":177,"jinko":419,"n":3,"towns":["23425008201","23425008202","23425008203"],"lx":136.793169,"ly":35.105888},"geometry":{"type":"Polygon","coordinates":[[[136.782008,35.112402],[136.782165,35.112336],[136.782678,35.112138],[136.782863,35.112061],[136.783226,35.111905],[136.783666,35.11174],[136.783671,35.111738],[136.784683,35.111338],[136.784977,35.111196],[136.785211,35.111068],[136.785365,35.110899],[136.785442,35.110696],[136.785548,35.11049],[136.785882,35.109957],[136.786085,35.10969],[136.786269,35.109452],[136.786461,35.109181],[136.786636,35.108902],[136.786829,35.10864],[136.786906,35.10854],[136.78693,35.108509],[136.786974,35.108453],[136.786984,35.10844],[136.78705,35.108357],[136.787091,35.108306],[136.787233,35.108138],[136.787349,35.107998],[136.787404,35.107947],[136.788141,35.107454],[136.787762,35.107061],[136.787935,35.1069],[136.788053,35.106766],[136.78808,35.106729],[136.788083,35.106724],[136.788173,35.1066],[136.788227,35.106424],[136.788278,35.10621],[136.788281,35.106199],[136.788373,35.106026],[136.78855,35.105824],[136.788749,35.105629],[136.78902,35.105434],[136.789517,35.105097],[136.789814,35.104882],[136.790092,35.104659],[136.790331,35.104471],[136.79054,35.104316],[136.790565,35.104298],[136.790708,35.104191],[136.790919,35.10405],[136.791215,35.10384],[136.791414,35.103695],[136.791658,35.103506],[136.791982,35.103294],[136.79218,35.10314],[136.792332,35.103021],[136.792508,35.102914],[136.792714,35.102748],[136.794018,35.101718],[136.795028,35.100826],[136.796225,35.09967],[136.796385,35.099516],[136.796327,35.097491],[136.796829,35.097341],[136.797208,35.097187],[136.797907,35.096952],[136.79805,35.100765],[136.798101,35.102118],[136.798099,35.102142],[136.798112,35.10223],[136.798095,35.102353],[136.798031,35.102643],[136.797879,35.103189],[136.797772,35.103523],[136.797739,35.103608],[136.797667,35.10379],[136.797619,35.103969],[136.797511,35.104179],[136.797399,35.104343],[136.797338,35.104429],[136.797252,35.104539],[136.797217,35.104581],[136.796456,35.105496],[136.796351,35.105638],[136.79615,35.10598],[136.796062,35.106218],[136.795966,35.106448],[136.795716,35.10709],[136.795556,35.107447],[136.795433,35.107735],[136.79527,35.108167],[136.795208,35.108292],[136.795122,35.108408],[136.794933,35.108597],[136.794526,35.108857],[136.794254,35.108983],[136.794229,35.10897],[136.79417,35.108908],[136.793993,35.10878],[136.793797,35.108686],[136.79371,35.108644],[136.793312,35.108944],[136.793014,35.108873],[136.791549,35.109883],[136.789817,35.111067],[136.789791,35.111088],[136.78807,35.112602],[136.786147,35.113573],[136.785338,35.113935],[136.784878,35.114152],[136.784486,35.114362],[136.783758,35.114986],[136.783449,35.115272],[136.783135,35.115568],[136.783055,35.115336],[136.783048,35.115319],[136.783036,35.115285],[136.783025,35.115253],[136.783011,35.115217],[136.782988,35.115148],[136.782974,35.115107],[136.782945,35.11502],[136.782935,35.114991],[136.782925,35.114961],[136.78291,35.11492],[136.782887,35.114851],[136.782874,35.114814],[136.78286,35.114778],[136.782846,35.114739],[136.782832,35.114701],[136.782821,35.114668],[136.782809,35.114633],[136.782798,35.114602],[136.782787,35.114572],[136.782772,35.11453],[136.782762,35.114501],[136.782751,35.114468],[136.782739,35.114434],[136.782727,35.114399],[136.782712,35.114355],[136.782696,35.114308],[136.782678,35.114256],[136.782657,35.114193],[136.782633,35.114125],[136.782614,35.114072],[136.782594,35.114015],[136.78257,35.113945],[136.782546,35.113878],[136.782527,35.113824],[136.782513,35.113784],[136.782501,35.113747],[136.782483,35.113701],[136.78247,35.113665],[136.782456,35.113627],[136.78244,35.11358],[136.782424,35.113536],[136.782408,35.113489],[136.782391,35.11344],[136.782376,35.113398],[136.782353,35.113332],[136.78233,35.113268],[136.782309,35.113206],[136.782285,35.11314],[136.78226,35.113069],[136.782234,35.112997],[136.782008,35.112402]]]}},{"type":"Feature","properties":{"name":"新千秋","city":"蟹江町","code":"425","setai":195,"jinko":506,"n":1,"towns":["234250090"],"lx":136.775182,"ly":35.116325},"geometry":{"type":"Polygon","coordinates":[[[136.772586,35.120172],[136.772815,35.119233],[136.772826,35.119193],[136.774398,35.119479],[136.774644,35.119532],[136.774908,35.118553],[136.776735,35.11888],[136.777118,35.117463],[136.778303,35.117676],[136.778367,35.117745],[136.779007,35.117543],[136.779649,35.117387],[136.779595,35.117087],[136.779517,35.116757],[136.779489,35.116355],[136.779482,35.116019],[136.779519,35.115683],[136.779555,35.115465],[136.779576,35.115184],[136.779619,35.11485],[136.779631,35.114681],[136.779658,35.114383],[136.779667,35.114315],[136.779722,35.113993],[136.780229,35.113369],[136.779839,35.112721],[136.777759,35.113172],[136.777371,35.113117],[136.777286,35.112917],[136.776916,35.11296],[136.776921,35.112984],[136.77665,35.113011],[136.776625,35.112958],[136.776283,35.113013],[136.776136,35.113024],[136.77581,35.113052],[136.77588,35.113293],[136.776081,35.113275],[136.776286,35.113782],[136.775664,35.113838],[136.775181,35.113942],[136.774703,35.114084],[136.774423,35.114195],[136.774158,35.114323],[136.774003,35.114414],[136.773848,35.114506],[136.773778,35.114559],[136.773756,35.114576],[136.773489,35.114811],[136.773241,35.115047],[136.773033,35.115285],[136.77259,35.115899],[136.77237,35.115642],[136.772342,35.115609],[136.772273,35.115903],[136.772179,35.116226],[136.771987,35.116601],[136.77174,35.116961],[136.771351,35.117461],[136.770796,35.117943],[136.770307,35.118317],[136.76991,35.118536],[136.770384,35.119145],[136.771047,35.120101],[136.771424,35.119974],[136.771922,35.120072],[136.772358,35.120139],[136.772586,35.120172]]]}},{"type":"Feature","properties":{"name":"平安","city":"蟹江町","code":"425","setai":182,"jinko":457,"n":1,"towns":["234250100"],"lx":136.779367,"ly":35.137669},"geometry":{"type":"Polygon","coordinates":[[[136.777826,35.136584],[136.777061,35.136504],[136.776867,35.137415],[136.77703,35.137471],[136.777035,35.137508],[136.776989,35.137621],[136.776839,35.137955],[136.778325,35.138369],[136.778901,35.138515],[136.779531,35.138677],[136.780004,35.138799],[136.7801,35.138249],[136.781148,35.137457],[136.781703,35.136994],[136.780989,35.136917],[136.780348,35.136834],[136.779647,35.136755],[136.778661,35.136667],[136.777826,35.136584]]]}},{"type":"Feature","properties":{"name":"錦","city":"蟹江町","code":"425","setai":256,"jinko":578,"n":1,"towns":["234250110"],"lx":136.778833,"ly":35.135472},"geometry":{"type":"Polygon","coordinates":[[[136.778456,35.134205],[136.777892,35.134134],[136.777843,35.134322],[136.777815,35.134427],[136.77777,35.134538],[136.777699,35.134625],[136.777615,35.134704],[136.777471,35.134815],[136.777289,35.135072],[136.777273,35.135117],[136.777659,35.135154],[136.777633,35.135211],[136.777583,35.13528],[136.777443,35.135453],[136.777334,35.135577],[136.777075,35.135865],[136.776635,35.136433],[136.777061,35.136504],[136.777826,35.136584],[136.778661,35.136667],[136.779647,35.136755],[136.780348,35.136834],[136.780989,35.136917],[136.781435,35.134586],[136.780786,35.134514],[136.78013,35.134429],[136.780086,35.134423],[136.778456,35.134205]]]}},{"type":"Feature","properties":{"name":"源氏","city":"蟹江町","code":"425","setai":405,"jinko":926,"n":1,"towns":["234250120"],"lx":136.780259,"ly":35.132973},"geometry":{"type":"Polygon","coordinates":[[[136.781423,35.131328],[136.781662,35.130133],[136.781675,35.130062],[136.781869,35.129001],[136.781928,35.12873],[136.781816,35.128813],[136.781749,35.128859],[136.781703,35.128865],[136.781644,35.128859],[136.781569,35.128808],[136.781533,35.12879],[136.781215,35.128754],[136.780498,35.128446],[136.780291,35.128307],[136.778817,35.128836],[136.778911,35.129051],[136.779288,35.129752],[136.779427,35.130221],[136.779374,35.130478],[136.779249,35.131],[136.777988,35.130771],[136.777979,35.130787],[136.777945,35.130832],[136.777875,35.130916],[136.777748,35.131077],[136.777713,35.131229],[136.777641,35.131494],[136.778466,35.131615],[136.779048,35.131788],[136.778456,35.134205],[136.780086,35.134423],[136.78013,35.134429],[136.780786,35.134514],[136.781435,35.134586],[136.781567,35.133905],[136.781765,35.132863],[136.781806,35.132661],[136.781996,35.13173],[136.782051,35.131524],[136.782094,35.131365],[136.781423,35.131328]]]}},{"type":"Feature","properties":{"name":"八幡","city":"蟹江町","code":"425","setai":303,"jinko":766,"n":1,"towns":["234250130"],"lx":136.777589,"ly":35.129353},"geometry":{"type":"Polygon","coordinates":[[[136.779839,35.127831],[136.779775,35.127782],[136.779719,35.127745],[136.779603,35.127679],[136.77956,35.127655],[136.778233,35.127798],[136.777904,35.127782],[136.776959,35.127483],[136.776177,35.129254],[136.775702,35.130332],[136.776568,35.130522],[136.777139,35.130629],[136.777988,35.130771],[136.779249,35.131],[136.779374,35.130478],[136.779427,35.130221],[136.779288,35.129752],[136.778911,35.129051],[136.778817,35.128836],[136.780291,35.128307],[136.780203,35.128211],[136.780002,35.128013],[136.77989,35.127882],[136.779839,35.127831]]]}},{"type":"Feature","properties":{"name":"泉","city":"蟹江町","code":"425","setai":102,"jinko":254,"n":1,"towns":["234250140"],"lx":136.781072,"ly":35.127506},"geometry":{"type":"Polygon","coordinates":[[[136.782087,35.128],[136.782161,35.127618],[136.782228,35.127219],[136.782331,35.126688],[136.781767,35.126552],[136.780445,35.126236],[136.778434,35.125756],[136.777792,35.125602],[136.777539,35.126171],[136.776959,35.127483],[136.777904,35.127782],[136.778233,35.127798],[136.77956,35.127655],[136.779603,35.127679],[136.779719,35.127745],[136.779775,35.127782],[136.779839,35.127831],[136.77989,35.127882],[136.780002,35.128013],[136.780203,35.128211],[136.780291,35.128307],[136.780498,35.128446],[136.781215,35.128754],[136.781533,35.12879],[136.781569,35.128808],[136.781644,35.128859],[136.781703,35.128865],[136.781749,35.128859],[136.781816,35.128813],[136.781928,35.12873],[136.781975,35.1285],[136.782011,35.128337],[136.782043,35.128189],[136.782087,35.128]]]}},{"type":"Feature","properties":{"name":"緑","city":"蟹江町","code":"425","setai":366,"jinko":752,"n":1,"towns":["234250150"],"lx":136.781416,"ly":35.125276},"geometry":{"type":"Polygon","coordinates":[[[136.779315,35.123823],[136.778052,35.123652],[136.777818,35.124177],[136.777641,35.124543],[136.777399,35.125077],[136.777224,35.12547],[136.777324,35.125493],[136.777792,35.125602],[136.778434,35.125756],[136.780445,35.126236],[136.781767,35.126552],[136.782331,35.126688],[136.782459,35.126025],[136.782531,35.125614],[136.782618,35.125204],[136.782705,35.124796],[136.78281,35.12427],[136.78117,35.124081],[136.780885,35.124043],[136.779797,35.123892],[136.779315,35.123823]]]}},{"type":"Feature","properties":{"name":"旭","city":"蟹江町","code":"425","setai":224,"jinko":473,"n":1,"towns":["234250160"],"lx":136.783197,"ly":35.127003},"geometry":{"type":"Polygon","coordinates":[[[136.783637,35.124938],[136.782705,35.124796],[136.782618,35.125204],[136.782531,35.125614],[136.782459,35.126025],[136.782331,35.126688],[136.782228,35.127219],[136.782161,35.127618],[136.782087,35.128],[136.782043,35.128189],[136.782011,35.128337],[136.782313,35.128027],[136.783379,35.127899],[136.784067,35.127818],[136.784093,35.127816],[136.784106,35.127113],[136.784107,35.126237],[136.784119,35.125815],[136.784138,35.125412],[136.783624,35.12535],[136.783637,35.124938]]]}},{"type":"Feature","properties":{"name":"須成西","city":"蟹江町","code":"425","setai":68,"jinko":282,"n":1,"towns":["234250170"],"lx":136.782204,"ly":35.142241},"geometry":{"type":"Polygon","coordinates":[[[136.784899,35.145297],[136.784753,35.145019],[136.784517,35.145076],[136.784403,35.144878],[136.784203,35.144917],[136.784088,35.144612],[136.783655,35.144661],[136.783631,35.144383],[136.784013,35.144352],[136.784385,35.144305],[136.784377,35.14402],[136.784379,35.143935],[136.784619,35.143909],[136.784615,35.143769],[136.784633,35.143739],[136.785127,35.143282],[136.78543,35.143097],[136.785606,35.143],[136.785942,35.142757],[136.786014,35.142673],[136.786192,35.142404],[136.786785,35.14144],[136.786825,35.141367],[136.787155,35.140831],[136.786699,35.140663],[136.78611,35.140451],[136.785548,35.140253],[136.785062,35.140097],[136.784899,35.14005],[136.784849,35.140209],[136.784555,35.140126],[136.784514,35.140366],[136.784012,35.140323],[136.783956,35.140676],[136.782517,35.140518],[136.78242,35.140463],[136.782325,35.140419],[136.782094,35.140326],[136.781787,35.140249],[136.780499,35.13993],[136.780298,35.140959],[136.780252,35.141317],[136.780206,35.141428],[136.780157,35.141555],[136.780052,35.14183],[136.780067,35.142487],[136.780305,35.142483],[136.78031,35.142726],[136.780075,35.142701],[136.780069,35.143253],[136.780807,35.143297],[136.780865,35.144492],[136.779973,35.144489],[136.779991,35.144596],[136.780379,35.144811],[136.780802,35.145052],[136.780942,35.145142],[136.781079,35.145247],[136.781229,35.145373],[136.781483,35.145609],[136.781685,35.145828],[136.781789,35.145975],[136.781889,35.146169],[136.783205,35.146281],[136.783731,35.146293],[136.784529,35.146264],[136.784941,35.146245],[136.78513,35.146222],[136.78514,35.146087],[136.785116,35.145786],[136.785083,35.145692],[136.784899,35.145297]],[[136.783807,35.143114],[136.783877,35.142758],[136.784279,35.142836],[136.784168,35.143149],[136.783807,35.143114]]]}},{"type":"Feature","properties":{"name":"今西上","city":"蟹江町","code":"425","setai":7,"jinko":37,"n":1,"towns":["234250180"],"lx":136.783406,"ly":35.140145},"geometry":{"type":"Polygon","coordinates":[[[136.783956,35.140676],[136.784012,35.140323],[136.784514,35.140366],[136.784555,35.140126],[136.784849,35.140209],[136.784899,35.14005],[136.784364,35.139906],[136.783285,35.139631],[136.783134,35.139755],[136.78242,35.140463],[136.782517,35.140518],[136.783956,35.140676]]]}},{"type":"Feature","properties":{"name":"本町","city":"蟹江町","code":"425","setai":2433,"jinko":5171,"n":2,"towns":["23425019000","23425019014"],"lx":136.797125,"ly":35.133182},"geometry":{"type":"Polygon","coordinates":[[[136.793656,35.129365],[136.796085,35.129931],[136.797282,35.13022],[136.798125,35.130424],[136.799335,35.130717],[136.800249,35.130938],[136.802147,35.131389],[136.802136,35.131395],[136.801958,35.131473],[136.801957,35.131693],[136.801933,35.131722],[136.801858,35.131728],[136.801715,35.131742],[136.801738,35.131876],[136.801751,35.131958],[136.801759,35.132003],[136.801677,35.132017],[136.801428,35.132046],[136.801446,35.132317],[136.801387,35.132332],[136.801391,35.132477],[136.801173,35.132499],[136.801033,35.132513],[136.801048,35.132599],[136.800809,35.132641],[136.800719,35.132664],[136.800626,35.132713],[136.800192,35.132753],[136.800059,35.132775],[136.800044,35.133056],[136.800035,35.133542],[136.800032,35.133568],[136.800028,35.133609],[136.800027,35.133868],[136.800025,35.134206],[136.800016,35.134334],[136.800015,35.134377],[136.80001,35.134499],[136.800009,35.13478],[136.800007,35.135062],[136.80001,35.135198],[136.800009,35.135224],[136.800006,35.135355],[136.800005,35.135603],[136.800004,35.135738],[136.800004,35.135896],[136.799989,35.136178],[136.79996,35.136482],[136.799907,35.137442],[136.799925,35.137737],[136.799927,35.137755],[136.799961,35.13822],[136.799991,35.138623],[136.799806,35.138607],[136.799472,35.1386],[136.79905,35.138567],[136.798556,35.138514],[136.797996,35.138455],[136.797238,35.138361],[136.797247,35.138585],[136.797275,35.139083],[136.797334,35.139626],[136.797339,35.139676],[136.797367,35.139975],[136.798184,35.139941],[136.79877,35.13989],[136.798881,35.141135],[136.798929,35.141547],[136.799197,35.141541],[136.800359,35.141453],[136.800433,35.141447],[136.800455,35.141594],[136.800456,35.141597],[136.800491,35.141834],[136.800498,35.141881],[136.8004,35.141883],[136.797754,35.142038],[136.797252,35.142063],[136.796495,35.142099],[136.795683,35.142156],[136.79566,35.142137],[136.79563,35.142101],[136.795567,35.141326],[136.795456,35.139953],[136.795442,35.139719],[136.795416,35.139313],[136.795417,35.13921],[136.79488,35.139202],[136.794905,35.138842],[136.794941,35.138354],[136.794956,35.138117],[136.79494,35.137883],[136.794912,35.137241],[136.79478,35.136534],[136.79471,35.136092],[136.794622,35.135646],[136.79457,35.135307],[136.794507,35.135034],[136.794399,35.134467],[136.794329,35.134072],[136.794311,35.133972],[136.794149,35.133184],[136.794144,35.133159],[136.794138,35.133122],[136.794122,35.133022],[136.79409,35.132834],[136.794004,35.132363],[136.793964,35.132156],[136.793912,35.131885],[136.793818,35.13128],[136.793757,35.130658],[136.793733,35.130382],[136.793668,35.129713],[136.793656,35.129365]]]}},{"type":"Feature","properties":{"name":"今東郊通","city":"蟹江町","code":"425","setai":44,"jinko":107,"n":1,"towns":["234250200"],"lx":136.795075,"ly":35.14103},"geometry":{"type":"Polygon","coordinates":[[[136.800612,35.142576],[136.800523,35.142033],[136.800498,35.141881],[136.8004,35.141883],[136.797754,35.142038],[136.797252,35.142063],[136.796495,35.142099],[136.795683,35.142156],[136.79566,35.142137],[136.79563,35.142101],[136.795567,35.141326],[136.795456,35.139953],[136.795162,35.13997],[136.795178,35.140274],[136.795295,35.140311],[136.795314,35.140539],[136.794619,35.140604],[136.79454,35.140989],[136.794484,35.141183],[136.794632,35.141172],[136.794671,35.141817],[136.795263,35.142062],[136.795604,35.142229],[136.795742,35.142313],[136.79613,35.142364],[136.796703,35.14243],[136.797364,35.142541],[136.797573,35.142576],[136.798064,35.142639],[136.798406,35.142676],[136.798674,35.142692],[136.79871,35.142695],[136.798947,35.142705],[136.799215,35.142708],[136.799483,35.142696],[136.799583,35.142688],[136.799742,35.142675],[136.799891,35.14266],[136.80024,35.142624],[136.800517,35.142587],[136.800612,35.142576]]]}},{"type":"Feature","properties":{"name":"上川田","city":"蟹江町","code":"425","setai":5,"jinko":18,"n":1,"towns":["234250210"],"lx":136.772151,"ly":35.147543},"geometry":{"type":"Polygon","coordinates":[[[136.772931,35.14808],[136.772943,35.14798],[136.773152,35.148009],[136.773254,35.147594],[136.773296,35.147475],[136.773471,35.147231],[136.772976,35.147114],[136.773195,35.146388],[136.771915,35.146668],[136.771495,35.145805],[136.7715,35.145712],[136.771328,35.145263],[136.771236,35.144754],[136.771029,35.14408],[136.77148,35.143317],[136.770919,35.142925],[136.770773,35.14282],[136.770736,35.142851],[136.770395,35.143019],[136.770095,35.143252],[136.770018,35.143354],[136.769961,35.143443],[136.769928,35.143438],[136.76984,35.143801],[136.769827,35.144154],[136.769797,35.1444],[136.769834,35.144652],[136.769915,35.144929],[136.770133,35.145377],[136.770192,35.1455],[136.769873,35.145654],[136.77008,35.146291],[136.7702,35.146696],[136.770542,35.147516],[136.770661,35.147758],[136.770769,35.148018],[136.771009,35.147896],[136.771014,35.147981],[136.771565,35.148323],[136.771638,35.148345],[136.771698,35.148348],[136.771811,35.148382],[136.77233,35.14871],[136.772713,35.148961],[136.77331,35.149351],[136.773593,35.148958],[136.773402,35.148893],[136.773158,35.148689],[136.773073,35.148665],[136.773067,35.14841],[136.773013,35.148402],[136.77291,35.148386],[136.772931,35.14808]]]}},{"type":"Feature","properties":{"name":"北新田","city":"蟹江町","code":"425","setai":45,"jinko":134,"n":1,"towns":["234250230"],"lx":136.777348,"ly":35.147466},"geometry":{"type":"Polygon","coordinates":[[[136.774804,35.150465],[136.774709,35.150408],[136.77464,35.150408],[136.774503,35.150439],[136.774393,35.150199],[136.774287,35.149982],[136.774313,35.14985],[136.774316,35.149718],[136.774306,35.149661],[136.77464,35.149579],[136.774796,35.14954],[136.774769,35.149364],[136.774753,35.149284],[136.775296,35.149117],[136.775525,35.149075],[136.775857,35.14903],[136.776051,35.149019],[136.776335,35.149025],[136.777981,35.14917],[136.777986,35.14917],[136.778084,35.149176],[136.77825,35.149159],[136.778385,35.149146],[136.778514,35.149132],[136.778562,35.149131],[136.778581,35.149163],[136.778621,35.14925],[136.778637,35.149329],[136.778674,35.149435],[136.778737,35.149478],[136.778828,35.149488],[136.778974,35.14944],[136.779066,35.149409],[136.779337,35.149406],[136.779573,35.149384],[136.77969,35.149378],[136.779803,35.14945],[136.779922,35.149497],[136.779979,35.149495],[136.780093,35.149431],[136.780202,35.149395],[136.780314,35.149388],[136.780395,35.149406],[136.780558,35.149507],[136.780663,35.14954],[136.780766,35.149552],[136.780977,35.149557],[136.781016,35.149565],[136.781206,35.149612],[136.781498,35.149702],[136.781868,35.149811],[136.78202,35.149813],[136.782186,35.149797],[136.782256,35.149781],[136.782313,35.149772],[136.782857,35.149613],[136.782517,35.148992],[136.782263,35.148566],[136.781715,35.148695],[136.781231,35.148714],[136.780901,35.14866],[136.780569,35.14852],[136.780311,35.148318],[136.780143,35.148107],[136.780016,35.147634],[136.779872,35.147182],[136.779638,35.146881],[136.779408,35.14671],[136.779168,35.14657],[136.77852,35.146315],[136.778585,35.14603],[136.777378,35.145641],[136.776372,35.145324],[136.776044,35.146468],[136.773903,35.145821],[136.773781,35.146041],[136.773869,35.146357],[136.773427,35.14639],[136.773195,35.146388],[136.772976,35.147114],[136.773471,35.147231],[136.773296,35.147475],[136.773254,35.147594],[136.773152,35.148009],[136.772943,35.14798],[136.772931,35.14808],[136.77291,35.148386],[136.773013,35.148402],[136.773067,35.14841],[136.773073,35.148665],[136.773158,35.148689],[136.773402,35.148893],[136.773593,35.148958],[136.77331,35.149351],[136.773348,35.149377],[136.773429,35.14943],[136.773459,35.149477],[136.773475,35.149526],[136.774116,35.14995],[136.774191,35.15019],[136.774242,35.150333],[136.774312,35.150458],[136.774443,35.150985],[136.774387,35.151081],[136.774514,35.151251],[136.774721,35.151197],[136.774705,35.151095],[136.774804,35.150465]]]}},{"type":"Feature","properties":{"name":"今本町通","city":"蟹江町","code":"425","setai":155,"jinko":323,"n":1,"towns":["234250240"],"lx":136.790558,"ly":35.139763},"geometry":{"type":"Polygon","coordinates":[[[136.791717,35.139824],[136.791657,35.139328],[136.791433,35.139327],[136.791424,35.139187],[136.790876,35.139177],[136.790832,35.138636],[136.790821,35.13852],[136.790315,35.138564],[136.7903,35.138472],[136.789784,35.138507],[136.789816,35.138915],[136.789386,35.138931],[136.788843,35.138898],[136.788804,35.139017],[136.788743,35.139212],[136.789049,35.139187],[136.789033,35.139452],[136.789021,35.139556],[136.788768,35.139553],[136.788781,35.13985],[136.789553,35.139775],[136.789884,35.139748],[136.789972,35.140471],[136.790585,35.140429],[136.790982,35.140404],[136.791776,35.140324],[136.791717,35.139824]]]}},{"type":"Feature","properties":{"name":"城","city":"蟹江町","code":"425","setai":1431,"jinko":3045,"n":5,"towns":["234250260","23425032001","23425032002","23425032003","23425032004"],"lx":136.791968,"ly":35.135334},"geometry":{"type":"Polygon","coordinates":[[[136.788726,35.128215],[136.791138,35.128779],[136.791671,35.128902],[136.793362,35.129296],[136.793656,35.129365],[136.793668,35.129713],[136.793733,35.130382],[136.793757,35.130658],[136.793818,35.13128],[136.793912,35.131885],[136.793964,35.132156],[136.794004,35.132363],[136.79409,35.132834],[136.794122,35.133022],[136.794138,35.133122],[136.794144,35.133159],[136.794149,35.133184],[136.794311,35.133972],[136.794329,35.134072],[136.794399,35.134467],[136.794507,35.135034],[136.79457,35.135307],[136.794622,35.135646],[136.79471,35.136092],[136.79478,35.136534],[136.794912,35.137241],[136.79494,35.137883],[136.794956,35.138117],[136.794739,35.138099],[136.793989,35.138037],[136.793826,35.138013],[136.792536,35.137903],[136.792521,35.137903],[136.79197,35.137885],[136.791477,35.137875],[136.790746,35.137875],[136.789776,35.137884],[136.78901,35.13785],[136.788751,35.137848],[136.788788,35.137263],[136.78882,35.136899],[136.788858,35.136592],[136.788903,35.136459],[136.789135,35.135771],[136.789189,35.135613],[136.789325,35.135226],[136.789475,35.134765],[136.789502,35.134687],[136.789546,35.13428],[136.789608,35.133698],[136.789599,35.133482],[136.789591,35.133243],[136.789565,35.132735],[136.789561,35.132605],[136.789548,35.13252],[136.789514,35.132343],[136.789429,35.131894],[136.789366,35.131558],[136.789297,35.131198],[136.789204,35.130707],[136.789094,35.130121],[136.788905,35.129127],[136.788841,35.128752],[136.788726,35.128215]]]}},{"type":"Feature","properties":{"name":"今西","city":"蟹江町","code":"425","setai":718,"jinko":1757,"n":3,"towns":["23425028001","23425028002","23425028003"],"lx":136.786415,"ly":35.138913},"geometry":{"type":"Polygon","coordinates":[[[136.779624,35.140724],[136.780004,35.138799],[136.7801,35.138249],[136.781148,35.137457],[136.781703,35.136994],[136.78339,35.137202],[136.78414,35.137308],[136.785671,35.137476],[136.785801,35.137488],[136.786118,35.136971],[136.786306,35.136668],[136.786601,35.136292],[136.787119,35.136409],[136.787075,35.136653],[136.787282,35.136692],[136.787588,35.13672],[136.787881,35.136893],[136.787942,35.136948],[136.788078,35.136939],[136.788143,35.137313],[136.788788,35.137263],[136.788751,35.137848],[136.78828,35.138721],[136.78811,35.139036],[136.787864,35.139494],[136.787502,35.140166],[136.787155,35.140831],[136.786699,35.140663],[136.78611,35.140451],[136.785548,35.140253],[136.785062,35.140097],[136.784899,35.14005],[136.784364,35.139906],[136.783285,35.139631],[136.783134,35.139755],[136.78242,35.140463],[136.782325,35.140419],[136.782094,35.140326],[136.781787,35.140249],[136.780499,35.13993],[136.780298,35.140959],[136.779989,35.140987],[136.779937,35.14076],[136.779624,35.140724]]]}},{"type":"Feature","properties":{"name":"宝","city":"蟹江町","code":"425","setai":818,"jinko":1972,"n":4,"towns":["23425029001","23425029002","23425029003","23425029004"],"lx":136.795094,"ly":35.127419},"geometry":{"type":"Polygon","coordinates":[[[136.787758,35.125704],[136.787764,35.125586],[136.787763,35.125508],[136.787777,35.12545],[136.787806,35.125338],[136.787885,35.125135],[136.787977,35.124885],[136.78799,35.124795],[136.787951,35.124612],[136.789505,35.124757],[136.792229,35.124981],[136.792887,35.125042],[136.794286,35.125146],[136.795604,35.125222],[136.797372,35.125319],[136.797363,35.125341],[136.797371,35.125929],[136.797166,35.125945],[136.797154,35.126185],[136.797145,35.12622],[136.797205,35.126228],[136.797166,35.126616],[136.797289,35.12661],[136.797383,35.127031],[136.797437,35.12703],[136.797426,35.127257],[136.797539,35.127272],[136.797609,35.127302],[136.79762,35.127469],[136.797691,35.127515],[136.797667,35.127934],[136.79766,35.128208],[136.7977,35.128238],[136.797813,35.12831],[136.797901,35.128314],[136.797976,35.128317],[136.798067,35.128381],[136.798207,35.128404],[136.798732,35.128356],[136.798767,35.128241],[136.798776,35.128209],[136.798847,35.128199],[136.799004,35.128242],[136.79913,35.128257],[136.799274,35.128254],[136.799276,35.128243],[136.799283,35.128207],[136.799304,35.12818],[136.799392,35.128184],[136.799401,35.128187],[136.799539,35.128227],[136.799598,35.128244],[136.799621,35.128256],[136.799646,35.128273],[136.799648,35.128273],[136.799868,35.128269],[136.800034,35.128245],[136.800165,35.128226],[136.800382,35.12819],[136.800704,35.12814],[136.800946,35.128043],[136.801107,35.127947],[136.801345,35.127748],[136.801824,35.127676],[136.801932,35.128127],[136.801898,35.128251],[136.80194,35.128469],[136.801971,35.128555],[136.802094,35.128781],[136.802216,35.128916],[136.802634,35.129077],[136.802706,35.129116],[136.802767,35.129179],[136.802807,35.129281],[136.802786,35.129397],[136.802576,35.129654],[136.80246,35.129808],[136.802349,35.12992],[136.802299,35.13006],[136.802318,35.130274],[136.802306,35.130291],[136.802155,35.130308],[136.802183,35.130468],[136.80219,35.130511],[136.802116,35.130512],[136.801947,35.130514],[136.80195,35.130596],[136.801954,35.130694],[136.801968,35.131027],[136.801975,35.1312],[136.802135,35.131233],[136.802238,35.131338],[136.802147,35.131389],[136.800249,35.130938],[136.799335,35.130717],[136.798125,35.130424],[136.797282,35.13022],[136.796085,35.129931],[136.793656,35.129365],[136.793362,35.129296],[136.791671,35.128902],[136.791138,35.128779],[136.788726,35.128215],[136.78843,35.128142],[136.788403,35.127937],[136.788286,35.127267],[136.788229,35.126838],[136.788205,35.126727],[136.788165,35.12665],[136.788047,35.126474],[136.787948,35.126349],[136.787857,35.126242],[136.787822,35.126171],[136.78781,35.126],[136.787797,35.12585],[136.787758,35.125704]]]}},{"type":"Feature","properties":{"name":"学戸","city":"蟹江町","code":"425","setai":1092,"jinko":2602,"n":7,"towns":["23425030001","23425030002","23425030003","23425030004","23425030005","23425030006","23425030007"],"lx":136.784187,"ly":35.134584},"geometry":{"type":"Polygon","coordinates":[[[136.780989,35.136917],[136.781435,35.134586],[136.781567,35.133905],[136.781765,35.132863],[136.781806,35.132661],[136.781996,35.13173],[136.782051,35.131524],[136.782094,35.131365],[136.781423,35.131328],[136.781662,35.130133],[136.781675,35.130062],[136.781869,35.129001],[136.781928,35.12873],[136.781975,35.1285],[136.782011,35.128337],[136.782313,35.128027],[136.783379,35.127899],[136.784067,35.127818],[136.784068,35.127933],[136.784067,35.128179],[136.784057,35.128244],[136.784029,35.128427],[136.784009,35.128848],[136.784766,35.12908],[136.784693,35.129356],[136.784604,35.129774],[136.784577,35.129951],[136.784574,35.130231],[136.784573,35.130245],[136.785778,35.130258],[136.786166,35.130258],[136.786469,35.130252],[136.786951,35.130239],[136.787883,35.13026],[136.787877,35.130519],[136.787906,35.130946],[136.787869,35.131158],[136.787984,35.131732],[136.788051,35.131964],[136.788112,35.132261],[136.788175,35.132754],[136.788195,35.132873],[136.788218,35.133018],[136.787573,35.13319],[136.787559,35.133246],[136.78748,35.133353],[136.787368,35.13348],[136.787142,35.133773],[136.786959,35.133773],[136.786884,35.13479],[136.786793,35.135542],[136.786601,35.136292],[136.786306,35.136668],[136.786118,35.136971],[136.785801,35.137488],[136.785671,35.137476],[136.78414,35.137308],[136.78339,35.137202],[136.781703,35.136994],[136.780989,35.136917]]]}},{"type":"Feature","properties":{"name":"舟入","city":"蟹江町","code":"425","setai":557,"jinko":1362,"n":4,"towns":["23425031001","23425031002","23425031003","23425031004"],"lx":136.791474,"ly":35.12259},"geometry":{"type":"Polygon","coordinates":[[[136.787913,35.123577],[136.787925,35.123336],[136.787943,35.123211],[136.788013,35.123025],[136.788158,35.122813],[136.788306,35.12265],[136.788453,35.122481],[136.788633,35.12227],[136.789395,35.121435],[136.78972,35.12107],[136.789907,35.120852],[136.790001,35.120764],[136.79038,35.120341],[136.79075,35.119919],[136.791186,35.119435],[136.79133,35.119274],[136.791415,35.119163],[136.791546,35.119007],[136.791589,35.118881],[136.79161,35.118689],[136.791653,35.118497],[136.791894,35.117833],[136.791942,35.117684],[136.791956,35.117562],[136.791932,35.117363],[136.791906,35.117279],[136.791838,35.117094],[136.791776,35.116911],[136.791655,35.116592],[136.791549,35.116327],[136.791204,35.115463],[136.791108,35.115254],[136.791456,35.112876],[136.791812,35.112794],[136.791812,35.112827],[136.79188,35.112873],[136.792087,35.113013],[136.792078,35.113089],[136.79197,35.113635],[136.791926,35.114321],[136.791941,35.114586],[136.791962,35.114833],[136.792022,35.115118],[136.792088,35.115273],[136.7922,35.115468],[136.792375,35.115811],[136.792454,35.115992],[136.792618,35.116312],[136.792624,35.116326],[136.792646,35.11638],[136.792673,35.116402],[136.792853,35.116422],[136.792993,35.116745],[136.79303,35.116821],[136.793044,35.11685],[136.792964,35.116872],[136.792937,35.116879],[136.792911,35.116886],[136.792907,35.116887],[136.792948,35.116995],[136.793093,35.116952],[136.793099,35.116966],[136.793192,35.117136],[136.793251,35.117326],[136.79327,35.117494],[136.79327,35.117779],[136.79329,35.117833],[136.793322,35.11796],[136.793225,35.117989],[136.793255,35.118159],[136.793287,35.118259],[136.793417,35.1183],[136.793535,35.118599],[136.793548,35.118802],[136.793443,35.118827],[136.793412,35.118887],[136.793402,35.118906],[136.793084,35.11898],[136.793242,35.119504],[136.793111,35.119557],[136.793092,35.119606],[136.793132,35.119757],[136.793161,35.119811],[136.793179,35.119845],[136.793287,35.120028],[136.793461,35.120427],[136.793613,35.120642],[136.793725,35.120853],[136.793682,35.120975],[136.793784,35.121172],[136.793591,35.121255],[136.793643,35.121364],[136.793684,35.121353],[136.793721,35.121415],[136.793766,35.121409],[136.793808,35.121514],[136.793755,35.121531],[136.793795,35.12167],[136.793796,35.121671],[136.793798,35.121671],[136.793875,35.121646],[136.793899,35.121739],[136.793664,35.121822],[136.793703,35.121871],[136.793705,35.121873],[136.793762,35.121944],[136.793774,35.121958],[136.793779,35.121965],[136.793783,35.121969],[136.793787,35.121974],[136.79381,35.122004],[136.793843,35.122044],[136.793862,35.122067],[136.793983,35.122031],[136.794126,35.12202],[136.794226,35.122013],[136.794238,35.121895],[136.794416,35.121887],[136.794499,35.121884],[136.794499,35.121975],[136.794565,35.121988],[136.794613,35.121994],[136.79476,35.122013],[136.795204,35.12207],[136.795235,35.122074],[136.795251,35.122076],[136.795263,35.122077],[136.795273,35.122079],[136.795301,35.122082],[136.795371,35.122091],[136.795406,35.122096],[136.795569,35.122117],[136.795725,35.122108],[136.796013,35.122099],[136.796014,35.122099],[136.796593,35.122075],[136.797022,35.122048],[136.797226,35.122035],[136.797394,35.122031],[136.797471,35.122035],[136.797517,35.122037],[136.797518,35.122037],[136.797531,35.122062],[136.797488,35.122107],[136.797635,35.122829],[136.797796,35.123641],[136.797815,35.123711],[136.79785,35.123855],[136.797336,35.123911],[136.797319,35.124265],[136.797334,35.124393],[136.797388,35.124559],[136.797523,35.12483],[136.797515,35.125008],[136.797424,35.125185],[136.797372,35.125319],[136.795604,35.125222],[136.794286,35.125146],[136.792887,35.125042],[136.792229,35.124981],[136.789505,35.124757],[136.787951,35.124612],[136.787959,35.124125],[136.787934,35.123857],[136.787913,35.123577]]]}},{"type":"Feature","properties":{"name":"富吉","city":"蟹江町","code":"425","setai":1837,"jinko":3724,"n":5,"towns":["23425033000","23425033001","23425033002","23425033003","23425033004"],"lx":136.774044,"ly":35.124999},"geometry":{"type":"Polygon","coordinates":[[[136.763949,35.122623],[136.764092,35.122578],[136.764444,35.122482],[136.764617,35.122435],[136.764624,35.122431],[136.766675,35.121659],[136.767003,35.121531],[136.767005,35.12153],[136.768377,35.121829],[136.769263,35.122023],[136.769576,35.122091],[136.771428,35.122495],[136.771428,35.122501],[136.773729,35.122937],[136.775528,35.123249],[136.777575,35.123579],[136.778052,35.123652],[136.777818,35.124177],[136.777641,35.124543],[136.777399,35.125077],[136.777224,35.12547],[136.777324,35.125493],[136.777264,35.125632],[136.777092,35.126004],[136.776817,35.126598],[136.776575,35.126522],[136.776611,35.126448],[136.776527,35.126421],[136.776496,35.1263],[136.776518,35.126237],[136.776465,35.126173],[136.776349,35.12614],[136.776218,35.126172],[136.776099,35.1262],[136.775962,35.126238],[136.775869,35.126285],[136.775705,35.126364],[136.775526,35.126456],[136.775243,35.126601],[136.775033,35.126712],[136.774733,35.126889],[136.774506,35.12701],[136.774201,35.127135],[136.77408,35.127158],[136.773994,35.127136],[136.773966,35.127119],[136.773916,35.127235],[136.773933,35.127246],[136.773947,35.127258],[136.773951,35.127272],[136.773946,35.127286],[136.77379,35.127527],[136.773755,35.127571],[136.773698,35.12762],[136.773641,35.127664],[136.773614,35.127671],[136.7736,35.127671],[136.773508,35.12767],[136.773484,35.127673],[136.773465,35.127618],[136.773428,35.12751],[136.773379,35.127377],[136.773351,35.127306],[136.773316,35.127252],[136.773221,35.12719],[136.773178,35.127155],[136.773118,35.127082],[136.773041,35.127192],[136.772995,35.127152],[136.772994,35.127152],[136.772993,35.127151],[136.772913,35.12702],[136.772884,35.127011],[136.772711,35.127016],[136.772669,35.127007],[136.772617,35.126986],[136.772572,35.126983],[136.772484,35.126975],[136.772466,35.1267],[136.77246,35.126668],[136.772402,35.126355],[136.772384,35.126268],[136.772369,35.126191],[136.772312,35.126008],[136.772248,35.12583],[136.772181,35.125678],[136.771989,35.125689],[136.771934,35.125696],[136.771865,35.125692],[136.771787,35.125675],[136.771712,35.125636],[136.77164,35.125579],[136.771602,35.12553],[136.771589,35.125469],[136.771603,35.125398],[136.771632,35.125341],[136.771631,35.125322],[136.771391,35.124952],[136.77131,35.124827],[136.770639,35.12379],[136.770514,35.123812],[136.769844,35.123944],[136.769015,35.124107],[136.768476,35.124213],[136.768435,35.124221],[136.768431,35.124242],[136.768132,35.125707],[136.7681,35.125864],[136.76764,35.125458],[136.767335,35.125761],[136.767674,35.126028],[136.767634,35.126036],[136.767078,35.12615],[136.766982,35.12617],[136.766913,35.126204],[136.766805,35.12628],[136.766638,35.126391],[136.766169,35.126704],[136.765692,35.126805],[136.765736,35.126882],[136.764984,35.127062],[136.765034,35.126973],[136.764939,35.126994],[136.76486,35.127011],[136.764693,35.127134],[136.764609,35.12697],[136.764444,35.127046],[136.764419,35.127006],[136.764375,35.127018],[136.764313,35.126834],[136.764262,35.126586],[136.764208,35.126316],[136.764429,35.125743],[136.764497,35.125503],[136.764511,35.125454],[136.764685,35.124789],[136.764722,35.124668],[136.764895,35.124103],[136.764644,35.124079],[136.764547,35.123884],[136.764668,35.123852],[136.764661,35.123628],[136.764607,35.123334],[136.764606,35.123155],[136.764513,35.123138],[136.764422,35.123087],[136.764389,35.123064],[136.764245,35.122966],[136.764158,35.122905],[136.764061,35.122821],[136.764004,35.122728],[136.763949,35.122623]]]}},{"type":"Feature","properties":{"name":"桜","city":"蟹江町","code":"425","setai":562,"jinko":1381,"n":2,"towns":["23425034001","23425034002"],"lx":136.7997,"ly":35.144301},"geometry":{"type":"Polygon","coordinates":[[[136.789673,35.142735],[136.790477,35.142129],[136.790594,35.142053],[136.790638,35.142002],[136.79066,35.141949],[136.790704,35.141606],[136.791022,35.141663],[136.791976,35.141795],[136.792157,35.141818],[136.792578,35.14187],[136.792902,35.141917],[136.793494,35.142],[136.793895,35.142057],[136.794155,35.142095],[136.795146,35.14223],[136.795586,35.142293],[136.795742,35.142313],[136.79613,35.142364],[136.796703,35.14243],[136.797364,35.142541],[136.797573,35.142576],[136.798064,35.142639],[136.798406,35.142676],[136.798674,35.142692],[136.79871,35.142695],[136.798947,35.142705],[136.799215,35.142708],[136.799483,35.142696],[136.799583,35.142688],[136.799742,35.142675],[136.799891,35.14266],[136.80024,35.142624],[136.800517,35.142587],[136.800612,35.142576],[136.800618,35.142613],[136.800765,35.143335],[136.800833,35.143628],[136.800927,35.144023],[136.800981,35.144293],[136.801004,35.144402],[136.801048,35.144609],[136.80111,35.144857],[136.801156,35.145037],[136.801169,35.145112],[136.801222,35.145421],[136.800756,35.145476],[136.800746,35.145429],[136.800245,35.145497],[136.79971,35.14557],[136.799778,35.146172],[136.798772,35.146287],[136.798693,35.145738],[136.79874,35.145663],[136.798701,35.145428],[136.7986,35.14537],[136.798554,35.145082],[136.798523,35.14489],[136.798483,35.144654],[136.798409,35.144217],[136.797616,35.144228],[136.797111,35.144248],[136.797027,35.144235],[136.79617,35.144293],[136.795743,35.14432],[136.795739,35.144259],[136.795703,35.143999],[136.795667,35.143738],[136.795634,35.143564],[136.795611,35.143488],[136.795571,35.143426],[136.795531,35.143387],[136.795486,35.143367],[136.795416,35.143356],[136.795277,35.143357],[136.794788,35.143396],[136.794347,35.143433],[136.794107,35.143448],[136.793958,35.143457],[136.793633,35.143468],[136.793294,35.143469],[136.792942,35.143452],[136.792586,35.143425],[136.792361,35.143403],[136.792341,35.143401],[136.792326,35.143401],[136.792185,35.143377],[136.792051,35.143358],[136.791929,35.143309],[136.791722,35.143228],[136.791561,35.143157],[136.791432,35.143152],[136.791334,35.143155],[136.791192,35.143131],[136.791078,35.143113],[136.790897,35.143066],[136.790379,35.142952],[136.789992,35.142859],[136.789743,35.142777],[136.789673,35.142735]]]}}]}