{"type":"FeatureCollection","features":[{"type":"Feature","properties":{"name":"","city":"武豊町","code":"447","setai":14253,"jinko":34498,"n":6,"towns":["234470010","234470020","234470030","234470040","234470050","234470060"],"lx":136.907362,"ly":34.854604},"geometry":{"type":"Polygon","coordinates":[[[136.875759,34.878166],[136.87578,34.877977],[136.875793,34.877876],[136.875839,34.877693],[136.875909,34.87747],[136.875975,34.877271],[136.876013,34.87716],[136.876063,34.876977],[136.876103,34.876718],[136.876114,34.876488],[136.876153,34.876235],[136.876168,34.876034],[136.876214,34.875872],[136.876305,34.875737],[136.876391,34.875649],[136.876456,34.875578],[136.876548,34.875494],[136.876835,34.875243],[136.876927,34.875122],[136.876975,34.874955],[136.876955,34.874793],[136.876945,34.874633],[136.876965,34.874562],[136.877087,34.87453],[136.87726,34.874518],[136.877504,34.874491],[136.877595,34.874476],[136.87771,34.874436],[136.877772,34.874375],[136.877861,34.874196],[136.878013,34.873906],[136.878219,34.873656],[136.878466,34.87341],[136.878886,34.873164],[136.879005,34.873033],[136.879149,34.872807],[136.879209,34.872672],[136.879263,34.872597],[136.879308,34.872577],[136.879353,34.872577],[136.879402,34.872604],[136.879443,34.872686],[136.8795,34.872774],[136.879549,34.872807],[136.879627,34.872808],[136.879681,34.872777],[136.879771,34.872656],[136.879825,34.872636],[136.879886,34.872636],[136.880542,34.872783],[136.880608,34.872779],[136.880665,34.872766],[136.880875,34.87253],[136.880892,34.872469],[136.880855,34.872412],[136.880802,34.872381],[136.880564,34.872286],[136.880038,34.872065],[136.879956,34.871997],[136.879952,34.871909],[136.879988,34.871571],[136.880072,34.871129],[136.880114,34.87093],[136.880122,34.870815],[136.88039,34.870525],[136.880579,34.870332],[136.880775,34.870049],[136.880952,34.869725],[136.881077,34.86934],[136.881159,34.868813],[136.881159,34.868539],[136.881095,34.868166],[136.881507,34.868213],[136.881893,34.868255],[136.882209,34.868282],[136.882389,34.86829],[136.882479,34.868259],[136.882586,34.868192],[136.882726,34.868094],[136.882854,34.867973],[136.882911,34.867882],[136.88299,34.867716],[136.883064,34.867531],[136.883143,34.867436],[136.883367,34.867295],[136.883514,34.867244],[136.883678,34.867228],[136.883785,34.867204],[136.883945,34.867161],[136.884093,34.867083],[136.884274,34.866949],[136.884373,34.866888],[136.884521,34.866848],[136.88464,34.866841],[136.884742,34.866855],[136.884861,34.866872],[136.884918,34.866865],[136.885033,34.866835],[136.885157,34.866758],[136.885309,34.866643],[136.885457,34.866536],[136.885551,34.866485],[136.886305,34.866132],[136.88665,34.86596],[136.887065,34.865704],[136.887347,34.86557],[136.887581,34.865459],[136.887651,34.865398],[136.887762,34.865273],[136.887815,34.865206],[136.887902,34.865152],[136.888037,34.865105],[136.888148,34.865058],[136.888325,34.864916],[136.888457,34.864778],[136.888736,34.864538],[136.88902,34.86433],[136.889054,34.864302],[136.889091,34.864273],[136.889102,34.86426],[136.889116,34.8642],[136.889113,34.864187],[136.889106,34.864174],[136.889096,34.864163],[136.889073,34.864134],[136.888998,34.864075],[136.888855,34.864006],[136.888574,34.863848],[136.888364,34.863677],[136.888256,34.86347],[136.888215,34.863183],[136.888209,34.862959],[136.888321,34.862702],[136.88857,34.862456],[136.888621,34.862405],[136.888864,34.862148],[136.889012,34.861907],[136.889309,34.861584],[136.889478,34.861311],[136.889634,34.861044],[136.889716,34.860762],[136.889832,34.860441],[136.890042,34.860026],[136.890194,34.859619],[136.890319,34.859263],[136.890416,34.858928],[136.890553,34.858574],[136.890697,34.85823],[136.890814,34.857984],[136.890834,34.857838],[136.890879,34.857382],[136.890867,34.857129],[136.890917,34.856862],[136.890971,34.856656],[136.891021,34.856545],[136.891087,34.85647],[136.891186,34.856376],[136.891342,34.856275],[136.891446,34.855238],[136.89143,34.85516],[136.891397,34.85513],[136.891317,34.855072],[136.891323,34.854561],[136.892327,34.854747],[136.892444,34.854316],[136.892582,34.853792],[136.89217,34.853731],[136.89172,34.853615],[136.891569,34.853589],[136.891344,34.853551],[136.890846,34.853481],[136.890476,34.853362],[136.890036,34.853197],[136.889776,34.853098],[136.889676,34.853024],[136.889472,34.852787],[136.889312,34.852642],[136.889082,34.85248],[136.888861,34.852404],[136.888418,34.852187],[136.888277,34.852082],[136.888121,34.851974],[136.888015,34.851885],[136.887921,34.851831],[136.887827,34.851821],[136.887675,34.851817],[136.88761,34.851812],[136.88747,34.8518],[136.887367,34.851779],[136.887122,34.851721],[136.886736,34.851646],[136.886531,34.851612],[136.8864,34.851611],[136.886005,34.851469],[136.885468,34.851302],[136.885063,34.851233],[136.88486,34.851219],[136.884622,34.851225],[136.8844,34.851239],[136.884093,34.851282],[136.883785,34.851301],[136.883687,34.851274],[136.883277,34.851145],[136.882642,34.850846],[136.882299,34.850686],[136.881959,34.850541],[136.882133,34.849815],[136.882254,34.849248],[136.882478,34.847958],[136.882725,34.846546],[136.8828,34.846164],[136.883251,34.846195],[136.883322,34.8458],[136.882875,34.845694],[136.883085,34.844881],[136.883357,34.843851],[136.883758,34.842348],[136.884204,34.840921],[136.884298,34.840646],[136.884306,34.840624],[136.884364,34.840335],[136.884433,34.839999],[136.884525,34.839558],[136.884504,34.839375],[136.88451,34.838992],[136.884513,34.838901],[136.88459,34.838481],[136.88472,34.838124],[136.88472,34.837989],[136.884716,34.837974],[136.88462,34.837545],[136.884618,34.83754],[136.884443,34.837176],[136.884245,34.836814],[136.884193,34.83664],[136.884101,34.836474],[136.884043,34.836368],[136.884069,34.836301],[136.884127,34.836264],[136.88425,34.836211],[136.884349,34.83611],[136.884434,34.835944],[136.884455,34.835886],[136.884483,34.835758],[136.884523,34.835588],[136.884546,34.835492],[136.884561,34.835428],[136.884573,34.835395],[136.884584,34.835376],[136.884593,34.835368],[136.884631,34.83533],[136.88466,34.8353],[136.884693,34.83526],[136.884723,34.835212],[136.88474,34.835169],[136.884758,34.835122],[136.884898,34.834762],[136.884969,34.834563],[136.88501,34.834484],[136.885065,34.834386],[136.885124,34.834229],[136.885163,34.834095],[136.88519,34.833993],[136.885204,34.833942],[136.885249,34.833884],[136.885408,34.833705],[136.885503,34.833628],[136.885529,34.833599],[136.885643,34.833663],[136.886022,34.833836],[136.886207,34.833913],[136.886322,34.833932],[136.886521,34.833946],[136.886709,34.834012],[136.886933,34.83415],[136.887139,34.83428],[136.887407,34.83439],[136.887729,34.834509],[136.887863,34.834617],[136.888074,34.834691],[136.888248,34.834791],[136.8887,34.835124],[136.888863,34.835246],[136.889003,34.835314],[136.889137,34.835325],[136.889264,34.835312],[136.889478,34.83527],[136.889631,34.835286],[136.889993,34.835366],[136.890363,34.835483],[136.890839,34.835649],[136.891063,34.835751],[136.891188,34.835856],[136.891417,34.836154],[136.891605,34.836252],[136.891706,34.836279],[136.892275,34.836362],[136.892408,34.836388],[136.89257,34.836427],[136.892829,34.836318],[136.893194,34.836162],[136.893443,34.836614],[136.89425,34.837986],[136.895061,34.839064],[136.89572,34.839094],[136.897272,34.839205],[136.898436,34.838955],[136.899332,34.838744],[136.899613,34.838705],[136.900726,34.838839],[136.901655,34.838925],[136.901968,34.838999],[136.902856,34.839195],[136.903491,34.83972],[136.904073,34.840229],[136.90584,34.840417],[136.906901,34.840531],[136.907887,34.840637],[136.908873,34.840759],[136.909373,34.840801],[136.90968,34.840871],[136.909952,34.840967],[136.910458,34.841204],[136.910752,34.841335],[136.910984,34.841143],[136.911081,34.841117],[136.911214,34.841137],[136.912212,34.841329],[136.913293,34.841471],[136.914339,34.841613],[136.915052,34.841605],[136.916402,34.841524],[136.916702,34.841491],[136.916867,34.84146],[136.917003,34.841415],[136.917218,34.841294],[136.917444,34.841151],[136.918167,34.840686],[136.918741,34.840316],[136.919182,34.840003],[136.919206,34.839987],[136.919262,34.840042],[136.919304,34.840034],[136.920148,34.839745],[136.920281,34.839702],[136.920523,34.839625],[136.921068,34.839475],[136.921073,34.839499],[136.921763,34.839337],[136.922423,34.839189],[136.922287,34.83847],[136.922756,34.83842],[136.922776,34.83835],[136.922535,34.837819],[136.922459,34.837649],[136.922716,34.837547],[136.922762,34.837483],[136.922692,34.837103],[136.922856,34.836948],[136.922987,34.836822],[136.92302,34.836552],[136.923036,34.836375],[136.922959,34.836386],[136.92243,34.835507],[136.922189,34.835111],[136.922053,34.834923],[136.922031,34.834905],[136.922196,34.834865],[136.922219,34.834858],[136.922243,34.834852],[136.922266,34.834846],[136.922774,34.834717],[136.922783,34.834733],[136.923337,34.834473],[136.923621,34.831199],[136.92363,34.831098],[136.923632,34.831071],[136.923684,34.830413],[136.923753,34.829616],[136.924448,34.829642],[136.925243,34.82967],[136.925769,34.82969],[136.925912,34.829693],[136.926134,34.8297],[136.928508,34.829786],[136.929786,34.829833],[136.929716,34.831083],[136.929657,34.832208],[136.929572,34.833879],[136.929477,34.83559],[136.929427,34.836601],[136.929405,34.837045],[136.929398,34.837174],[136.929385,34.837419],[136.930811,34.837439],[136.93104,34.83843],[136.929385,34.839121],[136.929654,34.83992],[136.929708,34.840098],[136.929978,34.840894],[136.929984,34.840916],[136.929986,34.840922],[136.929991,34.840932],[136.930387,34.842106],[136.930385,34.842148],[136.930411,34.842131],[136.930929,34.842149],[136.930919,34.842292],[136.930437,34.842277],[136.930379,34.842256],[136.930323,34.843256],[136.93077,34.843272],[136.930799,34.84328],[136.930818,34.8433],[136.930757,34.844607],[136.930705,34.845525],[136.930694,34.845531],[136.930214,34.845517],[136.930184,34.84609],[136.92858,34.84603],[136.928574,34.846074],[136.928491,34.846069],[136.928484,34.846144],[136.927325,34.846099],[136.927299,34.846555],[136.927199,34.848183],[136.927153,34.84901],[136.927153,34.849107],[136.927128,34.849716],[136.926907,34.849711],[136.926867,34.849704],[136.926354,34.849689],[136.926324,34.850154],[136.926261,34.851129],[136.926239,34.851467],[136.927047,34.851596],[136.927043,34.851646],[136.927008,34.852326],[136.926775,34.852329],[136.926134,34.852335],[136.925981,34.85233],[136.925136,34.852429],[136.924274,34.85257],[136.924015,34.85261],[136.923645,34.852671],[136.923348,34.852644],[136.923314,34.852641],[136.92304,34.852599],[136.922667,34.852427],[136.922612,34.852545],[136.922552,34.852688],[136.923268,34.852989],[136.923468,34.853046],[136.923579,34.853042],[136.923781,34.853017],[136.923927,34.852996],[136.924169,34.852966],[136.925188,34.852826],[136.925201,34.852919],[136.925536,34.852947],[136.926057,34.852961],[136.926491,34.852966],[136.926705,34.852962],[136.928226,34.853064],[136.928235,34.853064],[136.928242,34.853065],[136.928251,34.853067],[136.928259,34.853069],[136.928266,34.853072],[136.928275,34.853075],[136.928296,34.853084],[136.928304,34.853089],[136.928309,34.853093],[136.928316,34.853098],[136.929584,34.852288],[136.929674,34.850503],[136.929736,34.849297],[136.929744,34.849113],[136.929746,34.849039],[136.929776,34.848499],[136.93186,34.848515],[136.931862,34.848502],[136.933866,34.848517],[136.934059,34.848516],[136.934551,34.848519],[136.934676,34.84852],[136.934694,34.848519],[136.934732,34.848521],[136.934775,34.848528],[136.934818,34.848539],[136.934853,34.848552],[136.934879,34.84857],[136.934889,34.848586],[136.934917,34.848647],[136.93492,34.848688],[136.93492,34.849123],[136.934928,34.849207],[136.934906,34.849238],[136.934919,34.850755],[136.93493,34.852361],[136.934942,34.85363],[136.934927,34.854133],[136.935014,34.854131],[136.93679,34.854139],[136.936801,34.856121],[136.935648,34.857437],[136.935911,34.857878],[136.935112,34.858138],[136.934551,34.858322],[136.934031,34.858493],[136.930335,34.859692],[136.92877,34.858346],[136.928062,34.858572],[136.927964,34.860371],[136.927822,34.862631],[136.927818,34.862799],[136.927702,34.864937],[136.927255,34.865053],[136.927242,34.865056],[136.925808,34.865428],[136.925497,34.865507],[136.925466,34.865941],[136.925806,34.866003],[136.925839,34.866009],[136.925995,34.866051],[136.926121,34.86609],[136.926252,34.866143],[136.928422,34.86547],[136.930923,34.864576],[136.930903,34.864541],[136.930861,34.864452],[136.930807,34.864355],[136.934017,34.863207],[136.934551,34.863019],[136.935606,34.862647],[136.93633,34.862388],[136.936446,34.86261],[136.93972,34.861441],[136.940655,34.862657],[136.930355,34.866428],[136.927167,34.86756],[136.927004,34.867639],[136.926805,34.867758],[136.924506,34.868027],[136.924439,34.868477],[136.924217,34.869989],[136.923969,34.870144],[136.923678,34.870276],[136.923007,34.870128],[136.922082,34.869849],[136.921821,34.86984],[136.921805,34.86984],[136.921579,34.869838],[136.921527,34.869831],[136.921472,34.869807],[136.921432,34.869772],[136.921248,34.869529],[136.921158,34.869438],[136.921078,34.869363],[136.921014,34.869324],[136.920934,34.869281],[136.920812,34.869227],[136.920624,34.869158],[136.920174,34.868969],[136.919903,34.868741],[136.919703,34.868735],[136.919434,34.868715],[136.919244,34.8687],[136.919115,34.868688],[136.919046,34.868682],[136.91877,34.86872],[136.918275,34.86881],[136.917914,34.86889],[136.917645,34.868935],[136.917363,34.868903],[136.917162,34.868742],[136.916379,34.868708],[136.916256,34.868703],[136.916177,34.868695],[136.915874,34.868672],[136.915878,34.868708],[136.915879,34.868727],[136.91581,34.868727],[136.915728,34.86873],[136.91555,34.868773],[136.915398,34.868781],[136.915393,34.868781],[136.915312,34.868792],[136.915296,34.869434],[136.914708,34.869433],[136.914709,34.869129],[136.914463,34.869128],[136.914463,34.869185],[136.914135,34.869184],[136.91413,34.869154],[136.913884,34.869154],[136.913871,34.86927],[136.913781,34.869278],[136.913565,34.869274],[136.913558,34.869292],[136.913546,34.86935],[136.913517,34.869887],[136.91298,34.86988],[136.912444,34.869872],[136.912442,34.869872],[136.912434,34.869659],[136.912132,34.869659],[136.912132,34.869775],[136.911821,34.869778],[136.911772,34.869778],[136.911798,34.870348],[136.911457,34.870354],[136.911455,34.870354],[136.911315,34.870355],[136.911313,34.870355],[136.91112,34.870365],[136.910994,34.870384],[136.909828,34.870598],[136.90982,34.8706],[136.909479,34.870622],[136.909081,34.870642],[136.90848,34.870656],[136.907163,34.870688],[136.907145,34.870688],[136.907108,34.870689],[136.907094,34.870725],[136.905782,34.870737],[136.905785,34.870792],[136.905783,34.87087],[136.905634,34.870873],[136.905548,34.870869],[136.905538,34.870919],[136.905241,34.870905],[136.905224,34.870974],[136.905169,34.870977],[136.904808,34.870981],[136.904801,34.871334],[136.90454,34.871344],[136.904534,34.871344],[136.904113,34.871352],[136.903388,34.871483],[136.903366,34.871487],[136.90317,34.871906],[136.903151,34.871946],[136.902891,34.872036],[136.902717,34.872089],[136.902705,34.872093],[136.90077,34.872719],[136.900742,34.872636],[136.900654,34.872665],[136.900565,34.872694],[136.899844,34.87293],[136.898346,34.873421],[136.898339,34.873423],[136.897743,34.87354],[136.897199,34.873719],[136.897027,34.873786],[136.896955,34.873819],[136.896893,34.873894],[136.896785,34.874079],[136.896465,34.874388],[136.896288,34.874424],[136.896091,34.874488],[136.895862,34.874516],[136.895672,34.874543],[136.895576,34.874565],[136.895412,34.874637],[136.895306,34.874684],[136.894244,34.874941],[136.894106,34.874975],[136.893974,34.874971],[136.892994,34.874866],[136.892958,34.874862],[136.892462,34.874741],[136.892088,34.874683],[136.891682,34.874624],[136.891097,34.87454],[136.890129,34.874373],[136.888736,34.874072],[136.886666,34.873826],[136.886496,34.873815],[136.88618,34.873794],[136.886188,34.873587],[136.886192,34.873458],[136.886145,34.873402],[136.886106,34.873354],[136.886105,34.873354],[136.884264,34.873376],[136.884264,34.873381],[136.884267,34.873456],[136.884272,34.873644],[136.88428,34.873884],[136.88428,34.873892],[136.884244,34.873893],[136.884159,34.873893],[136.883632,34.874024],[136.883489,34.87406],[136.88342,34.87406],[136.883398,34.874017],[136.883343,34.873996],[136.883136,34.873775],[136.883003,34.873751],[136.882634,34.874146],[136.882486,34.874393],[136.882102,34.874802],[136.882079,34.875035],[136.882046,34.875162],[136.881982,34.875257],[136.881839,34.875345],[136.881635,34.875505],[136.881592,34.875701],[136.881584,34.87571],[136.881528,34.875756],[136.881508,34.875785],[136.881425,34.875824],[136.881364,34.875871],[136.881278,34.876097],[136.88133,34.876366],[136.881297,34.876428],[136.881243,34.876498],[136.88119,34.87656],[136.881089,34.876655],[136.880967,34.876747],[136.880822,34.876836],[136.880622,34.876947],[136.879964,34.877197],[136.879893,34.876973],[136.879835,34.87692],[136.879376,34.877131],[136.879145,34.877279],[136.879033,34.877376],[136.878741,34.877667],[136.87867,34.877764],[136.878731,34.877792],[136.878641,34.877955],[136.878579,34.87794],[136.878565,34.878037],[136.878323,34.878236],[136.87783,34.878225],[136.877706,34.878248],[136.877383,34.878302],[136.877174,34.878336],[136.877098,34.878343],[136.877018,34.878347],[136.87681,34.878358],[136.876488,34.878349],[136.876357,34.878341],[136.875873,34.878359],[136.875794,34.878354],[136.875759,34.878166]]]}},{"type":"Feature","properties":{"name":"東大高","city":"武豊町","code":"447","setai":1538,"jinko":3226,"n":1,"towns":["234470070"],"lx":136.91015,"ly":34.836471},"geometry":{"type":"Polygon","coordinates":[[[136.917444,34.841151],[136.918167,34.840686],[136.918741,34.840316],[136.919182,34.840003],[136.919206,34.839987],[136.919262,34.840042],[136.919304,34.840034],[136.920148,34.839745],[136.920281,34.839702],[136.920523,34.839625],[136.921068,34.839475],[136.921073,34.839499],[136.921763,34.839337],[136.922423,34.839189],[136.922287,34.83847],[136.922756,34.83842],[136.922776,34.83835],[136.922535,34.837819],[136.922459,34.837649],[136.922716,34.837547],[136.922762,34.837483],[136.922692,34.837103],[136.922856,34.836948],[136.922987,34.836822],[136.92302,34.836552],[136.923036,34.836375],[136.922959,34.836386],[136.92243,34.835507],[136.922189,34.835111],[136.922053,34.834923],[136.922031,34.834905],[136.921984,34.834866],[136.92192,34.834832],[136.921867,34.834823],[136.921793,34.834595],[136.921848,34.834578],[136.922665,34.834323],[136.922678,34.834319],[136.922692,34.834314],[136.922719,34.834301],[136.922733,34.834294],[136.922791,34.8343],[136.922821,34.834302],[136.922889,34.834298],[136.922924,34.834293],[136.922956,34.834285],[136.922982,34.834274],[136.922999,34.834261],[136.923013,34.834244],[136.923029,34.834196],[136.923047,34.834122],[136.92306,34.834046],[136.92306,34.834014],[136.923057,34.833986],[136.923042,34.833936],[136.923018,34.833886],[136.922993,34.833842],[136.922975,34.833811],[136.922959,34.833794],[136.922937,34.833531],[136.922919,34.833308],[136.922908,34.833139],[136.922902,34.832988],[136.922898,34.832898],[136.922895,34.832812],[136.922892,34.832601],[136.922888,34.832359],[136.922886,34.832195],[136.922869,34.832183],[136.922653,34.832162],[136.921942,34.83216],[136.921356,34.832182],[136.92104,34.832181],[136.920794,34.832158],[136.920493,34.832135],[136.920159,34.8321],[136.919911,34.832079],[136.919619,34.832082],[136.918906,34.832183],[136.91871,34.83222],[136.918197,34.832265],[136.917732,34.832287],[136.91735,34.832308],[136.916516,34.832329],[136.915668,34.832372],[136.914915,34.832418],[136.914512,34.832436],[136.914296,34.832457],[136.913695,34.832497],[136.913194,34.832568],[136.912767,34.832593],[136.912386,34.832607],[136.912154,34.832592],[136.911646,34.832497],[136.911242,34.832374],[136.9108,34.832232],[136.910611,34.832175],[136.910102,34.832015],[136.909805,34.83193],[136.909509,34.831848],[136.909077,34.831768],[136.90877,34.831761],[136.90808,34.831769],[136.907859,34.831763],[136.905326,34.831889],[136.904396,34.831936],[136.904232,34.831969],[136.904052,34.832023],[136.903829,34.832102],[136.903692,34.832194],[136.90305,34.832627],[136.902884,34.832708],[136.902686,34.832784],[136.902488,34.832847],[136.901474,34.833087],[136.900914,34.833178],[136.900771,34.833176],[136.900888,34.83335],[136.900834,34.833429],[136.90075,34.833535],[136.900593,34.833669],[136.900201,34.833754],[136.899976,34.833849],[136.899776,34.833974],[136.899557,34.834147],[136.899456,34.834249],[136.899395,34.834328],[136.899279,34.834427],[136.899209,34.834471],[136.899123,34.834524],[136.898987,34.834611],[136.898836,34.83468],[136.89868,34.834747],[136.898484,34.834853],[136.898386,34.834937],[136.898321,34.834993],[136.89811,34.835209],[136.898005,34.835306],[136.89793,34.835393],[136.89784,34.835471],[136.897806,34.835517],[136.897792,34.835589],[136.897301,34.835684],[136.89708,34.835735],[136.896765,34.83579],[136.896074,34.835875],[136.895063,34.835959],[136.894426,34.836137],[136.894219,34.836153],[136.894029,34.836142],[136.893602,34.836073],[136.893397,34.836081],[136.893194,34.836162],[136.893443,34.836614],[136.89425,34.837986],[136.895061,34.839064],[136.89572,34.839094],[136.897272,34.839205],[136.898436,34.838955],[136.899332,34.838744],[136.899613,34.838705],[136.900726,34.838839],[136.901655,34.838925],[136.901968,34.838999],[136.902856,34.839195],[136.903491,34.83972],[136.904073,34.840229],[136.90584,34.840417],[136.906901,34.840531],[136.907887,34.840637],[136.908873,34.840759],[136.909373,34.840801],[136.90968,34.840871],[136.909952,34.840967],[136.910458,34.841204],[136.910752,34.841335],[136.910984,34.841143],[136.911081,34.841117],[136.911214,34.841137],[136.912212,34.841329],[136.913293,34.841471],[136.914339,34.841613],[136.915052,34.841605],[136.916402,34.841524],[136.916702,34.841491],[136.916867,34.84146],[136.917003,34.841415],[136.917218,34.841294],[136.917444,34.841151]]]}},{"type":"Feature","properties":{"name":"冨貴","city":"武豊町","code":"447","setai":2331,"jinko":5811,"n":1,"towns":["234470080"],"lx":136.904337,"ly":34.823679},"geometry":{"type":"Polygon","coordinates":[[[136.893397,34.836081],[136.893602,34.836073],[136.894029,34.836142],[136.894219,34.836153],[136.894426,34.836137],[136.895063,34.835959],[136.896074,34.835875],[136.896765,34.83579],[136.89708,34.835735],[136.897301,34.835684],[136.897792,34.835589],[136.897806,34.835517],[136.89784,34.835471],[136.89793,34.835393],[136.898005,34.835306],[136.89811,34.835209],[136.898321,34.834993],[136.898386,34.834937],[136.898484,34.834853],[136.89868,34.834747],[136.898836,34.83468],[136.898987,34.834611],[136.899123,34.834524],[136.899209,34.834471],[136.899279,34.834427],[136.899395,34.834328],[136.899456,34.834249],[136.899557,34.834147],[136.899776,34.833974],[136.899976,34.833849],[136.900201,34.833754],[136.900593,34.833669],[136.90075,34.833535],[136.900834,34.833429],[136.900888,34.83335],[136.900771,34.833176],[136.900914,34.833178],[136.901474,34.833087],[136.902488,34.832847],[136.902686,34.832784],[136.902884,34.832708],[136.90305,34.832627],[136.903692,34.832194],[136.903829,34.832102],[136.904052,34.832023],[136.904232,34.831969],[136.904396,34.831936],[136.905326,34.831889],[136.907859,34.831763],[136.90808,34.831769],[136.90877,34.831761],[136.909077,34.831768],[136.909509,34.831848],[136.909805,34.83193],[136.910102,34.832015],[136.910611,34.832175],[136.9108,34.832232],[136.911242,34.832374],[136.911646,34.832497],[136.912154,34.832592],[136.912386,34.832607],[136.912767,34.832593],[136.913194,34.832568],[136.913695,34.832497],[136.914296,34.832457],[136.914512,34.832436],[136.914915,34.832418],[136.915668,34.832372],[136.916516,34.832329],[136.91735,34.832308],[136.917732,34.832287],[136.918197,34.832265],[136.91871,34.83222],[136.918906,34.832183],[136.919619,34.832082],[136.919911,34.832079],[136.920159,34.8321],[136.920493,34.832135],[136.920794,34.832158],[136.92104,34.832181],[136.921356,34.832182],[136.921942,34.83216],[136.922653,34.832162],[136.922869,34.832183],[136.922869,34.832162],[136.922859,34.832162],[136.922859,34.832149],[136.922869,34.832149],[136.922869,34.832127],[136.922891,34.832128],[136.92289,34.832112],[136.923064,34.832077],[136.923088,34.832092],[136.92311,34.832102],[136.923127,34.832106],[136.923146,34.832104],[136.92317,34.832097],[136.923192,34.832084],[136.923204,34.832068],[136.923209,34.832049],[136.92321,34.83202],[136.92322,34.832014],[136.923215,34.832],[136.923201,34.832003],[136.923183,34.832002],[136.923164,34.831994],[136.923137,34.831977],[136.923068,34.831911],[136.922997,34.831833],[136.922947,34.83177],[136.92293,34.83174],[136.922918,34.831704],[136.922903,34.831611],[136.922895,34.831496],[136.922909,34.831468],[136.922885,34.831457],[136.922848,34.831429],[136.922788,34.831375],[136.922713,34.831308],[136.922634,34.83124],[136.922568,34.831176],[136.922521,34.831114],[136.922497,34.831068],[136.922485,34.831056],[136.922473,34.831022],[136.922462,34.830986],[136.922456,34.830952],[136.922459,34.830923],[136.922467,34.8309],[136.922361,34.83096],[136.922277,34.830804],[136.922156,34.830578],[136.922036,34.830346],[136.921942,34.830176],[136.921904,34.830102],[136.921891,34.830079],[136.921857,34.830018],[136.921882,34.829998],[136.921969,34.829949],[136.922398,34.829856],[136.922372,34.8298],[136.922124,34.829004],[136.921979,34.828538],[136.922161,34.828496],[136.922162,34.827914],[136.921889,34.827872],[136.92169,34.827842],[136.92161,34.82785],[136.921584,34.827743],[136.92158,34.827721],[136.921612,34.82772],[136.921743,34.827717],[136.922015,34.827711],[136.922633,34.827693],[136.923189,34.827684],[136.923241,34.827511],[136.92327,34.827406],[136.92333,34.827405],[136.92337,34.827478],[136.92339,34.827508],[136.923485,34.827661],[136.924028,34.827646],[136.92404,34.827646],[136.924485,34.827637],[136.924974,34.827627],[136.925918,34.827604],[136.926026,34.827602],[136.926809,34.827585],[136.926697,34.826569],[136.926464,34.824514],[136.926459,34.824469],[136.92638,34.823799],[136.926377,34.823778],[136.926163,34.821966],[136.926078,34.821226],[136.92607,34.821175],[136.925986,34.820442],[136.925986,34.820439],[136.925907,34.820446],[136.925872,34.820123],[136.925947,34.820112],[136.92594,34.820021],[136.925842,34.819245],[136.925798,34.818935],[136.925671,34.818256],[136.925663,34.818216],[136.925644,34.817553],[136.925245,34.814107],[136.924707,34.814063],[136.924714,34.814031],[136.923969,34.813973],[136.922265,34.813833],[136.921174,34.813737],[136.921001,34.813721],[136.920909,34.813716],[136.920868,34.813715],[136.920808,34.813721],[136.920788,34.813726],[136.92076,34.813741],[136.92073,34.81376],[136.920703,34.813783],[136.92068,34.813811],[136.920661,34.813846],[136.920649,34.813886],[136.920645,34.813928],[136.920649,34.813975],[136.920669,34.814058],[136.920708,34.814204],[136.920764,34.814413],[136.920835,34.814671],[136.920909,34.814954],[136.920976,34.81523],[136.921024,34.815441],[136.921045,34.815553],[136.921054,34.815593],[136.921089,34.815703],[136.921147,34.815869],[136.921181,34.815961],[136.921509,34.81683],[136.921526,34.816874],[136.921539,34.816911],[136.921546,34.816938],[136.921544,34.816966],[136.92153,34.817007],[136.921505,34.817048],[136.921475,34.817079],[136.921457,34.817093],[136.92145,34.817099],[136.921433,34.81711],[136.92141,34.817122],[136.921362,34.817139],[136.921297,34.817158],[136.92118,34.8172],[136.921161,34.817224],[136.920821,34.817347],[136.920745,34.817377],[136.920679,34.81741],[136.92057,34.81747],[136.920565,34.817465],[136.920552,34.817473],[136.920556,34.817478],[136.920544,34.817484],[136.920521,34.817453],[136.920501,34.817426],[136.920509,34.81742],[136.920518,34.81743],[136.920531,34.817422],[136.920521,34.817411],[136.92057,34.817375],[136.920624,34.81734],[136.920686,34.817306],[136.920753,34.817273],[136.920769,34.817278],[136.92129,34.817059],[136.921331,34.817037],[136.921363,34.817015],[136.921381,34.816992],[136.921389,34.816971],[136.921394,34.81695],[136.921394,34.816921],[136.921383,34.816875],[136.921368,34.81682],[136.921014,34.815871],[136.920961,34.815723],[136.920922,34.815603],[136.920902,34.815525],[136.920891,34.815458],[136.920872,34.815363],[136.920845,34.815249],[136.920815,34.815133],[136.920781,34.815016],[136.920588,34.814496],[136.920349,34.813867],[136.920318,34.813767],[136.920279,34.813637],[136.92026,34.813576],[136.920254,34.813576],[136.920165,34.813579],[136.919435,34.813626],[136.918438,34.813658],[136.918387,34.813627],[136.918193,34.813143],[136.918149,34.81344],[136.917837,34.813335],[136.917796,34.812825],[136.917611,34.812671],[136.917377,34.812576],[136.917299,34.812596],[136.917246,34.812608],[136.91723,34.812629],[136.917184,34.812801],[136.917145,34.812831],[136.9171,34.812828],[136.91686,34.812732],[136.916795,34.812453],[136.915719,34.812237],[136.915858,34.811792],[136.915837,34.811748],[136.915575,34.811453],[136.915334,34.81138],[136.914907,34.811386],[136.914615,34.811316],[136.914346,34.811217],[136.914259,34.811201],[136.91417,34.811418],[136.914162,34.811652],[136.914114,34.81169],[136.913711,34.811691],[136.913368,34.811611],[136.912896,34.811566],[136.912699,34.811626],[136.912561,34.811642],[136.912429,34.811731],[136.912305,34.811872],[136.91197,34.812417],[136.911693,34.812652],[136.911574,34.8128],[136.911471,34.81296],[136.911424,34.813156],[136.911511,34.813081],[136.911598,34.813053],[136.911779,34.812918],[136.912013,34.812733],[136.912237,34.812593],[136.912402,34.812242],[136.912662,34.812258],[136.912928,34.812306],[136.913626,34.81249],[136.913453,34.813005],[136.913411,34.813153],[136.913352,34.813403],[136.913272,34.813486],[136.913196,34.81353],[136.913125,34.813539],[136.91271,34.813446],[136.912635,34.813442],[136.912576,34.81348],[136.912464,34.813551],[136.912389,34.813636],[136.912364,34.813697],[136.912378,34.81378],[136.912445,34.81403],[136.912408,34.814263],[136.912356,34.814473],[136.912214,34.814704],[136.911867,34.814827],[136.911675,34.81478],[136.911362,34.814712],[136.910895,34.814681],[136.910502,34.814608],[136.910397,34.814489],[136.910204,34.814432],[136.910117,34.814374],[136.909584,34.813842],[136.909486,34.81372],[136.909455,34.813687],[136.909402,34.813664],[136.909181,34.813683],[136.908786,34.813788],[136.908539,34.813841],[136.908395,34.813917],[136.908313,34.814015],[136.908287,34.814118],[136.9084,34.814262],[136.908194,34.814417],[136.908073,34.814578],[136.907955,34.814636],[136.907852,34.814639],[136.907768,34.814534],[136.907668,34.814585],[136.907544,34.814683],[136.907607,34.814735],[136.907568,34.81478],[136.907392,34.814839],[136.907446,34.814911],[136.907419,34.814928],[136.907344,34.814937],[136.90726,34.814834],[136.907054,34.814664],[136.906948,34.814732],[136.906708,34.8145],[136.905855,34.814878],[136.904967,34.814824],[136.904858,34.814817],[136.904712,34.814808],[136.904437,34.814835],[136.903669,34.81491],[136.903544,34.814819],[136.903299,34.81456],[136.903164,34.814429],[136.90305,34.814308],[136.902399,34.813934],[136.902276,34.813876],[136.902199,34.813871],[136.901683,34.814013],[136.900845,34.813738],[136.900512,34.81364],[136.899752,34.813378],[136.899174,34.813353],[136.89875,34.813352],[136.898496,34.813561],[136.898417,34.813587],[136.89783,34.813625],[136.89744,34.813648],[136.897288,34.813626],[136.897071,34.813539],[136.896835,34.813628],[136.896448,34.813816],[136.896128,34.813986],[136.895684,34.814499],[136.895355,34.814773],[136.895193,34.814844],[136.894882,34.815052],[136.894792,34.815155],[136.894753,34.815238],[136.894724,34.815376],[136.894746,34.815497],[136.894581,34.815598],[136.894512,34.81564],[136.89426,34.815602],[136.893881,34.815533],[136.893613,34.815486],[136.893261,34.81547],[136.893069,34.815486],[136.892452,34.815294],[136.892302,34.815263],[136.892112,34.815271],[136.891867,34.815301],[136.891603,34.815351],[136.890974,34.815313],[136.889944,34.814892],[136.889305,34.814631],[136.88926,34.814442],[136.888607,34.814321],[136.888508,34.814329],[136.888303,34.814381],[136.88764,34.814535],[136.887595,34.8145],[136.88755,34.814516],[136.88748,34.814516],[136.886633,34.815227],[136.886473,34.815355],[136.886227,34.815476],[136.886069,34.815601],[136.885892,34.815746],[136.885822,34.815857],[136.885764,34.816094],[136.885702,34.816188],[136.885566,34.816333],[136.884832,34.816909],[136.884746,34.816997],[136.884733,34.817051],[136.884746,34.817115],[136.884933,34.817359],[136.885005,34.817453],[136.885041,34.817575],[136.885057,34.817734],[136.884987,34.817974],[136.884908,34.818105],[136.884838,34.818318],[136.884691,34.818551],[136.884515,34.818699],[136.884291,34.818898],[136.884073,34.819161],[136.883974,34.819316],[136.883932,34.819417],[136.883957,34.819515],[136.884038,34.819614],[136.884472,34.819912],[136.884684,34.820163],[136.884903,34.820366],[136.884923,34.820504],[136.88491,34.820579],[136.884795,34.820673],[136.88424,34.82103],[136.884051,34.821178],[136.884018,34.821225],[136.884006,34.821286],[136.88402,34.821398],[136.884093,34.821584],[136.884043,34.821776],[136.883936,34.821965],[136.883808,34.822076],[136.883468,34.82216],[136.883124,34.822159],[136.883027,34.822179],[136.882957,34.822247],[136.882904,34.822334],[136.882887,34.822483],[136.882866,34.822638],[136.882808,34.822756],[136.882713,34.822844],[136.882668,34.822935],[136.882659,34.823037],[136.88277,34.823662],[136.882867,34.823936],[136.882883,34.824061],[136.88285,34.824186],[136.882776,34.82428],[136.882702,34.824392],[136.882669,34.824498],[136.882676,34.824529],[136.882743,34.824724],[136.882743,34.824802],[136.882738,34.824823],[136.882724,34.82485],[136.882637,34.824972],[136.882583,34.825063],[136.882572,34.825103],[136.882569,34.825181],[136.882578,34.825217],[136.882593,34.825252],[136.882609,34.825277],[136.882651,34.825318],[136.882748,34.825403],[136.882763,34.825431],[136.882759,34.825562],[136.882753,34.825841],[136.882758,34.825862],[136.882777,34.82589],[136.882802,34.825914],[136.882824,34.825924],[136.882898,34.825953],[136.883091,34.82603],[136.883113,34.826042],[136.883142,34.82607],[136.883164,34.826105],[136.883182,34.826153],[136.883194,34.826209],[136.883198,34.826312],[136.883194,34.826474],[136.883171,34.826645],[136.88317,34.826711],[136.883176,34.82675],[136.883197,34.826784],[136.883221,34.826809],[136.88325,34.826832],[136.883526,34.826966],[136.883585,34.827001],[136.883689,34.827087],[136.883737,34.827124],[136.883787,34.827155],[136.883841,34.827171],[136.883989,34.827192],[136.884045,34.827203],[136.88423,34.827262],[136.884472,34.827336],[136.884576,34.827372],[136.884692,34.827426],[136.884743,34.827463],[136.884764,34.827481],[136.884786,34.827517],[136.884798,34.827553],[136.884835,34.827673],[136.884855,34.827765],[136.884874,34.827922],[136.884885,34.828087],[136.884882,34.828216],[136.884875,34.828253],[136.884862,34.82828],[136.884797,34.828387],[136.884725,34.828489],[136.884637,34.828631],[136.884554,34.828778],[136.884501,34.828901],[136.884487,34.828958],[136.884475,34.829044],[136.884468,34.829141],[136.884472,34.82927],[136.884482,34.829419],[136.884492,34.829462],[136.884517,34.829496],[136.884652,34.829647],[136.884698,34.829718],[136.884727,34.829801],[136.884737,34.829864],[136.884735,34.829937],[136.884724,34.829983],[136.884659,34.830165],[136.884642,34.830216],[136.884619,34.83034],[136.884618,34.830379],[136.884635,34.830439],[136.884732,34.830691],[136.884761,34.830785],[136.884762,34.830789],[136.884779,34.830874],[136.884793,34.830985],[136.884791,34.831057],[136.884798,34.831084],[136.884832,34.831134],[136.884873,34.831187],[136.88491,34.831222],[136.884973,34.831299],[136.885009,34.831356],[136.885022,34.831409],[136.885027,34.831461],[136.885021,34.831541],[136.885003,34.831718],[136.884999,34.831812],[136.884993,34.831839],[136.884971,34.831876],[136.884954,34.831912],[136.884838,34.832037],[136.884827,34.832054],[136.884721,34.832189],[136.884694,34.832246],[136.884672,34.832304],[136.884672,34.832364],[136.884684,34.83242],[136.884718,34.832483],[136.884764,34.832539],[136.884834,34.832592],[136.885184,34.832834],[136.88535,34.832966],[136.885366,34.832995],[136.885356,34.833139],[136.885356,34.833233],[136.885365,34.833294],[136.88539,34.833374],[136.885448,34.833475],[136.885537,34.83359],[136.885529,34.833599],[136.885643,34.833663],[136.886022,34.833836],[136.886207,34.833913],[136.886322,34.833932],[136.886521,34.833946],[136.886709,34.834012],[136.886933,34.83415],[136.887139,34.83428],[136.887407,34.83439],[136.887729,34.834509],[136.887863,34.834617],[136.888074,34.834691],[136.888248,34.834791],[136.8887,34.835124],[136.888863,34.835246],[136.889003,34.835314],[136.889137,34.835325],[136.889264,34.835312],[136.889478,34.83527],[136.889631,34.835286],[136.889993,34.835366],[136.890363,34.835483],[136.890839,34.835649],[136.891063,34.835751],[136.891188,34.835856],[136.891417,34.836154],[136.891605,34.836252],[136.891706,34.836279],[136.892275,34.836362],[136.892408,34.836388],[136.89257,34.836427],[136.892829,34.836318],[136.893194,34.836162],[136.893397,34.836081]]]}}]}