{"type":"FeatureCollection","features":[{"type":"Feature","properties":{"name":"森岡","city":"東浦町","code":"442","setai":3152,"jinko":8014,"n":1,"towns":["234420010"],"lx":136.960536,"ly":34.993871},"geometry":{"type":"Polygon","coordinates":[[[136.966432,35.001703],[136.966637,35.001607],[136.966665,35.001593],[136.967565,35.001148],[136.968018,35.000942],[136.96873,35.000641],[136.969279,35.000451],[136.969702,35.000307],[136.969954,35.000244],[136.97019,35.0002],[136.970418,35.000117],[136.970681,34.999995],[136.971077,34.999911],[136.971396,34.999797],[136.971722,34.999689],[136.971992,34.999626],[136.972192,34.999582],[136.972336,34.999567],[136.972514,34.999547],[136.972641,34.999803],[136.972825,34.999771],[136.97289,34.999768],[136.973062,34.999759],[136.973359,34.999755],[136.973609,34.999777],[136.973922,34.999964],[136.973973,34.999976],[136.97411,35.000065],[136.97423,35.000177],[136.974366,35.000379],[136.974477,35.000642],[136.974573,35.00094],[136.974685,35.001261],[136.974793,35.001418],[136.975055,35.00153],[136.975322,35.001613],[136.975507,35.001615],[136.975528,35.001615],[136.975847,35.00161],[136.97606,35.001591],[136.976213,35.001577],[136.976564,35.001563],[136.976809,35.001573],[136.977053,35.001589],[136.977176,35.001602],[136.97741,35.001606],[136.97754,35.001616],[136.977594,35.001623],[136.977645,35.001623],[136.977805,35.001625],[136.978071,35.001607],[136.978579,35.001525],[136.978946,35.001467],[136.979417,35.00132],[136.979934,35.001151],[136.980226,35.001058],[136.980352,35.001009],[136.980759,35.000885],[136.981156,35.000753],[136.981355,35.000165],[136.981585,34.999538],[136.981662,34.998942],[136.981664,34.998852],[136.981667,34.99883],[136.981669,34.998626],[136.981654,34.998296],[136.981633,34.99793],[136.981627,34.997601],[136.981615,34.997281],[136.981601,34.996961],[136.981576,34.996616],[136.981585,34.996484],[136.981576,34.996351],[136.981568,34.996212],[136.981592,34.995648],[136.981597,34.995377],[136.981596,34.994905],[136.981604,34.99462],[136.981605,34.994133],[136.981574,34.993765],[136.981544,34.993369],[136.981504,34.992876],[136.981433,34.992196],[136.981425,34.992059],[136.981397,34.991864],[136.981393,34.991837],[136.981375,34.991746],[136.98127,34.991213],[136.981154,34.990574],[136.98115,34.990557],[136.98101,34.990584],[136.980572,34.990647],[136.979462,34.990827],[136.979268,34.990765],[136.979158,34.990742],[136.979067,34.990768],[136.978948,34.990809],[136.978871,34.990905],[136.97888,34.991141],[136.978872,34.991439],[136.978772,34.991668],[136.978709,34.991775],[136.978707,34.991786],[136.978702,34.991787],[136.978639,34.991895],[136.976502,34.992121],[136.976459,34.992005],[136.97628,34.991803],[136.976223,34.991759],[136.976106,34.99171],[136.975955,34.991711],[136.975868,34.991747],[136.975759,34.991772],[136.975598,34.991792],[136.974786,34.992085],[136.974475,34.992049],[136.974206,34.991985],[136.974006,34.9919],[136.97377,34.991813],[136.973538,34.991707],[136.973344,34.99162],[136.973246,34.991589],[136.973153,34.991537],[136.973058,34.991497],[136.972948,34.991459],[136.972853,34.991439],[136.972744,34.991425],[136.972406,34.991086],[136.971625,34.991177],[136.971091,34.991247],[136.970803,34.991547],[136.970674,34.991595],[136.970557,34.991627],[136.970438,34.991658],[136.970062,34.991584],[136.969599,34.991451],[136.969435,34.991317],[136.969316,34.991184],[136.969279,34.990601],[136.969234,34.990346],[136.969073,34.98993],[136.969005,34.989822],[136.968454,34.989172],[136.968029,34.988812],[136.967682,34.988675],[136.967544,34.988767],[136.967358,34.988954],[136.967193,34.989168],[136.96707,34.989303],[136.966946,34.989415],[136.966836,34.989483],[136.966713,34.989539],[136.966603,34.989573],[136.966439,34.989595],[136.966357,34.989595],[136.966152,34.989583],[136.966015,34.989572],[136.9658,34.989554],[136.965713,34.989549],[136.965535,34.989526],[136.965289,34.989503],[136.965189,34.989483],[136.965134,34.989487],[136.965073,34.989476],[136.964963,34.989468],[136.964769,34.989468],[136.964459,34.989452],[136.964215,34.98946],[136.964094,34.989464],[136.96383,34.989464],[136.963518,34.989507],[136.963122,34.989507],[136.962966,34.989504],[136.962924,34.989503],[136.962853,34.989564],[136.962822,34.989591],[136.96279,34.98963],[136.962716,34.989706],[136.96261,34.989781],[136.962446,34.989878],[136.962252,34.990013],[136.962245,34.990019],[136.962037,34.990113],[136.961864,34.990192],[136.961679,34.99028],[136.961572,34.990303],[136.961488,34.990321],[136.961261,34.990341],[136.961057,34.990337],[136.960895,34.990294],[136.960693,34.99024],[136.960546,34.990167],[136.960318,34.990024],[136.960067,34.98979],[136.959885,34.989566],[136.959636,34.989377],[136.959547,34.989275],[136.959344,34.989158],[136.959086,34.988974],[136.959026,34.988877],[136.958845,34.988801],[136.958794,34.98878],[136.958609,34.988635],[136.958181,34.98853],[136.957881,34.988446],[136.957458,34.988382],[136.957036,34.988317],[136.956483,34.988234],[136.956203,34.98817],[136.955966,34.988118],[136.955749,34.987985],[136.955696,34.987923],[136.955578,34.98785],[136.955353,34.987656],[136.955266,34.987579],[136.955183,34.987489],[136.955068,34.98732],[136.954918,34.987098],[136.954781,34.98693],[136.954639,34.986752],[136.954524,34.986607],[136.95439,34.986565],[136.954375,34.986561],[136.954193,34.986503],[136.95411,34.986461],[136.954045,34.986429],[136.953984,34.986398],[136.953856,34.986374],[136.953757,34.986356],[136.953727,34.986348],[136.953535,34.986316],[136.953499,34.986293],[136.953245,34.986255],[136.953174,34.986244],[136.953149,34.986238],[136.95294,34.986202],[136.952874,34.986169],[136.952683,34.986112],[136.952639,34.986099],[136.952532,34.986045],[136.952492,34.986026],[136.952377,34.985946],[136.952175,34.985808],[136.952023,34.985702],[136.951822,34.985669],[136.951245,34.985678],[136.950747,34.985704],[136.950506,34.985724],[136.95032,34.985738],[136.950142,34.985758],[136.950101,34.985768],[136.949962,34.9858],[136.949746,34.985867],[136.949376,34.985942],[136.948754,34.986099],[136.948154,34.986276],[136.947724,34.98638],[136.94734,34.986458],[136.947167,34.986495],[136.946976,34.986477],[136.946708,34.986362],[136.94635,34.986175],[136.946136,34.986086],[136.945806,34.985967],[136.945507,34.985854],[136.94525,34.985757],[136.945093,34.985649],[136.944963,34.985547],[136.944749,34.985455],[136.944458,34.985441],[136.943554,34.985426],[136.943011,34.985505],[136.942437,34.985505],[136.942299,34.985567],[136.942154,34.985663],[136.941731,34.985849],[136.941457,34.985859],[136.941087,34.985804],[136.940745,34.985866],[136.94026,34.985961],[136.939763,34.985768],[136.939306,34.985683],[136.938785,34.985579],[136.938364,34.985406],[136.937897,34.985286],[136.937368,34.984761],[136.93725,34.984703],[136.937086,34.984647],[136.936886,34.984615],[136.936683,34.984609],[136.936519,34.98463],[136.936313,34.984672],[136.935597,34.984986],[136.935407,34.985101],[136.935082,34.985325],[136.933873,34.986072],[136.933255,34.98653],[136.932901,34.98666],[136.93344,34.986759],[136.93347,34.98675],[136.933889,34.98653],[136.934141,34.986443],[136.93456,34.986315],[136.934645,34.986317],[136.934977,34.986428],[136.934866,34.987308],[136.935199,34.987549],[136.935688,34.987627],[136.93583,34.987642],[136.935891,34.987653],[136.93605,34.987714],[136.936211,34.987797],[136.93635,34.988021],[136.936536,34.988185],[136.936474,34.988415],[136.936183,34.988964],[136.936103,34.989275],[136.936133,34.989445],[136.936166,34.98947],[136.936571,34.989681],[136.936876,34.989695],[136.93727,34.989784],[136.937719,34.989752],[136.93869,34.989419],[136.939019,34.989017],[136.939054,34.989013],[136.939207,34.98903],[136.939309,34.989076],[136.93938,34.989126],[136.939607,34.989373],[136.939663,34.989741],[136.939621,34.990031],[136.939613,34.990082],[136.939621,34.99024],[136.939606,34.990678],[136.939608,34.990988],[136.939845,34.99107],[136.939889,34.991077],[136.940284,34.991067],[136.940347,34.991063],[136.940926,34.990955],[136.941039,34.990941],[136.941484,34.990934],[136.941895,34.990843],[136.942596,34.990605],[136.943179,34.990578],[136.943545,34.991305],[136.943606,34.991573],[136.94363,34.991609],[136.943794,34.991731],[136.943997,34.991825],[136.944231,34.99183],[136.944634,34.991839],[136.945448,34.991945],[136.94553,34.991925],[136.945605,34.991881],[136.945705,34.991804],[136.945841,34.991723],[136.946452,34.992114],[136.946625,34.992236],[136.946883,34.992437],[136.946986,34.992567],[136.947128,34.992854],[136.947207,34.993119],[136.947238,34.993311],[136.947146,34.993515],[136.947103,34.993624],[136.946994,34.993715],[136.946814,34.993782],[136.946351,34.993737],[136.946268,34.993734],[136.946154,34.993754],[136.946109,34.993917],[136.946122,34.993962],[136.946179,34.994008],[136.946452,34.994122],[136.94651,34.994152],[136.946598,34.994247],[136.946646,34.994288],[136.94669,34.994306],[136.946741,34.994304],[136.946805,34.994282],[136.946886,34.994279],[136.946979,34.994287],[136.947086,34.994335],[136.947154,34.994382],[136.947252,34.994492],[136.9473,34.994578],[136.947355,34.99473],[136.94739,34.994824],[136.94742,34.99497],[136.947436,34.995174],[136.94739,34.995536],[136.947405,34.995626],[136.947446,34.995715],[136.947498,34.995782],[136.947601,34.995829],[136.947648,34.995872],[136.947698,34.995971],[136.947709,34.996041],[136.947724,34.996194],[136.947732,34.996297],[136.947788,34.996385],[136.947838,34.996433],[136.947924,34.996462],[136.948008,34.996518],[136.948075,34.996614],[136.948158,34.996796],[136.948216,34.997091],[136.948257,34.997263],[136.948422,34.997545],[136.948494,34.997635],[136.948604,34.997758],[136.948964,34.998101],[136.949057,34.998173],[136.949278,34.998295],[136.949396,34.998417],[136.94945,34.998496],[136.949568,34.998648],[136.949713,34.998787],[136.949792,34.998892],[136.949888,34.999064],[136.949943,34.999171],[136.949964,34.999222],[136.950123,34.999161],[136.950141,34.999169],[136.950179,34.999242],[136.950215,34.999313],[136.950221,34.999324],[136.95016,34.999339],[136.950042,34.999369],[136.950029,34.999367],[136.950051,34.999391],[136.950353,34.999712],[136.950758,35.00005],[136.951,35.00015],[136.951106,35.000085],[136.951076,34.99997],[136.951041,34.999849],[136.951002,34.999681],[136.950883,34.999656],[136.950729,34.999618],[136.950602,34.999583],[136.950605,34.999524],[136.950575,34.999445],[136.950487,34.999381],[136.950398,34.999273],[136.950396,34.999229],[136.950412,34.99918],[136.950445,34.999147],[136.950531,34.999104],[136.950458,34.999007],[136.95042,34.998955],[136.950314,34.998808],[136.950284,34.998805],[136.950159,34.998759],[136.949834,34.998349],[136.950316,34.998022],[136.950287,34.997913],[136.950492,34.997677],[136.951369,34.99667],[136.95164,34.996535],[136.951865,34.996424],[136.952142,34.996592],[136.952224,34.996627],[136.952249,34.996636],[136.952769,34.996997],[136.953015,34.997155],[136.953097,34.997212],[136.953151,34.997313],[136.953247,34.99746],[136.953835,34.997765],[136.953958,34.997766],[136.954054,34.997766],[136.954137,34.997806],[136.954779,34.998113],[136.955038,34.998594],[136.955086,34.998682],[136.955212,34.998916],[136.955275,34.99901],[136.955377,34.99912],[136.95545,34.999197],[136.955489,34.999225],[136.955534,34.999259],[136.955651,34.999325],[136.955798,34.999383],[136.955912,34.999423],[136.955978,34.999446],[136.955996,34.999454],[136.956208,34.999546],[136.956429,34.999652],[136.956654,34.99977],[136.956761,34.999825],[136.956883,34.999878],[136.957047,34.999981],[136.957212,35.000078],[136.957329,35.000183],[136.957448,35.000351],[136.95754,35.00044],[136.957654,35.000507],[136.957798,35.000569],[136.957875,35.000567],[136.957997,35.000551],[136.958108,35.000548],[136.958212,35.000634],[136.958316,35.000735],[136.958337,35.000755],[136.958367,35.000784],[136.958468,35.000726],[136.958684,35.000966],[136.958538,35.001175],[136.95864,35.001668],[136.95869,35.001663],[136.958865,35.001679],[136.959034,35.001702],[136.959214,35.00174],[136.95933,35.001789],[136.959483,35.001865],[136.959656,35.001997],[136.959829,35.002159],[136.959952,35.002283],[136.960084,35.002412],[136.960305,35.002595],[136.960317,35.002603],[136.960374,35.00264],[136.960414,35.002677],[136.960533,35.002769],[136.960692,35.002851],[136.960821,35.002925],[136.961334,35.003175],[136.961665,35.003288],[136.961859,35.003338],[136.961998,35.003364],[136.962098,35.003365],[136.962413,35.003329],[136.962753,35.003255],[136.962949,35.003214],[136.963245,35.003189],[136.963505,35.003111],[136.963864,35.002954],[136.964016,35.00283],[136.964217,35.002678],[136.964364,35.00253],[136.964533,35.002366],[136.96469,35.002225],[136.964941,35.002067],[136.965122,35.001981],[136.965379,35.001893],[136.965632,35.001826],[136.965915,35.001787],[136.966239,35.001747],[136.966432,35.001703]]]}},{"type":"Feature","properties":{"name":"緒川","city":"東浦町","code":"442","setai":6361,"jinko":16372,"n":3,"towns":["23442002001","23442002002","23442002003"],"lx":136.945965,"ly":34.974676},"geometry":{"type":"Polygon","coordinates":[[[136.914089,34.971848],[136.914093,34.971765],[136.91418,34.971558],[136.914174,34.971469],[136.914145,34.971425],[136.914137,34.971388],[136.914155,34.971368],[136.91422,34.971333],[136.914294,34.971309],[136.914273,34.971263],[136.914265,34.971217],[136.914326,34.971137],[136.914422,34.970987],[136.914503,34.970871],[136.914521,34.970805],[136.914522,34.970746],[136.914514,34.970674],[136.914497,34.970604],[136.914451,34.970565],[136.91438,34.970516],[136.914284,34.97047],[136.914364,34.970352],[136.914329,34.970329],[136.914415,34.970191],[136.914396,34.970072],[136.914377,34.969913],[136.91437,34.969815],[136.914373,34.969716],[136.914376,34.969628],[136.914511,34.969646],[136.91459,34.9696],[136.914664,34.96953],[136.914739,34.969472],[136.914922,34.969355],[136.915063,34.969208],[136.915118,34.969089],[136.91516,34.968903],[136.91513,34.968702],[136.915181,34.968581],[136.915261,34.968511],[136.915501,34.968447],[136.915634,34.96843],[136.915726,34.968393],[136.915762,34.96822],[136.915786,34.968087],[136.915833,34.967977],[136.915919,34.967901],[136.916023,34.967855],[136.916296,34.967857],[136.916487,34.967861],[136.916461,34.967658],[136.916427,34.967443],[136.916377,34.967353],[136.916333,34.967289],[136.916315,34.967201],[136.916294,34.967133],[136.916241,34.966858],[136.916253,34.96672],[136.916519,34.96646],[136.916769,34.966358],[136.916832,34.966288],[136.916842,34.966071],[136.916512,34.965624],[136.916512,34.965497],[136.916655,34.965299],[136.916737,34.965187],[136.916756,34.96516],[136.916822,34.965044],[136.916895,34.964884],[136.916944,34.964694],[136.91695,34.964416],[136.916868,34.964199],[136.916755,34.963906],[136.916665,34.963817],[136.916804,34.96365],[136.916914,34.963262],[136.916964,34.962882],[136.917032,34.962894],[136.917116,34.963053],[136.917216,34.963112],[136.917311,34.963168],[136.917352,34.963199],[136.917387,34.963225],[136.917458,34.963279],[136.917512,34.963325],[136.917513,34.963326],[136.91754,34.963349],[136.917585,34.963387],[136.917605,34.963405],[136.917615,34.963413],[136.917617,34.963415],[136.917722,34.963558],[136.917676,34.963696],[136.917746,34.963788],[136.917937,34.963818],[136.918195,34.963859],[136.918339,34.963869],[136.918477,34.963842],[136.918586,34.963782],[136.918753,34.963622],[136.918755,34.96357],[136.91875,34.963552],[136.918737,34.963515],[136.918705,34.963472],[136.918576,34.963418],[136.918482,34.96333],[136.918334,34.963208],[136.918243,34.962984],[136.918236,34.962814],[136.91823,34.962701],[136.918167,34.962384],[136.918148,34.962161],[136.91894,34.961992],[136.919238,34.961899],[136.919316,34.961905],[136.919393,34.961904],[136.919531,34.961923],[136.919609,34.961828],[136.919843,34.961569],[136.919954,34.961387],[136.920066,34.961218],[136.920223,34.961054],[136.920331,34.960816],[136.920421,34.960709],[136.920594,34.960543],[136.92064,34.96051],[136.920674,34.960452],[136.920866,34.96012],[136.920942,34.959976],[136.921028,34.959854],[136.921245,34.959647],[136.921381,34.959577],[136.921592,34.95953],[136.921857,34.959526],[136.922047,34.959533],[136.922099,34.959507],[136.922106,34.959463],[136.922111,34.959394],[136.922099,34.95934],[136.922243,34.959179],[136.922308,34.959123],[136.92233,34.959098],[136.922356,34.959088],[136.922433,34.959057],[136.922527,34.959039],[136.922671,34.95901],[136.922775,34.958964],[136.92283,34.958928],[136.922878,34.958908],[136.923001,34.958826],[136.923545,34.958473],[136.923571,34.958465],[136.9236,34.958459],[136.92365,34.958469],[136.923717,34.958477],[136.923794,34.958475],[136.923895,34.958452],[136.924111,34.958413],[136.924185,34.958346],[136.924236,34.958296],[136.924308,34.958218],[136.924373,34.958128],[136.924609,34.958276],[136.924959,34.958453],[136.924989,34.958469],[136.925305,34.958071],[136.925514,34.957812],[136.92578,34.957522],[136.92579,34.95751],[136.926211,34.95703],[136.926238,34.956997],[136.926267,34.956961],[136.926481,34.956706],[136.926649,34.956504],[136.926705,34.956339],[136.926706,34.956337],[136.926732,34.956267],[136.926743,34.956207],[136.926757,34.956137],[136.92676,34.956052],[136.926754,34.955945],[136.926718,34.955833],[136.926681,34.955748],[136.926626,34.955672],[136.926559,34.955585],[136.926475,34.955485],[136.926206,34.955296],[136.926268,34.955227],[136.926594,34.954834],[136.926601,34.954826],[136.927015,34.95434],[136.927158,34.954222],[136.92742,34.954089],[136.927632,34.954041],[136.92791,34.954031],[136.928085,34.954046],[136.928412,34.954095],[136.928507,34.95411],[136.928657,34.954146],[136.929547,34.954248],[136.929649,34.95426],[136.929878,34.954291],[136.929952,34.954306],[136.929972,34.95431],[136.930065,34.95425],[136.930312,34.954147],[136.93044,34.954073],[136.930484,34.954027],[136.930535,34.953983],[136.9306,34.953939],[136.930697,34.953982],[136.930723,34.954048],[136.930764,34.954093],[136.93086,34.954116],[136.930928,34.954093],[136.930969,34.954105],[136.930983,34.954127],[136.930996,34.954161],[136.931037,34.954173],[136.931092,34.954161],[136.931188,34.95415],[136.931243,34.95415],[136.931311,34.954173],[136.931379,34.95423],[136.93142,34.954275],[136.931475,34.954309],[136.931543,34.95432],[136.931612,34.954331],[136.931653,34.954365],[136.931653,34.954422],[136.931639,34.954455],[136.931598,34.954512],[136.931598,34.954545],[136.931597,34.954624],[136.931584,34.954658],[136.931556,34.954681],[136.931501,34.954681],[136.931433,34.954692],[136.931378,34.954725],[136.931323,34.954782],[136.931282,34.95486],[136.931227,34.95495],[136.931172,34.955018],[136.931076,34.955108],[136.930993,34.955144],[136.931021,34.955175],[136.931011,34.955299],[136.930992,34.955417],[136.931005,34.955493],[136.931452,34.955718],[136.93165,34.955798],[136.932187,34.956016],[136.932738,34.956194],[136.933339,34.956341],[136.933679,34.95645],[136.934133,34.956744],[136.934257,34.956606],[136.935351,34.957335],[136.936069,34.957911],[136.936643,34.957944],[136.936945,34.958051],[136.937526,34.958366],[136.93796,34.958656],[136.938171,34.958833],[136.938367,34.959031],[136.938542,34.959326],[136.938577,34.959344],[136.938628,34.959349],[136.939136,34.959197],[136.93949,34.95918],[136.939728,34.959121],[136.939861,34.959127],[136.940283,34.959277],[136.940855,34.959658],[136.941516,34.960023],[136.942212,34.960363],[136.942705,34.960613],[136.942966,34.960678],[136.943593,34.960858],[136.943778,34.960911],[136.944408,34.960904],[136.94527,34.961013],[136.945824,34.961119],[136.946152,34.961211],[136.946295,34.961498],[136.946326,34.961655],[136.946357,34.962064],[136.94645,34.962592],[136.946481,34.96265],[136.946587,34.962764],[136.946739,34.962885],[136.946945,34.963012],[136.947127,34.963104],[136.947361,34.963143],[136.947507,34.963156],[136.947648,34.963147],[136.947786,34.963101],[136.9479,34.963046],[136.948024,34.963011],[136.948135,34.963016],[136.948478,34.96309],[136.948656,34.96312],[136.948755,34.963067],[136.948848,34.962986],[136.94899,34.962852],[136.949133,34.962758],[136.949332,34.962599],[136.949493,34.962517],[136.949732,34.962472],[136.949992,34.962441],[136.950162,34.96242],[136.951078,34.962461],[136.951398,34.962682],[136.951527,34.962793],[136.951795,34.962909],[136.951854,34.962948],[136.951931,34.962958],[136.951979,34.962969],[136.952137,34.963009],[136.952343,34.963035],[136.95255,34.963094],[136.952744,34.963151],[136.95286,34.963158],[136.952946,34.963231],[136.953042,34.963362],[136.953161,34.963562],[136.953329,34.96375],[136.953469,34.963889],[136.953611,34.964017],[136.953689,34.964105],[136.954178,34.96448],[136.954391,34.964609],[136.954575,34.964668],[136.954926,34.964783],[136.955153,34.964871],[136.955217,34.964964],[136.955196,34.965121],[136.955178,34.965256],[136.955114,34.965416],[136.954929,34.965768],[136.954901,34.96583],[136.954751,34.966043],[136.95471,34.966186],[136.954985,34.96636],[136.954987,34.966432],[136.95498,34.966492],[136.954949,34.966522],[136.95485,34.966551],[136.954613,34.966608],[136.9543,34.966657],[136.954292,34.966631],[136.954287,34.966568],[136.954308,34.966469],[136.954328,34.966271],[136.954298,34.966025],[136.954357,34.965875],[136.954411,34.965779],[136.954464,34.965692],[136.954464,34.965583],[136.954442,34.965549],[136.954287,34.96548],[136.954043,34.9655],[136.953865,34.965524],[136.953674,34.965557],[136.953515,34.965609],[136.953525,34.965728],[136.953538,34.965752],[136.953546,34.965847],[136.953541,34.966001],[136.953501,34.966179],[136.953443,34.96632],[136.953419,34.966386],[136.953397,34.966453],[136.953343,34.966658],[136.953337,34.966716],[136.953283,34.967018],[136.953339,34.967148],[136.953649,34.967779],[136.95376,34.967972],[136.953851,34.968031],[136.953868,34.968098],[136.953937,34.968216],[136.953979,34.968257],[136.954104,34.968376],[136.954244,34.968513],[136.954386,34.968631],[136.95452,34.96883],[136.954556,34.968914],[136.954589,34.969016],[136.954734,34.969107],[136.954841,34.969089],[136.954923,34.969087],[136.955001,34.969112],[136.95508,34.969164],[136.955244,34.969283],[136.955435,34.969424],[136.955728,34.969623],[136.955868,34.969746],[136.955976,34.96988],[136.956106,34.970007],[136.956146,34.970087],[136.956262,34.970188],[136.956346,34.970174],[136.956624,34.970082],[136.956642,34.970034],[136.956606,34.969865],[136.95659,34.96982],[136.956618,34.969791],[136.956734,34.969788],[136.956775,34.969858],[136.956986,34.970221],[136.957438,34.970998],[136.95783,34.970842],[136.957933,34.970968],[136.958453,34.970771],[136.95857,34.970727],[136.958571,34.970728],[136.958815,34.971005],[136.958896,34.971139],[136.958979,34.971348],[136.959154,34.971436],[136.959334,34.971588],[136.959295,34.971641],[136.959233,34.971686],[136.959105,34.971738],[136.959041,34.971744],[136.959005,34.971736],[136.958961,34.971719],[136.958902,34.971689],[136.958842,34.971689],[136.958744,34.971698],[136.958586,34.97167],[136.95848,34.971597],[136.958439,34.971523],[136.958424,34.97145],[136.958298,34.971402],[136.958245,34.971374],[136.958181,34.971314],[136.958122,34.971262],[136.958025,34.971206],[136.957874,34.971201],[136.957832,34.971286],[136.957862,34.971404],[136.957918,34.97156],[136.957944,34.971639],[136.957978,34.971728],[136.958021,34.971848],[136.958011,34.971947],[136.958008,34.971997],[136.95788,34.972066],[136.957826,34.972054],[136.957685,34.972108],[136.95757,34.972151],[136.957527,34.972208],[136.957526,34.972386],[136.957521,34.972493],[136.957728,34.97268],[136.957901,34.972927],[136.958063,34.973174],[136.958204,34.97334],[136.958259,34.973404],[136.958412,34.973524],[136.958486,34.973555],[136.958561,34.973579],[136.958721,34.973626],[136.958724,34.973628],[136.958886,34.973737],[136.959032,34.973919],[136.959165,34.974127],[136.959242,34.97435],[136.959244,34.974387],[136.959293,34.974562],[136.959326,34.974679],[136.959392,34.974845],[136.95942,34.974888],[136.959493,34.974991],[136.959549,34.975081],[136.959566,34.975141],[136.959556,34.975343],[136.959558,34.975359],[136.959526,34.975456],[136.959384,34.975555],[136.959265,34.975647],[136.959013,34.975739],[136.958688,34.975798],[136.958456,34.97581],[136.958284,34.975771],[136.958071,34.975702],[136.957883,34.975599],[136.957716,34.975515],[136.957446,34.975352],[136.957371,34.975522],[136.957558,34.975632],[136.957778,34.975752],[136.958011,34.975868],[136.958391,34.976019],[136.958544,34.976031],[136.958658,34.976019],[136.959594,34.97564],[136.959699,34.975595],[136.960519,34.975128],[136.96078,34.975029],[136.961028,34.974956],[136.961341,34.974799],[136.961605,34.97468],[136.961818,34.974622],[136.962042,34.974645],[136.962354,34.974669],[136.962608,34.974678],[136.962868,34.974613],[136.963004,34.974577],[136.963378,34.974396],[136.963534,34.974236],[136.963673,34.974066],[136.963819,34.973903],[136.963958,34.973734],[136.964136,34.97355],[136.964311,34.973421],[136.964552,34.973328],[136.964787,34.973297],[136.965206,34.973341],[136.965746,34.973465],[136.966044,34.973568],[136.96626,34.973709],[136.966375,34.973836],[136.966477,34.973967],[136.966586,34.974207],[136.966648,34.974376],[136.966834,34.974671],[136.967046,34.974821],[136.967217,34.974855],[136.967651,34.974905],[136.967881,34.974984],[136.968221,34.975023],[136.968677,34.975069],[136.969153,34.975102],[136.969551,34.97511],[136.971072,34.97514],[136.971275,34.975144],[136.972281,34.975254],[136.976345,34.976454],[136.979563,34.976358],[136.980998,34.976327],[136.980915,34.976885],[136.980861,34.977084],[136.980753,34.977316],[136.98065,34.977494],[136.980485,34.977832],[136.980206,34.978387],[136.979854,34.979096],[136.979501,34.979825],[136.979288,34.980351],[136.979059,34.980893],[136.978983,34.981055],[136.978908,34.981572],[136.978845,34.981957],[136.978841,34.981982],[136.978791,34.982288],[136.978792,34.982885],[136.978793,34.983411],[136.978795,34.983529],[136.978799,34.983593],[136.978802,34.983639],[136.978804,34.983718],[136.978894,34.984127],[136.978947,34.984382],[136.978988,34.984587],[136.979048,34.984867],[136.979197,34.985559],[136.97932,34.986105],[136.979435,34.986444],[136.979549,34.986675],[136.979681,34.986913],[136.979805,34.987112],[136.979981,34.987352],[136.980105,34.987514],[136.980333,34.987809],[136.980497,34.988067],[136.980631,34.988346],[136.980746,34.988734],[136.980819,34.989044],[136.980903,34.989395],[136.980968,34.989712],[136.981019,34.989916],[136.981055,34.990092],[136.98113,34.990465],[136.98115,34.990557],[136.98101,34.990584],[136.980572,34.990647],[136.979462,34.990827],[136.979268,34.990765],[136.979158,34.990742],[136.979067,34.990768],[136.978948,34.990809],[136.978871,34.990905],[136.97888,34.991141],[136.978872,34.991439],[136.978772,34.991668],[136.978709,34.991775],[136.978707,34.991786],[136.978702,34.991787],[136.978639,34.991895],[136.976502,34.992121],[136.976459,34.992005],[136.97628,34.991803],[136.976223,34.991759],[136.976106,34.99171],[136.975955,34.991711],[136.975868,34.991747],[136.975759,34.991772],[136.975598,34.991792],[136.974786,34.992085],[136.974475,34.992049],[136.974206,34.991985],[136.974006,34.9919],[136.97377,34.991813],[136.973538,34.991707],[136.973344,34.99162],[136.973246,34.991589],[136.973153,34.991537],[136.973058,34.991497],[136.972948,34.991459],[136.972853,34.991439],[136.972744,34.991425],[136.972406,34.991086],[136.971625,34.991177],[136.971091,34.991247],[136.970803,34.991547],[136.970674,34.991595],[136.970557,34.991627],[136.970438,34.991658],[136.970062,34.991584],[136.969599,34.991451],[136.969435,34.991317],[136.969316,34.991184],[136.969279,34.990601],[136.969234,34.990346],[136.969073,34.98993],[136.969005,34.989822],[136.968454,34.989172],[136.968029,34.988812],[136.967682,34.988675],[136.967544,34.988767],[136.967358,34.988954],[136.967193,34.989168],[136.96707,34.989303],[136.966946,34.989415],[136.966836,34.989483],[136.966713,34.989539],[136.966603,34.989573],[136.966439,34.989595],[136.966357,34.989595],[136.966152,34.989583],[136.966015,34.989572],[136.9658,34.989554],[136.965713,34.989549],[136.965535,34.989526],[136.965289,34.989503],[136.965189,34.989483],[136.965134,34.989487],[136.965073,34.989476],[136.964963,34.989468],[136.964769,34.989468],[136.964459,34.989452],[136.964215,34.98946],[136.964094,34.989464],[136.96383,34.989464],[136.963518,34.989507],[136.963122,34.989507],[136.962966,34.989504],[136.962924,34.989503],[136.962853,34.989564],[136.962822,34.989591],[136.96279,34.98963],[136.962716,34.989706],[136.96261,34.989781],[136.962446,34.989878],[136.962252,34.990013],[136.962245,34.990019],[136.962037,34.990113],[136.961864,34.990192],[136.961679,34.99028],[136.961572,34.990303],[136.961488,34.990321],[136.961261,34.990341],[136.961057,34.990337],[136.960895,34.990294],[136.960693,34.99024],[136.960546,34.990167],[136.960318,34.990024],[136.960067,34.98979],[136.959885,34.989566],[136.959636,34.989377],[136.959547,34.989275],[136.959344,34.989158],[136.959086,34.988974],[136.959026,34.988877],[136.958845,34.988801],[136.958794,34.98878],[136.958609,34.988635],[136.958181,34.98853],[136.957881,34.988446],[136.957458,34.988382],[136.957036,34.988317],[136.956483,34.988234],[136.956203,34.98817],[136.955966,34.988118],[136.955749,34.987985],[136.955696,34.987923],[136.955578,34.98785],[136.955353,34.987656],[136.955266,34.987579],[136.955183,34.987489],[136.955068,34.98732],[136.954918,34.987098],[136.954781,34.98693],[136.954639,34.986752],[136.954524,34.986607],[136.95439,34.986565],[136.954375,34.986561],[136.954193,34.986503],[136.95411,34.986461],[136.954045,34.986429],[136.953984,34.986398],[136.953856,34.986374],[136.953757,34.986356],[136.953727,34.986348],[136.953535,34.986316],[136.953499,34.986293],[136.953245,34.986255],[136.953174,34.986244],[136.953149,34.986238],[136.95294,34.986202],[136.952874,34.986169],[136.952683,34.986112],[136.952639,34.986099],[136.952532,34.986045],[136.952492,34.986026],[136.952377,34.985946],[136.952175,34.985808],[136.952023,34.985702],[136.951822,34.985669],[136.951245,34.985678],[136.950747,34.985704],[136.950506,34.985724],[136.95032,34.985738],[136.950142,34.985758],[136.950101,34.985768],[136.949962,34.9858],[136.949746,34.985867],[136.949376,34.985942],[136.948754,34.986099],[136.948154,34.986276],[136.947724,34.98638],[136.94734,34.986458],[136.947167,34.986495],[136.946976,34.986477],[136.946708,34.986362],[136.94635,34.986175],[136.946136,34.986086],[136.945806,34.985967],[136.945507,34.985854],[136.94525,34.985757],[136.945093,34.985649],[136.944963,34.985547],[136.944749,34.985455],[136.944458,34.985441],[136.943554,34.985426],[136.943011,34.985505],[136.942437,34.985505],[136.942299,34.985567],[136.942154,34.985663],[136.941731,34.985849],[136.941457,34.985859],[136.941087,34.985804],[136.940745,34.985866],[136.94026,34.985961],[136.939763,34.985768],[136.939306,34.985683],[136.938785,34.985579],[136.938364,34.985406],[136.937897,34.985286],[136.937368,34.984761],[136.93725,34.984703],[136.937086,34.984647],[136.936886,34.984615],[136.936683,34.984609],[136.936519,34.98463],[136.936313,34.984672],[136.935597,34.984986],[136.935407,34.985101],[136.935082,34.985325],[136.933873,34.986072],[136.933255,34.98653],[136.932901,34.98666],[136.932822,34.986697],[136.932702,34.986504],[136.932695,34.986474],[136.93271,34.986418],[136.932832,34.986149],[136.932831,34.986064],[136.932837,34.985707],[136.933096,34.985442],[136.933178,34.985275],[136.933238,34.985133],[136.933331,34.984957],[136.933334,34.984849],[136.933254,34.984662],[136.933077,34.984486],[136.933026,34.984424],[136.932923,34.984314],[136.932736,34.984111],[136.932537,34.983895],[136.932233,34.983825],[136.932129,34.983794],[136.932057,34.983774],[136.931772,34.983695],[136.930823,34.98343],[136.929792,34.983197],[136.92942,34.983204],[136.929072,34.983192],[136.92902,34.982989],[136.928978,34.982853],[136.928934,34.982708],[136.928887,34.982543],[136.92878,34.982356],[136.928649,34.982239],[136.928545,34.982168],[136.928301,34.981979],[136.92805,34.982194],[136.927969,34.982115],[136.927468,34.98162],[136.927392,34.981477],[136.927232,34.981173],[136.92714,34.981007],[136.927001,34.980736],[136.926783,34.980318],[136.925284,34.977634],[136.925257,34.977586],[136.925101,34.977306],[136.925133,34.977172],[136.925062,34.9771],[136.925078,34.977029],[136.924908,34.976935],[136.924833,34.9769],[136.924714,34.977024],[136.924617,34.976933],[136.924557,34.976873],[136.924533,34.976848],[136.924572,34.976725],[136.923551,34.975929],[136.923527,34.976005],[136.923507,34.976078],[136.923116,34.976066],[136.923121,34.976004],[136.923124,34.975958],[136.9231,34.975958],[136.923102,34.975925],[136.92292,34.975922],[136.922905,34.975997],[136.922718,34.97599],[136.92244,34.975967],[136.922188,34.975899],[136.921894,34.975817],[136.921702,34.975751],[136.921583,34.975705],[136.921546,34.97569],[136.921433,34.975645],[136.921285,34.975593],[136.921205,34.975562],[136.921114,34.975515],[136.920986,34.975433],[136.920845,34.975347],[136.920753,34.975298],[136.920646,34.975258],[136.920438,34.975189],[136.920246,34.975128],[136.920149,34.975087],[136.919994,34.975034],[136.919834,34.974967],[136.919645,34.974901],[136.919464,34.97482],[136.919304,34.974747],[136.919173,34.974707],[136.91911,34.974654],[136.919075,34.974566],[136.919025,34.974472],[136.918902,34.974394],[136.918878,34.974322],[136.918838,34.974207],[136.918758,34.974205],[136.918695,34.97419],[136.918588,34.974132],[136.918534,34.97415],[136.918477,34.974172],[136.918401,34.974182],[136.918335,34.974179],[136.918133,34.974084],[136.917989,34.97406],[136.917729,34.973997],[136.91757,34.973939],[136.917484,34.973895],[136.917362,34.973836],[136.917276,34.9738],[136.917257,34.973794],[136.917154,34.973758],[136.917019,34.973722],[136.916947,34.973662],[136.916881,34.97362],[136.916785,34.973603],[136.916657,34.973618],[136.916505,34.97356],[136.916308,34.973497],[136.916105,34.973397],[136.915857,34.973249],[136.915842,34.97324],[136.91564,34.973124],[136.915391,34.972934],[136.915269,34.972846],[136.91514,34.972724],[136.915034,34.972572],[136.915003,34.972522],[136.914977,34.97248],[136.914884,34.972382],[136.914777,34.972286],[136.914558,34.972153],[136.914453,34.972102],[136.914216,34.971986],[136.914126,34.971927],[136.914089,34.971848]]]}},{"type":"Feature","properties":{"name":"石浜","city":"東浦町","code":"442","setai":5061,"jinko":12713,"n":4,"towns":["23442003000","23442003001","23442003001","23442003001"],"lx":136.960582,"ly":34.963057},"geometry":{"type":"Polygon","coordinates":[[[136.9306,34.953939],[136.930768,34.953824],[136.930878,34.9537],[136.93092,34.95349],[136.930945,34.953359],[136.931046,34.953151],[136.93112,34.953055],[136.931212,34.952998],[136.931455,34.952843],[136.931576,34.952762],[136.931597,34.952753],[136.931995,34.952623],[136.932171,34.952613],[136.932332,34.952605],[136.932427,34.952447],[136.932545,34.952334],[136.932999,34.952153],[136.933204,34.951842],[136.933345,34.95176],[136.933752,34.95154],[136.934073,34.951151],[136.934372,34.951306],[136.934452,34.951243],[136.934905,34.950628],[136.936009,34.95131],[136.936058,34.951315],[136.936249,34.951173],[136.936562,34.951533],[136.936758,34.951692],[136.936889,34.951774],[136.936939,34.951706],[136.936939,34.951614],[136.93693,34.95157],[136.936869,34.951373],[136.93681,34.951236],[136.936775,34.95113],[136.936617,34.950788],[136.936554,34.950681],[136.93653,34.950634],[136.936866,34.95058],[136.937764,34.950551],[136.938483,34.950488],[136.938922,34.950322],[136.939057,34.950252],[136.939178,34.950195],[136.939271,34.950114],[136.939348,34.949997],[136.939376,34.949779],[136.939349,34.949544],[136.939124,34.948819],[136.939307,34.948737],[136.940486,34.94845],[136.939976,34.94716],[136.939972,34.947142],[136.939941,34.947026],[136.939895,34.946864],[136.939855,34.946548],[136.939843,34.946342],[136.939848,34.946277],[136.939857,34.946218],[136.939881,34.946216],[136.940074,34.946205],[136.940529,34.946114],[136.940543,34.946111],[136.940827,34.946056],[136.941304,34.945817],[136.941422,34.945871],[136.941552,34.946049],[136.941618,34.946066],[136.941644,34.946046],[136.942109,34.945679],[136.94233,34.945489],[136.942486,34.945423],[136.942621,34.945277],[136.942677,34.945134],[136.942697,34.944831],[136.942686,34.944583],[136.94267,34.944451],[136.942893,34.944243],[136.943008,34.944122],[136.943111,34.943914],[136.943218,34.943901],[136.94345,34.943955],[136.943325,34.944489],[136.943233,34.945049],[136.943183,34.945529],[136.943177,34.945976],[136.943129,34.94634],[136.943135,34.946697],[136.943272,34.946977],[136.943601,34.947467],[136.9439,34.94784],[136.94442,34.948194],[136.944571,34.948252],[136.944796,34.948299],[136.944885,34.948351],[136.945031,34.948557],[136.945192,34.948793],[136.945425,34.949068],[136.94566,34.949579],[136.945616,34.950041],[136.945554,34.95003],[136.945292,34.949963],[136.944867,34.949854],[136.944559,34.94969],[136.944029,34.949492],[136.943742,34.949385],[136.943305,34.949222],[136.943062,34.949132],[136.94296,34.948995],[136.942648,34.948955],[136.942598,34.948896],[136.942489,34.948766],[136.942334,34.948686],[136.942111,34.94857],[136.942056,34.948524],[136.941928,34.948425],[136.941793,34.948325],[136.9418,34.948128],[136.941839,34.94803],[136.941892,34.947966],[136.941932,34.947921],[136.941951,34.947856],[136.941919,34.947775],[136.941788,34.947672],[136.941692,34.947596],[136.941181,34.947711],[136.941256,34.947946],[136.941392,34.94834],[136.941581,34.94887],[136.941598,34.948877],[136.941827,34.948871],[136.94235,34.949172],[136.942569,34.949279],[136.942794,34.949395],[136.943209,34.949639],[136.943359,34.949727],[136.94347,34.949833],[136.943484,34.949874],[136.944118,34.95017],[136.944382,34.95026],[136.944715,34.950306],[136.945216,34.950405],[136.945429,34.950462],[136.945598,34.950536],[136.945847,34.950611],[136.94599,34.950624],[136.945957,34.950736],[136.945918,34.95084],[136.94577,34.951096],[136.945745,34.951139],[136.94626,34.951335],[136.94678,34.951532],[136.947342,34.951746],[136.94842,34.952158],[136.94833,34.952647],[136.948302,34.952801],[136.948156,34.953508],[136.948101,34.953773],[136.948086,34.953846],[136.948464,34.953896],[136.94965,34.95405],[136.949572,34.955019],[136.949483,34.955702],[136.950231,34.955805],[136.951812,34.956023],[136.953041,34.956193],[136.95416,34.956348],[136.956221,34.956632],[136.956474,34.956664],[136.956672,34.956679],[136.956704,34.956677],[136.956736,34.95662],[136.95695,34.956318],[136.9571,34.955871],[136.957069,34.955701],[136.957112,34.955542],[136.957266,34.955275],[136.957469,34.955045],[136.957679,34.954894],[136.957847,34.95481],[136.958048,34.954758],[136.958195,34.954756],[136.958545,34.954742],[136.958814,34.954698],[136.958913,34.954687],[136.959013,34.955026],[136.959098,34.955314],[136.959287,34.955622],[136.959592,34.956132],[136.959649,34.956188],[136.959708,34.95626],[136.959742,34.956316],[136.959863,34.9565],[136.960153,34.956436],[136.960156,34.956437],[136.960498,34.956364],[136.961048,34.95627],[136.961197,34.956243],[136.961457,34.956155],[136.961846,34.955975],[136.962067,34.955865],[136.962387,34.955731],[136.962533,34.95567],[136.962714,34.955668],[136.962773,34.955759],[136.962856,34.955887],[136.96282,34.956018],[136.963332,34.956131],[136.963362,34.956165],[136.963383,34.956259],[136.963401,34.956282],[136.963544,34.956326],[136.963648,34.956361],[136.963722,34.956395],[136.963738,34.956397],[136.963893,34.956418],[136.96398,34.95643],[136.96403,34.956475],[136.964338,34.957108],[136.964567,34.957576],[136.964912,34.957469],[136.965319,34.957331],[136.9654,34.957495],[136.96564,34.95797],[136.965847,34.958379],[136.966025,34.958733],[136.966248,34.959175],[136.966473,34.959622],[136.966697,34.960086],[136.966703,34.960099],[136.966873,34.960467],[136.966927,34.960586],[136.967195,34.960502],[136.967416,34.960433],[136.967432,34.960468],[136.96751,34.960635],[136.967705,34.96041],[136.967794,34.960308],[136.968116,34.960524],[136.968292,34.960647],[136.968487,34.960766],[136.968642,34.960809],[136.968643,34.960809],[136.970186,34.961146],[136.970348,34.961205],[136.970422,34.961232],[136.971024,34.961386],[136.971564,34.961528],[136.971528,34.96165],[136.971486,34.961796],[136.971578,34.961818],[136.972073,34.961899],[136.972363,34.961954],[136.972431,34.961787],[136.972623,34.961832],[136.972644,34.961838],[136.972945,34.961638],[136.973028,34.961572],[136.97304,34.961502],[136.973298,34.961507],[136.973421,34.961509],[136.973575,34.961678],[136.973849,34.96196],[136.973935,34.961917],[136.974048,34.961847],[136.974097,34.961832],[136.97422,34.961808],[136.974376,34.961781],[136.9747,34.961723],[136.974708,34.961719],[136.974702,34.961571],[136.9747,34.961407],[136.9747,34.961399],[136.974849,34.961341],[136.975079,34.961249],[136.975404,34.961279],[136.975826,34.961325],[136.976359,34.961379],[136.97654,34.9614],[136.976556,34.961253],[136.97658,34.961101],[136.976612,34.960893],[136.976623,34.960895],[136.976669,34.960901],[136.976688,34.960751],[136.976955,34.960778],[136.976997,34.960588],[136.977002,34.960563],[136.977198,34.960521],[136.977223,34.960381],[136.977256,34.960133],[136.977272,34.960009],[136.978766,34.959548],[136.980811,34.959024],[136.981869,34.958496],[136.982924,34.957887],[136.982953,34.959034],[136.982989,34.961996],[136.983038,34.962835],[136.98299,34.963946],[136.982969,34.965477],[136.982949,34.966075],[136.982957,34.966484],[136.982817,34.967396],[136.982722,34.968017],[136.98264,34.968606],[136.982668,34.969526],[136.982662,34.969747],[136.982522,34.970718],[136.982487,34.97101],[136.982349,34.972045],[136.982296,34.972472],[136.982173,34.972944],[136.98193,34.973541],[136.981663,34.974172],[136.981211,34.975315],[136.98106,34.97588],[136.981009,34.976257],[136.980998,34.976327],[136.979563,34.976358],[136.976345,34.976454],[136.972281,34.975254],[136.971275,34.975144],[136.971072,34.97514],[136.969551,34.97511],[136.969153,34.975102],[136.968677,34.975069],[136.968221,34.975023],[136.967881,34.974984],[136.967651,34.974905],[136.967217,34.974855],[136.967046,34.974821],[136.966834,34.974671],[136.966648,34.974376],[136.966586,34.974207],[136.966477,34.973967],[136.966375,34.973836],[136.96626,34.973709],[136.966044,34.973568],[136.965746,34.973465],[136.965206,34.973341],[136.964787,34.973297],[136.964552,34.973328],[136.964311,34.973421],[136.964136,34.97355],[136.963958,34.973734],[136.963819,34.973903],[136.963673,34.974066],[136.963534,34.974236],[136.963378,34.974396],[136.963004,34.974577],[136.962868,34.974613],[136.962608,34.974678],[136.962354,34.974669],[136.962042,34.974645],[136.961818,34.974622],[136.961605,34.97468],[136.961341,34.974799],[136.961028,34.974956],[136.96078,34.975029],[136.960519,34.975128],[136.959699,34.975595],[136.959594,34.97564],[136.958658,34.976019],[136.958544,34.976031],[136.958391,34.976019],[136.958011,34.975868],[136.957778,34.975752],[136.957558,34.975632],[136.957371,34.975522],[136.957446,34.975352],[136.957716,34.975515],[136.957883,34.975599],[136.958071,34.975702],[136.958284,34.975771],[136.958456,34.97581],[136.958688,34.975798],[136.959013,34.975739],[136.959265,34.975647],[136.959384,34.975555],[136.959526,34.975456],[136.959558,34.975359],[136.959556,34.975343],[136.959566,34.975141],[136.959549,34.975081],[136.959493,34.974991],[136.95942,34.974888],[136.959392,34.974845],[136.959326,34.974679],[136.959293,34.974562],[136.959244,34.974387],[136.959242,34.97435],[136.959165,34.974127],[136.959032,34.973919],[136.958886,34.973737],[136.958724,34.973628],[136.958721,34.973626],[136.958561,34.973579],[136.958486,34.973555],[136.958412,34.973524],[136.958259,34.973404],[136.958204,34.97334],[136.958063,34.973174],[136.957901,34.972927],[136.957728,34.97268],[136.957521,34.972493],[136.957526,34.972386],[136.957527,34.972208],[136.95757,34.972151],[136.957685,34.972108],[136.957826,34.972054],[136.95788,34.972066],[136.958008,34.971997],[136.958011,34.971947],[136.958021,34.971848],[136.957978,34.971728],[136.957944,34.971639],[136.957918,34.97156],[136.957862,34.971404],[136.957832,34.971286],[136.957874,34.971201],[136.958025,34.971206],[136.958122,34.971262],[136.958181,34.971314],[136.958245,34.971374],[136.958298,34.971402],[136.958424,34.97145],[136.958439,34.971523],[136.95848,34.971597],[136.958586,34.97167],[136.958744,34.971698],[136.958842,34.971689],[136.958902,34.971689],[136.958961,34.971719],[136.959005,34.971736],[136.959041,34.971744],[136.959105,34.971738],[136.959233,34.971686],[136.959295,34.971641],[136.959334,34.971588],[136.959154,34.971436],[136.958979,34.971348],[136.958896,34.971139],[136.958815,34.971005],[136.958571,34.970728],[136.95857,34.970727],[136.958453,34.970771],[136.957933,34.970968],[136.95783,34.970842],[136.957438,34.970998],[136.956986,34.970221],[136.956775,34.969858],[136.956734,34.969788],[136.956618,34.969791],[136.95659,34.96982],[136.956606,34.969865],[136.956642,34.970034],[136.956624,34.970082],[136.956346,34.970174],[136.956262,34.970188],[136.956146,34.970087],[136.956106,34.970007],[136.955976,34.96988],[136.955868,34.969746],[136.955728,34.969623],[136.955435,34.969424],[136.955244,34.969283],[136.95508,34.969164],[136.955001,34.969112],[136.954923,34.969087],[136.954841,34.969089],[136.954734,34.969107],[136.954589,34.969016],[136.954556,34.968914],[136.95452,34.96883],[136.954386,34.968631],[136.954244,34.968513],[136.954104,34.968376],[136.953979,34.968257],[136.953937,34.968216],[136.953868,34.968098],[136.953851,34.968031],[136.95376,34.967972],[136.953649,34.967779],[136.953339,34.967148],[136.953283,34.967018],[136.953337,34.966716],[136.953343,34.966658],[136.953397,34.966453],[136.953419,34.966386],[136.953443,34.96632],[136.953501,34.966179],[136.953541,34.966001],[136.953546,34.965847],[136.953538,34.965752],[136.953525,34.965728],[136.953515,34.965609],[136.953674,34.965557],[136.953865,34.965524],[136.954043,34.9655],[136.954287,34.96548],[136.954442,34.965549],[136.954464,34.965583],[136.954464,34.965692],[136.954411,34.965779],[136.954357,34.965875],[136.954298,34.966025],[136.954328,34.966271],[136.954308,34.966469],[136.954287,34.966568],[136.954292,34.966631],[136.9543,34.966657],[136.954613,34.966608],[136.95485,34.966551],[136.954949,34.966522],[136.95498,34.966492],[136.954987,34.966432],[136.954985,34.96636],[136.95471,34.966186],[136.954751,34.966043],[136.954901,34.96583],[136.954929,34.965768],[136.955114,34.965416],[136.955178,34.965256],[136.955196,34.965121],[136.955217,34.964964],[136.955153,34.964871],[136.954926,34.964783],[136.954575,34.964668],[136.954391,34.964609],[136.954178,34.96448],[136.953689,34.964105],[136.953611,34.964017],[136.953469,34.963889],[136.953329,34.96375],[136.953161,34.963562],[136.953042,34.963362],[136.952946,34.963231],[136.95286,34.963158],[136.952744,34.963151],[136.95255,34.963094],[136.952343,34.963035],[136.952137,34.963009],[136.951979,34.962969],[136.951931,34.962958],[136.951854,34.962948],[136.951795,34.962909],[136.951527,34.962793],[136.951398,34.962682],[136.951078,34.962461],[136.950162,34.96242],[136.949992,34.962441],[136.949732,34.962472],[136.949493,34.962517],[136.949332,34.962599],[136.949133,34.962758],[136.94899,34.962852],[136.948848,34.962986],[136.948755,34.963067],[136.948656,34.96312],[136.948478,34.96309],[136.948135,34.963016],[136.948024,34.963011],[136.9479,34.963046],[136.947786,34.963101],[136.947648,34.963147],[136.947507,34.963156],[136.947361,34.963143],[136.947127,34.963104],[136.946945,34.963012],[136.946739,34.962885],[136.946587,34.962764],[136.946481,34.96265],[136.94645,34.962592],[136.946357,34.962064],[136.946326,34.961655],[136.946295,34.961498],[136.946152,34.961211],[136.945824,34.961119],[136.94527,34.961013],[136.944408,34.960904],[136.943778,34.960911],[136.943593,34.960858],[136.942966,34.960678],[136.942705,34.960613],[136.942212,34.960363],[136.941516,34.960023],[136.940855,34.959658],[136.940283,34.959277],[136.939861,34.959127],[136.939728,34.959121],[136.93949,34.95918],[136.939136,34.959197],[136.938628,34.959349],[136.938577,34.959344],[136.938542,34.959326],[136.938367,34.959031],[136.938171,34.958833],[136.93796,34.958656],[136.937526,34.958366],[136.936945,34.958051],[136.936643,34.957944],[136.936069,34.957911],[136.935351,34.957335],[136.934257,34.956606],[136.934133,34.956744],[136.933679,34.95645],[136.933339,34.956341],[136.932738,34.956194],[136.932187,34.956016],[136.93165,34.955798],[136.931452,34.955718],[136.931005,34.955493],[136.930992,34.955417],[136.931011,34.955299],[136.931021,34.955175],[136.930993,34.955144],[136.931076,34.955108],[136.931172,34.955018],[136.931227,34.95495],[136.931282,34.95486],[136.931323,34.954782],[136.931378,34.954725],[136.931433,34.954692],[136.931501,34.954681],[136.931556,34.954681],[136.931584,34.954658],[136.931597,34.954624],[136.931598,34.954545],[136.931598,34.954512],[136.931639,34.954455],[136.931653,34.954422],[136.931653,34.954365],[136.931612,34.954331],[136.931543,34.95432],[136.931475,34.954309],[136.93142,34.954275],[136.931379,34.95423],[136.931311,34.954173],[136.931243,34.95415],[136.931188,34.95415],[136.931092,34.954161],[136.931037,34.954173],[136.930996,34.954161],[136.930983,34.954127],[136.930969,34.954105],[136.930928,34.954093],[136.93086,34.954116],[136.930764,34.954093],[136.930723,34.954048],[136.930697,34.953982],[136.9306,34.953939]]]}},{"type":"Feature","properties":{"name":"生路","city":"東浦町","code":"442","setai":2124,"jinko":5580,"n":1,"towns":["234420040"],"lx":136.965917,"ly":34.954136},"geometry":{"type":"Polygon","coordinates":[[[136.974702,34.961571],[136.9747,34.961407],[136.9747,34.961399],[136.974849,34.961341],[136.975079,34.961249],[136.975404,34.961279],[136.975826,34.961325],[136.976359,34.961379],[136.97654,34.9614],[136.976556,34.961253],[136.97658,34.961101],[136.976612,34.960893],[136.976623,34.960895],[136.976669,34.960901],[136.976688,34.960751],[136.976955,34.960778],[136.976997,34.960588],[136.977002,34.960563],[136.977198,34.960521],[136.977223,34.960381],[136.977256,34.960133],[136.977272,34.960009],[136.978766,34.959548],[136.978761,34.959297],[136.979031,34.959202],[136.979329,34.958985],[136.97947,34.958861],[136.979791,34.958628],[136.980122,34.958397],[136.980288,34.958221],[136.980393,34.957997],[136.980578,34.95762],[136.980779,34.957204],[136.980848,34.957],[136.980872,34.956836],[136.98086,34.956679],[136.980822,34.956435],[136.980788,34.956229],[136.980773,34.956121],[136.980719,34.95583],[136.980681,34.955618],[136.980622,34.955261],[136.980583,34.955051],[136.980537,34.9548],[136.980463,34.954453],[136.980413,34.954253],[136.980368,34.954045],[136.980316,34.953897],[136.980223,34.953636],[136.98016,34.953468],[136.980042,34.953147],[136.979951,34.952908],[136.979842,34.95267],[136.979706,34.952392],[136.979549,34.952137],[136.979409,34.951894],[136.97942,34.951775],[136.979509,34.951666],[136.979678,34.951425],[136.979765,34.951297],[136.979809,34.951205],[136.979825,34.951106],[136.979818,34.950965],[136.979714,34.950582],[136.979595,34.950173],[136.979386,34.94944],[136.979112,34.948422],[136.978912,34.947699],[136.978798,34.9473],[136.977272,34.947684],[136.977016,34.947748],[136.976908,34.947762],[136.976659,34.947792],[136.976591,34.9478],[136.976507,34.947609],[136.976403,34.947366],[136.976359,34.947275],[136.97613,34.947349],[136.974623,34.947824],[136.974862,34.948357],[136.975041,34.948738],[136.974202,34.949015],[136.973545,34.949224],[136.973439,34.949254],[136.973378,34.949261],[136.973152,34.94897],[136.97292,34.949075],[136.972684,34.949166],[136.972531,34.949266],[136.972346,34.949375],[136.972215,34.949612],[136.972024,34.949903],[136.971898,34.950099],[136.971735,34.950233],[136.971598,34.950385],[136.971489,34.950479],[136.971484,34.950582],[136.971527,34.950654],[136.971277,34.950676],[136.971188,34.950704],[136.97107,34.950423],[136.971034,34.950344],[136.970885,34.950424],[136.970559,34.950182],[136.970456,34.950142],[136.970301,34.950335],[136.970297,34.95034],[136.970184,34.950477],[136.970043,34.950545],[136.96993,34.950655],[136.969772,34.950809],[136.969691,34.950887],[136.969572,34.951001],[136.96949,34.951068],[136.969432,34.951115],[136.969356,34.951176],[136.969053,34.95131],[136.96931,34.951547],[136.969214,34.951661],[136.969104,34.951751],[136.968825,34.951774],[136.968277,34.952174],[136.968197,34.95222],[136.968002,34.952141],[136.967834,34.952078],[136.967684,34.952058],[136.967627,34.952091],[136.967394,34.952177],[136.967151,34.952233],[136.967034,34.952125],[136.966917,34.952111],[136.966688,34.952114],[136.966348,34.952335],[136.966141,34.952514],[136.96606,34.952593],[136.96602,34.952624],[136.966156,34.952769],[136.965884,34.952853],[136.965687,34.952904],[136.965623,34.95291],[136.965296,34.95294],[136.965295,34.952937],[136.965311,34.952831],[136.965236,34.952818],[136.964905,34.952764],[136.964882,34.95276],[136.964877,34.952785],[136.964841,34.952965],[136.964664,34.952944],[136.964665,34.952898],[136.964656,34.952896],[136.964336,34.95283],[136.964064,34.952732],[136.963754,34.952685],[136.963319,34.952653],[136.962944,34.952645],[136.962399,34.952638],[136.962381,34.953035],[136.961665,34.95305],[136.961383,34.953051],[136.961271,34.953044],[136.960765,34.953081],[136.960597,34.953083],[136.960522,34.953023],[136.959636,34.953027],[136.959636,34.952209],[136.959637,34.95202],[136.959639,34.951702],[136.95901,34.9517],[136.958402,34.951698],[136.958374,34.951698],[136.958374,34.951698],[136.958035,34.951354],[136.958033,34.951345],[136.958027,34.951346],[136.957911,34.951355],[136.957699,34.951371],[136.957695,34.951368],[136.957617,34.951303],[136.957467,34.951179],[136.957218,34.950973],[136.956958,34.950935],[136.956872,34.951122],[136.956859,34.951142],[136.956794,34.951219],[136.956735,34.951262],[136.956688,34.951286],[136.956632,34.95132],[136.956572,34.951347],[136.956469,34.95139],[136.956343,34.951449],[136.956283,34.951441],[136.956106,34.951419],[136.955938,34.951398],[136.955783,34.951378],[136.95564,34.95151],[136.955552,34.951559],[136.955468,34.951594],[136.955283,34.951673],[136.955129,34.951735],[136.955033,34.951774],[136.954796,34.951847],[136.954642,34.951896],[136.954569,34.951918],[136.954537,34.951888],[136.954452,34.951808],[136.954354,34.951717],[136.954257,34.951628],[136.954168,34.951547],[136.954053,34.951442],[136.953967,34.951351],[136.953851,34.951221],[136.953777,34.951133],[136.953757,34.951091],[136.953724,34.951018],[136.953654,34.950833],[136.95337,34.950673],[136.953124,34.950536],[136.952942,34.950514],[136.95269,34.950482],[136.952553,34.950455],[136.952273,34.95038],[136.95226,34.950369],[136.952414,34.949897],[136.952655,34.949156],[136.95284,34.948571],[136.952841,34.948571],[136.952886,34.948429],[136.952975,34.948149],[136.952653,34.948087],[136.951959,34.947954],[136.951716,34.947958],[136.951701,34.947954],[136.951548,34.947914],[136.951344,34.947872],[136.95114,34.947864],[136.951029,34.947872],[136.950922,34.947891],[136.950679,34.947971],[136.950282,34.94812],[136.95,34.948245],[136.94938,34.948493],[136.949228,34.948535],[136.94894,34.948466],[136.948931,34.948466],[136.948866,34.948443],[136.947934,34.948311],[136.946521,34.948084],[136.946105,34.947999],[136.945427,34.947747],[136.944835,34.947526],[136.944649,34.947371],[136.94418,34.946569],[136.944222,34.946455],[136.944192,34.946213],[136.944136,34.945462],[136.944089,34.944604],[136.944073,34.9443],[136.944046,34.944121],[136.943983,34.94382],[136.943949,34.943641],[136.943926,34.943593],[136.943758,34.943774],[136.943536,34.943975],[136.94345,34.943955],[136.943325,34.944489],[136.943233,34.945049],[136.943183,34.945529],[136.943177,34.945976],[136.943129,34.94634],[136.943135,34.946697],[136.943272,34.946977],[136.943601,34.947467],[136.9439,34.94784],[136.94442,34.948194],[136.944571,34.948252],[136.944796,34.948299],[136.944885,34.948351],[136.945031,34.948557],[136.945192,34.948793],[136.945425,34.949068],[136.94566,34.949579],[136.945616,34.950041],[136.945554,34.95003],[136.945292,34.949963],[136.944867,34.949854],[136.944559,34.94969],[136.944029,34.949492],[136.943742,34.949385],[136.943305,34.949222],[136.943062,34.949132],[136.94296,34.948995],[136.942648,34.948955],[136.942598,34.948896],[136.942489,34.948766],[136.942334,34.948686],[136.942111,34.94857],[136.942056,34.948524],[136.941928,34.948425],[136.941793,34.948325],[136.9418,34.948128],[136.941839,34.94803],[136.941892,34.947966],[136.941932,34.947921],[136.941951,34.947856],[136.941919,34.947775],[136.941788,34.947672],[136.941692,34.947596],[136.941181,34.947711],[136.941256,34.947946],[136.941392,34.94834],[136.941581,34.94887],[136.941598,34.948877],[136.941827,34.948871],[136.94235,34.949172],[136.942569,34.949279],[136.942794,34.949395],[136.943209,34.949639],[136.943359,34.949727],[136.94347,34.949833],[136.943484,34.949874],[136.944118,34.95017],[136.944382,34.95026],[136.944715,34.950306],[136.945216,34.950405],[136.945429,34.950462],[136.945598,34.950536],[136.945847,34.950611],[136.94599,34.950624],[136.945957,34.950736],[136.945918,34.95084],[136.94577,34.951096],[136.945745,34.951139],[136.94626,34.951335],[136.94678,34.951532],[136.947342,34.951746],[136.94842,34.952158],[136.94833,34.952647],[136.948302,34.952801],[136.948156,34.953508],[136.948101,34.953773],[136.948086,34.953846],[136.948464,34.953896],[136.94965,34.95405],[136.949572,34.955019],[136.949483,34.955702],[136.950231,34.955805],[136.951812,34.956023],[136.953041,34.956193],[136.95416,34.956348],[136.956221,34.956632],[136.956474,34.956664],[136.956672,34.956679],[136.956704,34.956677],[136.956736,34.95662],[136.95695,34.956318],[136.9571,34.955871],[136.957069,34.955701],[136.957112,34.955542],[136.957266,34.955275],[136.957469,34.955045],[136.957679,34.954894],[136.957847,34.95481],[136.958048,34.954758],[136.958195,34.954756],[136.958545,34.954742],[136.958814,34.954698],[136.958913,34.954687],[136.959013,34.955026],[136.959098,34.955314],[136.959287,34.955622],[136.959592,34.956132],[136.959649,34.956188],[136.959708,34.95626],[136.959742,34.956316],[136.959863,34.9565],[136.960153,34.956436],[136.960156,34.956437],[136.960498,34.956364],[136.961048,34.95627],[136.961197,34.956243],[136.961457,34.956155],[136.961846,34.955975],[136.962067,34.955865],[136.962387,34.955731],[136.962533,34.95567],[136.962714,34.955668],[136.962773,34.955759],[136.962856,34.955887],[136.96282,34.956018],[136.963332,34.956131],[136.963362,34.956165],[136.963383,34.956259],[136.963401,34.956282],[136.963544,34.956326],[136.963648,34.956361],[136.963722,34.956395],[136.963738,34.956397],[136.963893,34.956418],[136.96398,34.95643],[136.96403,34.956475],[136.964338,34.957108],[136.964567,34.957576],[136.964567,34.957576],[136.964912,34.957469],[136.965319,34.957331],[136.9654,34.957495],[136.96564,34.95797],[136.965847,34.958379],[136.966025,34.958733],[136.966248,34.959175],[136.966473,34.959622],[136.966697,34.960086],[136.966703,34.960099],[136.966873,34.960467],[136.966927,34.960586],[136.967195,34.960502],[136.967416,34.960433],[136.967432,34.960468],[136.96751,34.960635],[136.967705,34.96041],[136.967794,34.960308],[136.968116,34.960524],[136.968292,34.960647],[136.968487,34.960766],[136.968642,34.960809],[136.968643,34.960809],[136.970186,34.961146],[136.970348,34.961205],[136.970422,34.961232],[136.971024,34.961386],[136.971564,34.961528],[136.971528,34.96165],[136.971486,34.961796],[136.971578,34.961818],[136.972073,34.961899],[136.972363,34.961954],[136.972431,34.961787],[136.972623,34.961832],[136.972644,34.961838],[136.972945,34.961638],[136.973028,34.961572],[136.97304,34.961502],[136.973298,34.961507],[136.973421,34.961509],[136.973575,34.961678],[136.973849,34.96196],[136.973935,34.961917],[136.974048,34.961847],[136.974097,34.961832],[136.97422,34.961808],[136.974376,34.961781],[136.9747,34.961723],[136.974708,34.961719],[136.974702,34.961571]]]}},{"type":"Feature","properties":{"name":"藤江","city":"東浦町","code":"442","setai":2708,"jinko":6917,"n":2,"towns":["23442005000","23442005011"],"lx":136.963022,"ly":34.943692},"geometry":{"type":"Polygon","coordinates":[[[136.943926,34.943593],[136.944122,34.94338],[136.944164,34.943322],[136.944209,34.943175],[136.944148,34.943098],[136.944114,34.943042],[136.944078,34.94301],[136.944048,34.942976],[136.943979,34.942834],[136.943956,34.942719],[136.943997,34.942599],[136.94405,34.942518],[136.944143,34.942337],[136.944161,34.942217],[136.944136,34.94207],[136.944012,34.941853],[136.943932,34.941712],[136.944194,34.941653],[136.944501,34.941583],[136.944905,34.941638],[136.945299,34.941666],[136.94566,34.941558],[136.945966,34.941559],[136.946419,34.941563],[136.946546,34.941597],[136.946675,34.941659],[136.946828,34.941748],[136.947084,34.941895],[136.947238,34.941994],[136.947318,34.942046],[136.948125,34.941929],[136.948442,34.941559],[136.948728,34.941321],[136.948851,34.941287],[136.949003,34.941246],[136.949095,34.941193],[136.94926,34.941111],[136.949459,34.94102],[136.949564,34.940967],[136.949697,34.940929],[136.949823,34.940887],[136.950368,34.940402],[136.950409,34.940339],[136.950458,34.940251],[136.950474,34.940222],[136.950511,34.940152],[136.950537,34.940097],[136.950539,34.940045],[136.950621,34.939899],[136.950658,34.939828],[136.950697,34.939754],[136.950734,34.939698],[136.950774,34.939626],[136.950805,34.939568],[136.950838,34.939516],[136.950845,34.939487],[136.950854,34.939458],[136.950862,34.939437],[136.950861,34.93931],[136.951105,34.939243],[136.951169,34.939244],[136.951322,34.939263],[136.951462,34.939272],[136.951626,34.939275],[136.951727,34.939262],[136.951846,34.939289],[136.951938,34.939288],[136.951974,34.939259],[136.952028,34.939209],[136.952234,34.939018],[136.952313,34.938977],[136.952399,34.938936],[136.952482,34.938888],[136.952658,34.938763],[136.952735,34.938709],[136.952825,34.938682],[136.952891,34.938657],[136.952935,34.938645],[136.953519,34.938354],[136.953744,34.93826],[136.954113,34.938119],[136.954302,34.938186],[136.954344,34.938199],[136.954561,34.938235],[136.955417,34.938375],[136.956003,34.938473],[136.956495,34.938554],[136.95651,34.938535],[136.956701,34.938277],[136.956829,34.938214],[136.956911,34.938192],[136.957029,34.938184],[136.957108,34.938182],[136.957256,34.938138],[136.957283,34.938125],[136.957354,34.93807],[136.957439,34.938014],[136.957595,34.937998],[136.958055,34.938027],[136.958125,34.938035],[136.958216,34.938069],[136.958262,34.938086],[136.958444,34.938178],[136.958489,34.93824],[136.958555,34.938315],[136.958605,34.938399],[136.958651,34.938474],[136.958721,34.93857],[136.958797,34.938641],[136.958862,34.938699],[136.958776,34.938778],[136.958624,34.938878],[136.958649,34.938932],[136.958659,34.938966],[136.958666,34.938996],[136.958684,34.939082],[136.958715,34.939229],[136.958713,34.93931],[136.958706,34.939368],[136.958684,34.939412],[136.958633,34.939482],[136.958567,34.939582],[136.958647,34.939924],[136.958662,34.939975],[136.958849,34.93996],[136.958987,34.939877],[136.959117,34.939841],[136.959188,34.939803],[136.959227,34.939734],[136.959277,34.93968],[136.959302,34.939634],[136.959319,34.939582],[136.959382,34.93954],[136.959457,34.939515],[136.95948,34.93951],[136.959506,34.939536],[136.960246,34.940309],[136.960304,34.940283],[136.96033,34.940271],[136.960682,34.940167],[136.960778,34.940134],[136.961046,34.940043],[136.961144,34.94001],[136.961202,34.93999],[136.96129,34.939948],[136.961353,34.939917],[136.961722,34.93974],[136.962087,34.93956],[136.962569,34.939322],[136.962996,34.93909],[136.963019,34.939077],[136.962997,34.939048],[136.963037,34.939021],[136.963053,34.939006],[136.96512,34.937649],[136.966887,34.936603],[136.967014,34.936453],[136.967019,34.936303],[136.96695,34.936183],[136.966883,34.936113],[136.966827,34.93601],[136.966638,34.935776],[136.966227,34.935287],[136.96628,34.935147],[136.966003,34.934892],[136.96538,34.933521],[136.965182,34.933093],[136.965707,34.933043],[136.968656,34.932761],[136.973445,34.932291],[136.975211,34.932122],[136.975246,34.932118],[136.975342,34.932897],[136.975458,34.933737],[136.975593,34.934732],[136.975713,34.935627],[136.975799,34.936258],[136.975937,34.936825],[136.975913,34.93691],[136.975876,34.93696],[136.975807,34.937012],[136.975711,34.937052],[136.975617,34.937067],[136.975402,34.936913],[136.975322,34.936913],[136.975285,34.936986],[136.975359,34.937272],[136.975293,34.9376],[136.975354,34.937693],[136.975657,34.93786],[136.975996,34.938122],[136.976099,34.938222],[136.976108,34.93859],[136.976147,34.939274],[136.976179,34.940053],[136.976213,34.940733],[136.976285,34.941794],[136.976312,34.942751],[136.976338,34.943442],[136.976306,34.943587],[136.976143,34.94371],[136.975707,34.943934],[136.975102,34.944189],[136.974898,34.944289],[136.974686,34.944337],[136.974659,34.944393],[136.974783,34.944492],[136.974902,34.944497],[136.975137,34.944449],[136.975245,34.944546],[136.975641,34.944203],[136.976283,34.94391],[136.977019,34.943648],[136.977455,34.943502],[136.977685,34.943431],[136.977888,34.943506],[136.978027,34.943836],[136.978378,34.945137],[136.978798,34.9473],[136.977272,34.947684],[136.977016,34.947748],[136.976908,34.947762],[136.976659,34.947792],[136.976591,34.9478],[136.976507,34.947609],[136.976403,34.947366],[136.976359,34.947275],[136.97613,34.947349],[136.974623,34.947824],[136.974862,34.948357],[136.975041,34.948738],[136.974202,34.949015],[136.973545,34.949224],[136.973439,34.949254],[136.973378,34.949261],[136.973152,34.94897],[136.97292,34.949075],[136.972684,34.949166],[136.972531,34.949266],[136.972346,34.949375],[136.972215,34.949612],[136.972024,34.949903],[136.971898,34.950099],[136.971735,34.950233],[136.971598,34.950385],[136.971489,34.950479],[136.971484,34.950582],[136.971527,34.950654],[136.971277,34.950676],[136.971188,34.950704],[136.97107,34.950423],[136.971034,34.950344],[136.970885,34.950424],[136.970559,34.950182],[136.970456,34.950142],[136.970301,34.950335],[136.970297,34.95034],[136.970184,34.950477],[136.970043,34.950545],[136.96993,34.950655],[136.969772,34.950809],[136.969691,34.950887],[136.969572,34.951001],[136.96949,34.951068],[136.969432,34.951115],[136.969356,34.951176],[136.969053,34.95131],[136.96931,34.951547],[136.969214,34.951661],[136.969104,34.951751],[136.968825,34.951774],[136.968277,34.952174],[136.968197,34.95222],[136.968002,34.952141],[136.967834,34.952078],[136.967684,34.952058],[136.967627,34.952091],[136.967394,34.952177],[136.967151,34.952233],[136.967034,34.952125],[136.966917,34.952111],[136.966688,34.952114],[136.966348,34.952335],[136.966141,34.952514],[136.96606,34.952593],[136.96602,34.952624],[136.966156,34.952769],[136.965884,34.952853],[136.965687,34.952904],[136.965623,34.95291],[136.965296,34.95294],[136.965295,34.952937],[136.965311,34.952831],[136.965236,34.952818],[136.964905,34.952764],[136.964882,34.95276],[136.964841,34.952965],[136.964664,34.952944],[136.964665,34.952898],[136.964656,34.952896],[136.964336,34.95283],[136.964064,34.952732],[136.963754,34.952685],[136.963319,34.952653],[136.962944,34.952645],[136.962399,34.952638],[136.962381,34.953035],[136.961665,34.95305],[136.961383,34.953051],[136.961271,34.953044],[136.960765,34.953081],[136.960597,34.953083],[136.960522,34.953023],[136.959636,34.953027],[136.959636,34.952209],[136.959637,34.95202],[136.959639,34.951702],[136.95901,34.9517],[136.958402,34.951698],[136.958374,34.951698],[136.958035,34.951354],[136.958033,34.951345],[136.958027,34.951346],[136.957911,34.951355],[136.957699,34.951371],[136.957695,34.951368],[136.957617,34.951303],[136.957467,34.951179],[136.957218,34.950973],[136.956958,34.950935],[136.956872,34.951122],[136.956859,34.951142],[136.956794,34.951219],[136.956735,34.951262],[136.956688,34.951286],[136.956632,34.95132],[136.956572,34.951347],[136.956469,34.95139],[136.956343,34.951449],[136.956283,34.951441],[136.956106,34.951419],[136.955938,34.951398],[136.955783,34.951378],[136.95564,34.95151],[136.955552,34.951559],[136.955468,34.951594],[136.955283,34.951673],[136.955129,34.951735],[136.955033,34.951774],[136.954796,34.951847],[136.954642,34.951896],[136.954569,34.951918],[136.954537,34.951888],[136.954452,34.951808],[136.954354,34.951717],[136.954257,34.951628],[136.954168,34.951547],[136.954053,34.951442],[136.953967,34.951351],[136.953851,34.951221],[136.953777,34.951133],[136.953757,34.951091],[136.953724,34.951018],[136.953654,34.950833],[136.95337,34.950673],[136.953124,34.950536],[136.952942,34.950514],[136.95269,34.950482],[136.952553,34.950455],[136.952273,34.95038],[136.95226,34.950369],[136.952414,34.949897],[136.952655,34.949156],[136.95284,34.948571],[136.952841,34.948571],[136.952886,34.948429],[136.952975,34.948149],[136.952653,34.948087],[136.951959,34.947954],[136.951716,34.947958],[136.951701,34.947954],[136.951548,34.947914],[136.951344,34.947872],[136.95114,34.947864],[136.951029,34.947872],[136.950922,34.947891],[136.950679,34.947971],[136.950282,34.94812],[136.95,34.948245],[136.94938,34.948493],[136.949228,34.948535],[136.94894,34.948466],[136.948931,34.948466],[136.948866,34.948443],[136.947934,34.948311],[136.946521,34.948084],[136.946105,34.947999],[136.945427,34.947747],[136.944835,34.947526],[136.944649,34.947371],[136.94418,34.946569],[136.944222,34.946455],[136.944192,34.946213],[136.944136,34.945462],[136.944089,34.944604],[136.944073,34.9443],[136.944046,34.944121],[136.943983,34.94382],[136.943949,34.943641],[136.943926,34.943593]]]}}]}